name,loc_type,street,town,other_address
Baileys Crossroads Health Access Partnership,Clinics,3245 Glen Carlyn Rd,"Falls Church, VA 22041",
Clinical Studies Limited,Clinics,6066 Leesburg Pike,"Falls Church, VA 22041",
Park Center,Clinics,2601 Park Center Dr,"Alexandria, VA 22302",
Medstar Promptcare,Clinics,3610 King St,"Alexandria, VA 22302",
Prime Medical Center,Clinics,2946 Sleepy Hollow Rd,"Falls Church, VA 22044",
Georgetown Lombardi Comprehensive Cancer Center-Pediatrics,Clinics,3800 Reservoir Rd NW,"Washington, DC 20007",
Parkinsons Disease Clinic,Clinics,3800 Reservoir Rd NW,"Washington, DC 20007",
Tidings Out Of The East Inc.,Clinics,5713 Harwich Ct,"Alexandria, VA 22311",
Denova MIS Clinic,Clinics,6400 Arlington Blvd,"Falls Church, VA 22042",
Comprehensive Health Clinic,Clinics,730 24th St NW Ste 2,"Washington, DC 20037",
George Washington University Hospital,Clinics,901 23rd St NW,"Washington, DC 20037",
Depression Clinic,Clinics,3 Washington Cir NW,"Washington, DC 20037",
Washington Endocrine Clinic,Clinics,2440 M St NW Ste 417,"Washington, DC 20037",
Pinney Davenport Nutrition,Clinics,2440 M St NW,"Washington, DC 20037",
A Center For Self-Development,Clinics,2440 M St NW Ste 425,"Washington, DC 20037",
Inova Health,Clinics,500 N Washington St,"Falls Church, VA 22046",
Fogel Foundation,Clinics,1011 New Hampshire Ave NW,"Washington, DC 20037",
Childrens National Medical Center,Clinics,2141 K St NW Ste 600,"Washington, DC 20037",
Allergy & Nutrition Clinic,Clinics,6521 Arlington Blvd Ste 104,"Falls Church, VA 22042",
Taste & Smell Clinic,Clinics,5125 Macarthur Blvd NW Ste 20,"Washington, DC 20016",
Medical Care Inc,Clinics,2029 K St NW,"Washington, DC 20006",
MedStar Medical Group At Lafayette,Clinics,1133 21st St NW,"Washington, DC 20036",
Reproductive Health Technologies Project,Clinics,1020 19th St NW Ste 875,"Washington, DC 20036",
Unity Health Care,Clinics,444 Swann Ave,"Alexandria, VA 22301",
Select Medical,Clinics,919 18th St NW,"Washington, DC 20006",
Wake Forest Baptist Med Ctr,Clinics,1850 M St NW,"Washington, DC 20036",
Cardio Care,Clinics,900 17th St NW,"Washington, DC 20006",
Bline Medical,Clinics,1300 19th St NW Ste 101,"Washington, DC 20036",
Arlington Urgent Care Center,Clinics,1 Hillwood Ave,"Falls Church, VA 22046",
Michael Romeo Group,Clinics,1219 Connecticut Ave NW Fl 4,"Washington, DC 20036",
Advanced Back & Neck Pain Center,Clinics,46 S Glebe Rd Ste 100,"Arlington, VA 22204",
XPRESS Care Walk-In Urgent Care,Clinics,1409 S Fern St,"Arlington, VA 22202",
Healing  Works Physical Therapy,Clinics,512 N Oxford St,"Arlington, VA 22203",
Wound Care & Hyperbaric Medicine - VHC Physician Group,Clinics,1701 N George Mason Dr Ste G200,"Arlington, VA 22205",
Inova Urgent Care-South Arlington,Clinics,3263 Columbia Pike,"Arlington, VA 22204",
MinuteClinic,Clinics,3133 Lee Hwy,"Arlington, VA 22201",
Broadreach Healthcare,Clinics,1655 Fort Myer Dr Ste 700,"Arlington, VA 22209",
"Arlington Advanced Dental Care, Dr.Hossein Ahmadian,DDS",Clinics,1010 N Glebe Rd Ste 120,"Arlington, VA 22201",
Bug & Bunny Clinic Inc,Clinics,3902 Wilson Blvd,"Arlington, VA 22203",
Arlington Free Clinic,Clinics,2921 11th St S,"Arlington, VA 22204",
Immunization Clinic,Clinics,2100 Washington Blvd,"Arlington, VA 22204",
Collaborative Physical Therapy P,Clinics,4923 14th St N,"Arlington, VA 22205",
Matthew B Gavin,Clinics,2445 Army Navy Dr,"Arlington, VA 22206",
Whitman Walker Clinic,Clinics,5232 Lee Hwy,"Arlington, VA 22207",
Mid Atlantic Urgent Care,Clinics,3301 Wilson Blvd,"Arlington, VA 22201",
"Dr. George C Branche, MD",Clinics,2445 Army Navy Dr,"Arlington, VA 22206",
Dominion Fertility,Clinics,4040 Fairfax Dr Ste 600,"Arlington, VA 22203",
Virginia Hospital Center,Clinics,601 S Carlin Springs Rd,"Arlington, VA 22204",
"Gordon, John David, MD",Clinics,46 S Glebe Rd Ste 301,"Arlington, VA 22204",
Jacobs Chiropractic,Clinics,2433 26th Rd S,"Arlington, VA 22206",
Free Abortion Alternatives,Clinics,1100 N Glebe Rd Ste 1010,"Arlington, VA 22201",
Bowman Chiropractic Center And Arlington Pain Management,Clinics,3924 Wilson Blvd,"Arlington, VA 22203",
DaVita,Clinics,4805 1st St N,"Arlington, VA 22203",
"Dr. Alan Stephen Terlinsky, MD",Clinics,611 S Carlin Springs Rd Ste 411,"Arlington, VA 22204",
Renascence Clinic,Clinics,46 S Glebe Rd Ste 103,"Arlington, VA 22204",
Arlington Primary Care,Clinics,1635 N George Mason Dr,"Arlington, VA 22205",
Da Vita Inc,Clinics,1701 N George Mason Dr,"Arlington, VA 22205",
Nirschl Orthopedic Center,Clinics,1715 N George Mason Dr Ste 504,"Arlington, VA 22205",
"Dr. John Alan Sandiford, MD",Clinics,1715 N George Mason Dr Ste 403,"Arlington, VA 22205",
Breast Health Center,Clinics,1715 N George Mason Dr Ste 2,"Arlington, VA 22205",
Pentagon City Kidney Center,Clinics,2445 Army Navy Dr,"Arlington, VA 22206",
Coudon Wilson L,Clinics,1400 S Joyce St,"Arlington, VA 22202",
Ageless M D,Clinics,2221 N Buchanan St,"Arlington, VA 22207",
Core Elements Physical Therapy,Clinics,4900 31st St S,"Arlington, VA 22206",
Virginia Radiological Ass,Clinics,2501 N Glebe Rd,"Arlington, VA 22207",
Target - Pharmacy,Clinics,5115 Leesburg Pike,"Falls Church, VA 22041",
"The Physician & Midwife Collaborative Practice, P.C.",Clinics,4660 Kenmore Ave,"Alexandria, VA 22304",
Prime Medical Center,Clinics,6400 Seven Corners Pl Ste M,"Falls Church, VA 22044",
Advantage Physical Therapy,Clinics,6565 Arlington Blvd Ste 220,"Falls Church, VA 22042",
"Capital Dermatology, LTD",Clinics,4660 Kenmore Ave Ste 500,"Alexandria, VA 22304",
Seven Corners Medical Center,Clinics,6045 Arlington Blvd,"Falls Church, VA 22044",
Route 7 & Patrick Henry Dental Care,Clinics,6201 Leesburg Pike Ste 401,"Falls Church, VA 22044",
The Institute of Multidimensional Medicine Medical Spa - TIMM SPA,Clinics,2311 M St NW Ste 202,"Washington, DC 20037",
Inova Alexandria Occupational Health Center,Clinics,4320 Seminary Rd,"Alexandria, VA 22304",
Inova Urogynecology,Clinics,500 N. Washington Street Suite 300,"Falls Church, VA 22046",
Health Essence Clinical Massage,Clinics,6521 Arlington Blvd Ste 104,"Falls Church, VA 22042",
MedStar Health Orthopedic & Sports Center,Clinics,1120 20th St NW,"Washington, DC 20036",
Passport Health DC,Clinics,1145 19th St NW Ste 608,"Washington, DC 20036",
Mama Lidia's Clinic,Clinics,1705 L St NW,"Washington, DC 20036",
Gambro Healthcare,Clinics,5150 Duke St,"Alexandria, VA 22304",
Yater Medical Group,Clinics,1327 18th St NW,"Washington, DC 20036",
Legacy Health Care Services,Clinics,3520 Duke St,"Alexandria, VA 22304",
Washington Infectious Diseases,Clinics,1712 I St NW,"Washington, DC 20006",
Passport Health Alexandria,Clinics,3307 Duke St,"Alexandria, VA 22314",
Washington Ent Group,Clinics,2440 M St NW Ste 620,"Washington, DC 20037",
Washington Surgi-Clinic,Clinics,2112 F St NW Ste 400,"Washington, DC 20037",
Associates In Medicine,Clinics,131 E Broad St,"Falls Church, VA 22046",
Shady Grove Fertility Ctr,Clinics,2021 K St NW Ste 701,"Washington, DC 20006",
King Street Chiropractic Wellness Center,Clinics,3543 W Braddock Rd,"Alexandria, VA 22302",
MediClin,Clinics,"1050 17th street NW,suite 1000","Washington, DC 20036",
Metropolitan Plastic Surgery - Saeed Marefat MD,Clinics,313 Park Ave Ste 100a,"Falls Church, VA 22046",
Transformational Acupuncture,Clinics,1645 Connecticut Ave NW Apt 3,"Washington, DC 20009",
Ultrasound Associates,Clinics,5055 Seminary Rd Ste 104,"Alexandria, VA 22311",
Vein Clinics of America,Clinics,4900 Seminary Rd Ste 100,"Alexandria, VA 22311",
Family Medicine Associates of Alexandria,Clinics,1800 N Beauregard St Ste 250,"Alexandria, VA 22311",
A Woman's Choice,Clinics,6201 Leesburg Pike Ste 220,"Falls Church, VA 22044",
Urology - VHC Physician Group,Clinics,1600 N Beauregard St,"Alexandria, VA 22311",
Professional Hearing Services,Clinics,6231 Leesburg Pike Ste 512,"Falls Church, VA 22044",
Virginia Cancer Specialists - Alexandria,Clinics,4660 Kenmore Ave Ste 1018,"Alexandria, VA 22304",
Alexandria Podiatry Associates,Clinics,3543 W Braddock Rd Ste B1,"Alexandria, VA 22302",
"Addis Chiropractic & Physical Medicine, P.C.",Clinics,3541 W Braddock Rd Ste 203,"Alexandria, VA 22302",
Center-Integrative Medicine,Clinics,908 New Hampshire Ave NW Ste 200,"Washington, DC 20037",
Ear Nose & Throat Medical Group,Clinics,2021 K St NW Ste 210,"Washington, DC 20006",
Allcare Foot And Ankle Center,Clinics,313 Park Ave,"Falls Church, VA 22046",
"Cenegenics Washington, D.C.",Clinics,1715 N St NW,"Washington, DC 20036",
Primary Care Falls Church - VHC Physician Group,Clinics,400 S Maple Ave Ste 200,"Falls Church, VA 22046",
Target - Pharmacy,Clinics,6100 Arlington Blvd,"Falls Church, VA 22044",
"Gardner Jr, Charles W, MD",Clinics,4401 Ford Ave Ste 250,"Alexandria, VA 22302",
Nalin G Patel Md Pc,Clinics,5242 Dawes Ave,"Alexandria, VA 22311",
Gahres Edward E M D LTD,Clinics,5021 Seminary Rd Ste 109,"Alexandria, VA 22311",
All Pediatrics,Clinics,1500 N Beauregard St Ste 200,"Alexandria, VA 22311",
Michelle M Roeser MD,Clinics,6231 Leesburg Pike,"Falls Church, VA 22044",
Alexandria Neighborhood Health Srv Inc,Clinics,3802 Executive Ave Apt D1,"Alexandria, VA 22305",
Fairfax Northern Virginia Hematology Oncology,Clinics,4660 Kenmore Ave,"Alexandria, VA 22304",
Potomac Urology,Clinics,4660 Kenmore Ave Ste 1120,"Alexandria, VA 22304",
Medical Faculty Associates Inc,Clinics,4660 Kenmore Ave,"Alexandria, VA 22304",
Ribeiro Foot & Ankle Center,Clinics,4660 Kenmore Ave Ste 602,"Alexandria, VA 22304",
Cn Internal Medicine,Clinics,4660 Kenmore Ave Ste 604,"Alexandria, VA 22304",
MedStar Medical Group At Alexandria,Clinics,3610c King St,"Alexandria, VA 22302",
DaVita,Clinics,3223 K St NW,"Washington, DC 20007",
"Glew Jr, William B, MD",Clinics,3000 K St NW,"Washington, DC 20007",
Gastroenterology Associates,Clinics,3800 Reservoir Rd NW,"Washington, DC 20007",
Cox James,Clinics,3800 Reservoir Rd NW,"Washington, DC 20007",
Pain Management Institute of DC,Clinics,2112 F St NW Ste 802a,"Washington, DC 20037",
Abortion Services,Clinics,2112 F St NW,"Washington, DC 20037",
Katzow Jacob J,Clinics,3 Washington Cir NW Ste 406,"Washington, DC 20037",
Jemsek Specialty Clinic,Clinics,2440 M St NW Ste 205,"Washington, DC 20037",
Medstar Neurosurgery,Clinics,2440 M St NW,"Washington, DC 20037",
Promd Health DC,Clinics,2440 M St NW,"Washington, DC 20037",
Pullman & Ariza Pediatrics,Clinics,2440 M St NW Ste 422,"Washington, DC 20037",
Children's Pediatricians-Assoc,Clinics,2141 K St NW Ste 401,"Washington, DC 20037",
Heart House,Clinics,2400 N St NW Fl 7,"Washington, DC 20037",
Lasik Vision,Clinics,1120 New Hampshire Ave NW,"Washington, DC 20037",
DaVita,Clinics,2233 Wisconsin Ave NW Ste 214,"Washington, DC 20007",
"Corbin, Samuel, PT",Clinics,6565 Arlington Blvd,"Falls Church, VA 22042",
Medstar Ambulatory Services,Clinics,1120 20th St NW,"Washington, DC 20036",
Core Wellness & Physical Therapy,Clinics,2212 Mount Vernon Ave,"Alexandria, VA 22301",
Total Health Physical Therapy,Clinics,1712 I St NW Ste 305,"Washington, DC 20006",
Professional Sports Care & Rehab,Clinics,1150 18th St NW,"Washington, DC 20036",
1132 FMC Alexandria,Clinics,4141 Duke St,"Alexandria, VA 22304",
Planned Parenthood,Clinics,1120 Connecticut Ave NW,"Washington, DC 20036",
Susan J Mann,Clinics,1001 Connecticut Ave NW,"Washington, DC 20036",
Planned Parenthood,Clinics,1001 Connecticut Ave NW Ste 410,"Washington, DC 20036",
Planned Parenthood,Clinics,370 S Washington St,"Falls Church, VA 22046",
DaVita,Clinics,5150 Duke St,"Alexandria, VA 22304",
Dupont Circle Dialysis Center,Clinics,11 Dupont Cir NW Ste Ll100,"Washington, DC 20036",
Planned Parenthood,Clinics,1108 16th St NW,"Washington, DC 20036",
DaVita,Clinics,2131 K St NW Ste 300,"Washington, DC 20037",
Washington Infectious Diseases,Clinics,2311 M St NW Ste 401,"Washington, DC 20037",
Falls Church Healthcare Center,Clinics,900 S Washington St Ste 300,"Falls Church, VA 22046",
Unity Health Care inc.,Clinics,1100 New Jersey Ave SE,"Washington, DC 20003",
Standard  Health Care Training Services,Clinics,1057 W Broad St,"Falls Church, VA 22046",
Ace Orthodontics,Clinics,2841 Hartland Rd Ste 302,"Falls Church, VA 22043",
Alexandria Immediate Care,Clinics,6020 Richmond Hwy Ste 102,"Alexandria, VA 22303",
"Stellar Dental, LLC",Clinics,5813 Eastern Ave,"Hyattsville, MD 20782",
TB Chest Clinic,Clinics,1900 Massachusetts Ave SE,"Washington, DC 20003",
Medics USA,Clinics,2750 14th St NW,"Washington, DC 20009",
Total Renal Care,Clinics,810 1st St NE Ste 100,"Washington, DC 20002",
Passport Health Tysons Corner,Clinics,7777 Leesburg Pike Ste 208s,"Falls Church, VA 22043",
Premier Patient Healthcare,Clinics,6355 Walker Ln Ste 310,"Alexandria, VA 22310",
Childrens Hospital,Clinics,3029 Martin Luther King Jr Ave SE,"Washington, DC 20032",
The Chronic pain center,Clinics,6417 Loisdale Rd Ste 311,"Springfield, VA 22150",
Falls Church Urgent Care,Clinics,920 W Broad St Ste B,"Falls Church, VA 22046",
Healthsouth Diagnostic Center,Clinics,5454 Wisconsin Ave Ste 1765,"Chevy Chase, MD 20815",
Mercy Services Health Inc,Clinics,5411 Backlick Rd,"Springfield, VA 22151",
United Medical Center,Clinics,1310 Southern Ave SE,"Washington, DC 20032",
Bethesda Immediate Care,Clinics,8305 Wisconsin Ave,"Bethesda, MD 20814",
MinuteClinic,Clinics,1275 Pennsylvania Ave NW,"Washington, DC 20004",
Old Dominion Urgent Care Center,Clinics,6262 Old Dominion Dr,"Mc Lean, VA 22101",
MinuteClinic,Clinics,655 K St NW,"Washington, DC 20001",
Loehmanns Walk in clinic,Clinics,7283 Arlington Blvd,"Falls Church, VA 22042",
MinuteClinic,Clinics,4555 Wisconsin Ave NW,"Washington, DC 20016",
MinuteClinic,Clinics,7205 Little River Tpke,"Annandale, VA 22003",
Med Star Health,Clinics,660 Pennsylvania Ave SE,"Washington, DC 20003",
MinuteClinic,Clinics,1452 Chain Bridge Rd,"Mc Lean, VA 22101",
Eastern Roots Wellness,Clinics,1497 Chain Bridge Rd Ste 103,"Mc Lean, VA 22101",
Max Robinson Center,Clinics,2301 Martin Luther King Jr Ave SE,"Washington, DC 20020",
Unity Health Care,Clinics,1220 12th St SE,"Washington, DC 20003",
MedStar Promptcare At Chevy Chase,Clinics,5454 Wisconsin Ave Ste 401,"Chevy Chase, MD 20815",
Med Star Health Cardiology Associates,Clinics,106 Irving St NW Suite 4800N,"Washington, DC 20010",
Cowork Medical,Clinics,5550 Friendship Blvd,"Chevy Chase, MD 20815",
MinuteClinic,Clinics,1636 Belle View Blvd,"Alexandria, VA 22307",
MinuteClinic,Clinics,845 Bladensburg Rd NE,"Washington, DC 20002",
Advanced Integrative Rehabilitation Center,Clinics,1749 Old Meadow Rd Ste 200,"Mc Lean, VA 22102",
The Breast Feeding Center of Northern Virginia,Clinics,8316 Arlington Blvd Ste 300,"Fairfax, VA 22031",
Be Well IV Hydration and Vitamin Therapy,Clinics,8100 Boone Blvd Ste 300,"Vienna, VA 22182",
Inova Medical Group Neurosurgery,Clinics,8503 Arlington Blvd Ste 200,"Fairfax, VA 22031",
Dominion Urgent Care,Clinics,6370 Springfield Plz,"Springfield, VA 22150",
Inova Medical Group Endocrinology,Clinics,6355 Walker Ln,"Alexandria, VA 22310",
MinuteClinic,Clinics,7809 Wisconsin Ave,"Bethesda, MD 20814",
MinuteClinic,Clinics,3921 Prosperity Ave,"Fairfax, VA 22031",
Association-Intl Healthcare,Clinics,1444 I St NW Ste 700,"Washington, DC 20005",
Women's Center for Breast Diagnosis,Clinics,3301 New Mexico Ave NW,"Washington, DC 20016",
Washington Area Clinic Defense,Clinics,1616 P St NW,"Washington, DC 20036",
Femilift DC,Clinics,5215 Loughboro Rd NW,"Washington, DC 20016",
Alexandria Medical Clinic,Clinics,2849 Duke St,"Alexandria, VA 22314",
Comprehensive Medical Center,Clinics,6391 Little River Tpke,"Alexandria, VA 22312",
Physical Therapy & Sports Inst,Clinics,2877 Duke St,"Alexandria, VA 22314",
MedStar Medical Group At Adams Morgan,Clinics,1805 Columbia Rd NW,"Washington, DC 20009",
Unity Health Care Inc,Clinics,1631 14th St NW,"Washington, DC 20009",
Clinical,Clinics,1701 14th St NW,"Washington, DC 20009",
Professional Sports Care-Rehab,Clinics,409 3rd St SW,"Washington, DC 20024",
Unity Health Care Inc,Clinics,850 Delaware Ave SW,"Washington, DC 20024",
Slim Clinics,Clinics,901 N Pitt St Ste 150,"Alexandria, VA 22314",
Unity Health Care-Columbia,Clinics,1660 Columbia Rd NW,"Washington, DC 20009",
Medstar,Clinics,4910 Massachusetts Ave NW,"Washington, DC 20016",
Clinical Research Advantage,Clinics,4228 Wisconsin Ave NW,"Washington, DC 20016",
Essential Health Center,Clinics,7202 Arlington Blvd Ste 301,"Falls Church, VA 22042",
Quantum Clinical Trials,Clinics,3801 Connecticut Ave NW Ste 100b,"Washington, DC 20008",
MedStar Si Tel,Clinics,3007 Tilden St NW Ste 3l,"Washington, DC 20008",
Childrens Hospital,Clinics,2220 11th St NW,"Washington, DC 20001",
Navreth Clinic,Clinics,2017 Vermont Ave NW,"Washington, DC 20001",
Precision Ambulatory Surgical Services Consultants,Clinics,4101 Albemarle St NW Apt 414,"Washington, DC 20016",
Washington Wellness Physical Therapy,Clinics,25 Massachusetts Ave NW,"Washington, DC 20001",
Providene Health System,Clinics,128 M St NW,"Washington, DC 20001",
Children's Environmental Health,Clinics,110 Maryland Ave NE Ste 505,"Washington, DC 20002",
"Wilkerson, Shandra A",Clinics,35 K St NE,"Washington, DC 20002",
Care Rehab & Orthopedics,Clinics,Po Box 580,"Mc Lean, VA 22101",
Magnum Medical Ventures,Clinics,5510 Cherokee Ave,"Alexandria, VA 22312",
District of Columbia,Clinics,3720 Martin Luther King Jr Ave SE,"Washington, DC 20032",
Foxhall Lesley C,Clinics,150 K St NE,"Washington, DC 20002",
Unity Health Care At Woodson,Clinics,540 F Street Ter SE,"Washington, DC 20003",
Capital Breast Care Center,Clinics,650 Pennsylvania Ave SE,"Washington, DC 20003",
Mclean Health Clinic,Clinics,6707 Old Dominion Dr Ste 300,"Mc Lean, VA 22101",
Metro Immediate Care,Clinics,220 L St NE,"Washington, DC 20002",
Unity Health Care Inc,Clinics,801 Pennsylvania Ave SE,"Washington, DC 20003",
Unity Health Care Inc,Clinics,635 I St NE,"Washington, DC 20002",
Children's Primary Care Health,Clinics,111 Michigan Ave NW,"Washington, DC 20010",
All Health PLC,Clinics,6832 Old Dominion Dr,"Mc Lean, VA 22101",
"Dorsett, Laura E",Clinics,6829 Elm St,"Mc Lean, VA 22101",
"Durney, Caitlin",Clinics,1221 Taylor St NW,"Washington, DC 20011",
David Drew Executive Health,Clinics,5454 Wisconsin Ave Ste 1410,"Chevy Chase, MD 20815",
Next Health,Clinics,5101 River Rd,"Bethesda, MD 20816",
Women's Clinic,Clinics,110 Irving St NW,"Washington, DC 20010",
Concierge Physical Therapists,Clinics,2016 3rd St NE,"Washington, DC 20002",
Primary Care Red,Clinics,50 Irving St NW,"Washington, DC 20422",
Jung Mercy Clinic,Clinics,7535 Little River Tpke,"Annandale, VA 22003",
Mary's Center,Clinics,4304 Georgia Ave NW,"Washington, DC 20011",
International Medical Center,Clinics,7601 Little River Tpke Ste 100,"Annandale, VA 22003",
Medical Faculty Assoc,Clinics,2041 Georgia Ave NW,"Washington, DC 20060",
Guo Sydney S,Clinics,2921 Telestar Ct,"Falls Church, VA 22042",
Associates Aphaeresis,Clinics,3289 Woodburn Rd Ste 350,"Annandale, VA 22003",
Capital City Sleep Ctr,Clinics,1310 Southern Ave SE # 4436,"Washington, DC 20032",
G Unlimited,Clinics,2935 Gallows Rd,"Falls Church, VA 22042",
Digitrace Care Services,Clinics,3299 Woodburn Rd Ste 250,"Annandale, VA 22003",
Tuberculosis Clinic,Clinics,1905 E St SE,"Washington, DC 20003",
Medgen Urgent Care,Clinics,7307 Macarthur Blvd,"Bethesda, MD 20816",
Kambia Medical Service,Clinics,1647 Benning Rd NE,"Washington, DC 20002",
Whole Health Medical Center,Clinics,6910 Richmond Hwy,"Alexandria, VA 22306",
Unity Health Care,Clinics,1201 Brentwood Rd NE,"Washington, DC 20018",
Hibp Medical Services,Clinics,6911 Richmond Hwy Ste 425,"Alexandria, VA 22306",
Exodus Treatment,Clinics,2757 Langston Pl SE,"Washington, DC 20020",
MinuteClinic,Clinics,6700 Wisconsin Ave,"Chevy Chase, MD 20815",
Fairfax Convenient Care,Clinics,8301 Arlington Blvd Ste 100,"Fairfax, VA 22031",
Agape Medical Service,Clinics,1924 Benning Rd NE,"Washington, DC 20002",
Transitions Healthcare Capitol City,Clinics,2425 25th St SE,"Washington, DC 20020",
Children's National Medical Center,Clinics,2600 Naylor Rd SE,"Washington, DC 20020",
"Chappelle, Kahlil Ali",Clinics,2526 Pennsylvania Ave SE,"Washington, DC 20020",
Alta Medical Inc,Clinics,6512 Bannockburn Dr,"Bethesda, MD 20817",
Children's National Medical Center,Clinics,2501 Good Hope Rd SE,"Washington, DC 20020",
Arhtritis & Osteoporosis Center Of Fairfax,Clinics,3027 Javier Rd,"Fairfax, VA 22031",
"Nordlinger, Allison S",Clinics,7201 Wisconsin Ave,"Bethesda, MD 20814",
Jones Branch,Clinics,7921 Jones Branch Dr,"Mc Lean, VA 22102",
Resurgent Sports Rehab,Clinics,8500 Executive Park Ave,"Fairfax, VA 22031",
Urgent Care Walk In,Clinics,6323 Georgia Ave NW,"Washington, DC 20011",
Lifetree,Clinics,6323 Georgia Ave NW,"Washington, DC 20011",
Unity Health Care Inc,Clinics,2100 New York Ave NE,"Washington, DC 20002",
Whittenburg Beverly Dr,Clinics,6355 Walker Ln Ste 507,"Alexandria, VA 22310",
International Medical Center,Clinics,5410 Port Royal Rd,"Springfield, VA 22151",
Comprehensive Medical Center,Clinics,6791 Frontier Dr,"Springfield, VA 22150",
Gil Center,Clinics,8626 Lee Hwy Ste 200,"Fairfax, VA 22031",
Create Therapy Institute,Clinics,4905 Del Ray Ave,"Bethesda, MD 20814",
Tri Service Clinic,Clinics,8218 Wisconsin Ave Ste P16,"Bethesda, MD 20814",
Harmony In Health Primary Care and Wellness,Clinics,7598 Telegraph Rd,"Alexandria, VA 22315",
1st Medical Of Annapolis,Clinics,5620 Saint Barnabas Rd,"Oxon Hill, MD 20745",
Neuro Health Ctr,Clinics,8405 Greensboro Dr Ste 120,"Mc Lean, VA 22102",
Centers For Motivation,Clinics,5410 Mckinley St,"Bethesda, MD 20817",
Unity Health Care,Clinics,3924 Minnesota Ave NE,"Washington, DC 20019",
Hillcrest Womens Surgi-Center,Clinics,7603 Georgia Ave NW,"Washington, DC 20012",
National Rural Health Association,Clinics,1108 K St NW Fl 2,"Washington, DC 20005",
Barney Neighborhood House,Clinics,930 Farragut St NW,"Washington, DC 20011",
Alexandria Women's Health Clinic,Clinics,101 S Whiting St Ste 215,"Alexandria, VA 22304",
"Speech Beginnings, PLC",Clinics,6208 Redwood Ln,"Alexandria, VA 22310",
The Mckaigs,Clinics,3131 Connecticut Ave NW Apt 2509,"Washington, DC 20008",
"Unity Health Care-Alliance: Juliet A Ibrahim, MD",Clinics,1100 1st St NW,"Washington, DC 20001",
Unity Health Care,Clinics,3720 Martin Luther King Jr Ave SE,"Washington, DC 20032",
Unity Health Care,Clinics,1700 E Capitol St NE,"Washington, DC 20003",
The Vein Centers of Fairfax Radiological Consultants,Clinics,8505 Arlington Blvd Ste 400,"Fairfax, VA 22031",
Family Healthcare,Clinics,4208 Evergreen Ln,"Annandale, VA 22003",
Unity Health Care,Clinics,2700 Martin Luther King Jr Ave SE,"Washington, DC 20032",
Unity Health Care,Clinics,2146 24th Pl NE,"Washington, DC 20018",
Unity Health Care Inc,Clinics,425 2nd St NW,"Washington, DC 20001",
Annandale Women & Family Center,Clinics,2839 Duke St,"Alexandria, VA 22314",
Astoria Laser Clinic & Med Spa,Clinics,2106 Gallows Rd,"Vienna, VA 22182",
"Dr. M Tarek Orfaly, MD",Clinics,6355 Walker Ln Ste 308,"Alexandria, VA 22310",
Mary's Center,Clinics,2333 Ontario Rd NW,"Washington, DC 20009",
Friendship Heights Chiropractic,Clinics,5100 Wisconsin Ave NW Ste 251,"Washington, DC 20016",
Howard University Hospital,Clinics,2041 Georgia Ave NW,"Washington, DC 20060",
"Dr. Hema Annam Sundaram, MD",Clinics,8316 Arlington Blvd,"Fairfax, VA 22031",
Ace Care,Clinics,900 S Washington St Ste 112,"Falls Church, VA 22046",
Capital Womens Care,Clinics,3023 Hamaker Ct Ste 210a,"Fairfax, VA 22031",
Total Women's Care,Clinics,6196 Oxon Hill Rd Ste 630,"Oxon Hill, MD 20745",
Fairfax Radiology,Clinics,2722 Merrilee Dr Ste 230,"Fairfax, VA 22031",
Yedam Well-Being Center,Clinics,7310 Mcwhorter Pl Ste B,"Annandale, VA 22003",
Fairfax Prince William Hmtlgy,Clinics,8503 Arlington Blvd,"Fairfax, VA 22031",
Free Abortion Alternatives,Clinics,1200 G St NW,"Washington, DC 20005",
Dr Cecilia C Cuellar,Clinics,4000 Albemarle St NW Ste 203,"Washington, DC 20016",
Columbia Road Health Service,Clinics,1660 Columbia Rd NW,"Washington, DC 20009",
DaVita,Clinics,8501 Arlington Blvd Ste 100,"Fairfax, VA 22031",
Progressive Radiology,Clinics,7799 Leesburg Pike Ste 1000n,"Falls Church, VA 22043",
Kool Smiles,Clinics,1531 Maryland Ave NE,"Washington, DC 20002",
Esthetic Laser Clinic,Clinics,8381 Old Courthouse Rd Ste 300,"Vienna, VA 22182",
Inova Medical Group,Clinics,7617 Little River Tpke Ste 600,"Annandale, VA 22003",
"The Gilbert Clinic, Inc.",Clinics,7315 Wisconsin Ave,"Bethesda, MD 20814",
Total Release,Clinics,5506 Connecticut Ave NW Ste 22,"Washington, DC 20015",
Farrell Physical Therapy,Clinics,8218 Wisconsin Ave Ste 218,"Bethesda, MD 20814",
DaVita,Clinics,5999 Stevenson Ave Ste 100,"Alexandria, VA 22304",
Body In Balance Center,Clinics,1423 Powhatan St Ste 7,"Alexandria, VA 22314",
Capital Center for Psychotherapy and Wellness,Clinics,1330 U St NW Fl 3,"Washington, DC 20009",
DaVita,Clinics,810 1st St NE,"Washington, DC 20002",
Ashton Physical Therapy Center,Clinics,5510 Cherokee Ave Ste 250,"Alexandria, VA 22312",
Planned Parenthood - Carol Whitehill Moses Center,Clinics,1225 4th St NE,"Washington, DC 20002",
Plastic Surgery Assoc,Clinics,1300 Chain Bridge Rd Ste 200,"Mc Lean, VA 22101",
Dr. Roma Akosua Edoo-Sowah M.D.,Clinics,6845 Elm St,"Mc Lean, VA 22101",
Inova Medical Group Obstetrics & Gynecology,Clinics,6845 Elm St,"Mc Lean, VA 22101",
Walmart - Pharmacy,Clinics,6303 Richmond Hwy,"Alexandria, VA 22306",
David Drew Clinic,Clinics,5454 Wisconsin Ave Ste 1410,"Chevy Chase, MD 20815",
Inova Arrhythmia,Clinics,5530 Wisconsin Ave Ste 700,"Chevy Chase, MD 20815",
Virginia Medical Alliance,Clinics,5510 Alma Ln,"Springfield, VA 22151",
Inova Cardiac and Thoracic Surgery,Clinics,2921 Telestar Ct,"Falls Church, VA 22042",
Skin At Large,Clinics,6900 Wisconsin Ave,"Chevy Chase, MD 20815",
"Cytryn, Albert S, MD",Clinics,8505 Arlington Blvd Ste 210,"Fairfax, VA 22031",
Target - Pharmacy,Clinics,6600 Springfield Mall,"Springfield, VA 22150",
HSC,Clinics,1731 Bunker Hill Rd NE,"Washington, DC 20017",
Abortion Alternatives,Clinics,3230 Duke St,"Alexandria, VA 22314",
GW Immediate & Primary Care - McPherson Square,Clinics,1101 15th St NW,"Washington, DC 20005",
Center For Vein Restoration,Clinics,3301 New Mexico Ave NW Ste 336,"Washington, DC 20016",
Cryo Capital,Clinics,3301 New Mexico Ave NW,"Washington, DC 20016",
Professional Sports Rehab,Clinics,470 Lenfant Plz SW Ste 604,"Washington, DC 20024",
McClendon Center,Clinics,1313 New York Ave NW,"Washington, DC 20005",
Patient Care International,Clinics,1400 16th St NW,"Washington, DC 20036",
"Ansari, Zafar A, MD",Clinics,2849 Duke St,"Alexandria, VA 22314",
Progressive Physical Therapy Center,Clinics,901 6th St SW,"Washington, DC 20024",
Dr Janice Berry Edwards PHD,Clinics,2604 Connecticut Ave NW,"Washington, DC 20008",
Northwest Nurse Practitioner Associates,Clinics,3000 Connecticut Ave NW Ste 338,"Washington, DC 20008",
Northwest Pregnancy Center,Clinics,2702 Ontario Rd NW,"Washington, DC 20009",
Kingneth Medical Inc,Clinics,506 I St NW,"Washington, DC 20001",
addiction recovery connection,Clinics,1765 Duke street,"alexandria, VA 22314",
"Dr. Donald Edward Martin, MD",Clinics,1660 Columbia Rd NW,"Washington, DC 20009",
American Society Of Clinical Oncology,Clinics,330 John Carlyle St,"Alexandria, VA 22314",
Hillcrest Childrens Center,Clinics,915 Rhode Island Ave NW,"Washington, DC 20001",
Spring Valley Pediatrics,Clinics,4900 Massachusetts Ave NW Ste 7,"Washington, DC 20016",
Medstar Georgetown University,Clinics,4200 Wisconsin Ave NW,"Washington, DC 20016",
DaVita,Clinics,1225 S Capitol St SW,"Washington, DC 20003",
"Dr. Howard Jay Cohen, MD",Clinics,1501 Duke St Ste 100,"Alexandria, VA 22314",
Sanford Breast Health Institute,Clinics,901 4th Street NW,"Watertown, SD 57201",
Health Systems Agency Of N VA,Clinics,7245 Arlington Blvd Ste 300,"Falls Church, VA 22042",
Planned Parenthood,Clinics,1225 4th St NW,"Washington, DC 20001",
Jason Dring Physical Therapy,Clinics,4125 Albemarle St NW,"Washington, DC 20016",
DaVita,Clinics,500 N Capitol St NW,"Washington, DC 20001",
District Primary Care,Clinics,4301 Connecticut Ave NW,"Washington, DC 20008",
Target - Pharmacy,Clinics,3100 14th St NW Ste 201,"Washington, DC 20010",
DaVita,Clinics,7060 Columbia Pike,"Annandale, VA 22003",
"Dr. Glen Allen Chilstrom, PHD",Clinics,109 S Fairfax St,"Alexandria, VA 22314",
DaVita,Clinics,810 1st St NE Ste 100,"Washington, DC 20002",
McClendon Center,Clinics,1338 N Capitol St NW Apt 201,"Washington, DC 20002",
Unity Health Care,Clinics,40 Patterson St NE,"Washington, DC 20002",
Ama Medical,Clinics,5501 Cherokee Ave,"Alexandria, VA 22312",
DaVita,Clinics,1200 1st St NE,"Washington, DC 20002",
Community of Hope,Clinics,4 Atlantic St SW,"Washington, DC 20032",
Yancey Robert,Clinics,3104 Georgia Ave NW,"Washington, DC 20010",
Metropolitan Assessment And Requirements Center,Clinics,3104 Georgia Ave NW,"Washington, DC 20010",
Nirschl Orthopedics,Clinics,1499 Chain Bridge Rd,"Mc Lean, VA 22101",
Phobias Anxiety & Related,Clinics,5225 Wisconsin Ave NW,"Washington, DC 20015",
Capitol Dialysis Center,Clinics,140 Q St NE Ste 100,"Washington, DC 20002",
DaVita,Clinics,300 8th St NE,"Washington, DC 20002",
National Kidney Foundation,Clinics,5335 Wisconsin Ave NW Ste 300,"Washington, DC 20015",
Kaplan Center-Integrative Mdcn,Clinics,6829 Elm St Ste 300,"Mc Lean, VA 22101",
Metro Region Pet Center,Clinics,5454 Wisconsin Ave Ste 810,"Chevy Chase, MD 20815",
"Dr. Frederick Greiner Barr, MD",Clinics,5454 Wisconsin Ave Ste 1300,"Chevy Chase, MD 20815",
C M Prasad,Clinics,7510 Little River Tpke,"Annandale, VA 22003",
Washington Area Plastic Surgery,Clinics,106 Irving St NW Ste 2400,"Washington, DC 20010",
"Dr. Carol Christine Jagdeo, MD",Clinics,106 Irving St NW,"Washington, DC 20010",
Center For Vein Restoration,Clinics,106 Irving St NW,"Washington, DC 20010",
Cardiology Assoc PC,Clinics,106 Irving St NW Ste 1500,"Washington, DC 20010",
Unity Health Care,Clinics,1328 W St SE,"Washington, DC 20020",
Lifestyle Lift,Clinics,7700 Leesburg Pike Ste 108,"Falls Church, VA 22043",
K Physical Medicine Therapy,Clinics,7617 Little River Tpke Ste 430,"Annandale, VA 22003",
Kingstowne Pediatric Occupational Therapy Center,Clinics,6164 Fuller Ct,"Alexandria, VA 22310",
United Doctors Inc,Clinics,2841 Hartland Rd,"Falls Church, VA 22043",
Northern Virginia Institute Of Psychiatry,Clinics,5537 Hempstead Way,"Springfield, VA 22151",
Ad Niv,Clinics,2921 Telestar Ct,"Falls Church, VA 22042",
"Dr. Anthony J Rongione, MD",Clinics,2921 Telestar Ct,"Falls Church, VA 22042",
Dr. Behdad Aryavand M.D.,Clinics,2921 Telestar Ct,"Falls Church, VA 22042",
Kingstown Family Practice,Clinics,6206 Old Franconia Rd,"Alexandria, VA 22310",
Amazing Love Health Service,Clinics,702 15th St NE,"Washington, DC 20002",
Gateway Homes Inc,Clinics,4024 Hirst Dr,"Annandale, VA 22003",
Travel Clinic,Clinics,6226 Old Franconia Rd,"Alexandria, VA 22310",
Rai Care Center,Clinics,5410 Indian Head Hwy,"Oxon Hill, MD 20745",
Multi-Therapeutic Services Inc,Clinics,2852 Northampton St NW,"Washington, DC 20015",
Sleepmed Inc.,Clinics,3299 Woodburn Rd Ste 250,"Annandale, VA 22003",
Greater Southeast Community Dialysis Center,Clinics,1350 Southern Ave SE,"Washington, DC 20032",
DaVita,Clinics,920 Bladensburg Rd NE,"Washington, DC 20002",
Kingstowne Internal Medical,Clinics,5901 Kingstowne Village Pkwy,"Alexandria, VA 22315",
Multi-Therapeutic Svc Inc,Clinics,6014 32nd St NW,"Washington, DC 20015",
Rein Barbara & Associates,Clinics,6423 Shadow Rd,"Chevy Chase, MD 20815",
DaVita,Clinics,1205 Brentwood Rd NE,"Washington, DC 20018",
DaVita,Clinics,1231 Brentwood Rd NE,"Washington, DC 20018",
DaVita,Clinics,5695 King Centre Dr Ste 105,"Alexandria, VA 22315",
Developing Families Center,Clinics,801 17th St NE,"Washington, DC 20002",
Virginia Endocrinology Consultants,Clinics,8301 Arlington Blvd Ste 308,"Fairfax, VA 22031",
DaVita,Clinics,2425 25th St SE,"Washington, DC 20020",
Pediatrix Medical Group,Clinics,8316 Arlington Blvd Ste 500,"Fairfax, VA 22031",
Center For Vein Restoration,Clinics,8316 Arlington Blvd,"Fairfax, VA 22031",
Joanne Herrman MD,Clinics,8324 Professional Hill Dr,"Fairfax, VA 22031",
Simrel Kermit,Clinics,2600 Naylor Rd SE,"Washington, DC 20020",
Capitol Spine And Pain Centers,Clinics,3031 Javier Rd,"Fairfax, VA 22031",
Inova Health,Clinics,3020 Javier Rd,"Fairfax, VA 22031",
"Center For Foot & Ankle Care, PC",Clinics,3020 Hamaker Ct Ste 201,"Fairfax, VA 22031",
Vascular Laboratory of Fairfax,Clinics,3020 Hamaker Ct Ste 504,"Fairfax, VA 22031",
National Spine & Pain Center,Clinics,174 Waterfront St Ste 320,"Oxon Hill, MD 20745",
Aesthetic Medical Center,Clinics,8150 Leesburg Pike,"Vienna, VA 22182",
DaVita,Clinics,6169 Livingston Rd,"Oxon Hill, MD 20745",
Lomack Primary Care,Clinics,1615 Rhode Island Ave NE,"Washington, DC 20018",
DaVita,Clinics,2601 18th St NE,"Washington, DC 20018",
Servance & Associates,Clinics,6323 Georgia Ave NW,"Washington, DC 20011",
Universal Management,Clinics,6323 Georgia Ave NW,"Washington, DC 20011",
Medical Team Inc,Clinics,6564 Loisdale Ct,"Springfield, VA 22150",
Boone Wellness,Clinics,8230 Boone Blvd Ste 170,"Vienna, VA 22182",
DaVita,Clinics,1730 Hamlin St NE,"Washington, DC 20018",
Providence Hospital,Clinics,1150 Varnum St NE,"Washington, DC 20017",
Solstas Lab Partners,Clinics,2826 Old Lee Hwy,"Fairfax, VA 22031",
"Dr. Nassar Farid Khan, MD",Clinics,2826 Old Lee Hwy Ste 110,"Fairfax, VA 22031",
Commonwealth Orthopedics,Clinics,8180 Greensboro Dr,"Mc Lean, VA 22102",
Washington Potency & Urology,Clinics,6228 Oxon Hill Rd Ste 101,"Oxon Hill, MD 20745",
DaVita,Clinics,8003 Forbes Pl Ste 110,"Springfield, VA 22151",
GM Medical Office,Clinics,3300 Pennsylvania Ave SE,"Washington, DC 20020",
DaVita,Clinics,8391 Old Courthouse Rd Ste 160,"Vienna, VA 22182",
DaVita,Clinics,6192 Oxon Hill Rd,"Oxon Hill, MD 20745",
Greater Baden Medical Services,Clinics,6188 Oxon Hill Rd Ste 801,"Oxon Hill, MD 20745",
Palisades Eye Surgery Center,Clinics,4831 Cordell Ave,"Bethesda, MD 20814",
Bethesda Spine Rehab,Clinics,8218 Wisconsin Ave Ste 305,"Bethesda, MD 20814",
DaVita,Clinics,3857 Pennsylvania Ave SE,"Washington, DC 20020",
In Prc DC,Clinics,6856 Eastern Ave NW,"Washington, DC 20012",
DaVita,Clinics,5442 Saint Barnabas Rd,"Oxon Hill, MD 20745",
Da Vita Inc,Clinics,900 7th St NW,"Washington, DC 20001",
DaVita,Clinics,3857a Pennsylvania Ave SE,"Washington, DC 20020",
La Clinica Del Pueblo,Clinics,2831 15th St NW,"Washington, DC 20009",
The Center For Plastic Surgery Pc,Clinics,3299 Woodburn Rd Ste 490,"Annandale, VA 22003",
US Oncology,Clinics,3040 Williams Dr Ste 100,"Fairfax, VA 22031",
Virginia Foot and Ankle Center,Clinics,2826 Old Lee Hwy Ste 220,"Fairfax, VA 22031",
Motazedi Abbas MD,Clinics,1160 Varnum St NE Ste 111,"Washington, DC 20017",
Womens Health Care,Clinics,8311 Wisconsin Ave Ste C14,"Bethesda, MD 20814",
"Smith, Garrett",Clinics,73 Hawthorne Ct NE,"Washington, DC 20017",
Federal Center Recovery Svcs,Clinics,2000 Rhode Island Ave NE,"Washington, DC 20018",
John Sk Hsu DDS & Virginia J Chin DDS PC,Clinics,10801 Main St Ste 500,"Fairfax, VA 22030",
Pickett Center Dental Care,Clinics,9428 Main St,"Fairfax, VA 22031",
Elaine Ellis Center of Health,Clinics,1627 Kenilworth Ave. NE,"Washington, DC 20019",
Takoma Family Health Ctr,Clinics,7676 New Hampshire Ave Ste 418,"Takoma Park, MD 20912",
Community Clinic Inc,Clinics,7676 New Hampshire Ave Ste 220a,"Takoma Park, MD 20912",
Holy Cross Health Center in Silver Spring,Clinics,7987 Georgia Ave,"Silver Spring, MD 20910",
Jackson Clinic,Clinics,2960 Chain Bridge Rd Ste 201,"Oakton, VA 22124",
Whittles Physical Therapy,Clinics,9801 Georgia Ave,"Silver Spring, MD 20902",
Walk-in Medical Care,Clinics,6045 Burke Centre Pkwy,"Burke, VA 22015",
Oral Health Associates,Clinics,4316 Saint Barnabas Rd,"Temple Hills, MD 20748",
Phoenix Smiles Dental Center,Clinics,9854 Main St,"Fairfax, VA 22031",
Prince George's Hospital Center,Clinics,3001 Hospital Dr,"Hyattsville, MD 20785",
Virginia Integrative Health,Clinics,410 Pine St SE Ste 320,"Vienna, VA 22180",
Inova Urgent Care,Clinics,180 Maple Ave W,"Vienna, VA 22180",
Affordable Primary Care,Clinics,10721 Main St,"Fairfax, VA 22030",
MetroBest Clinic,Clinics,7826 Eastern Ave NW Suite 208,"Washington, DC 20012",
MinuteClinic,Clinics,3053 Nutley St,"Fairfax, VA 22031",
"Prime Medical Care: Dan Bishwakarma, MD",Clinics,8101 Hinson Farm Rd Ste 208,"Alexandria, VA 22306",
MinuteClinic,Clinics,337 Maple Ave E,"Vienna, VA 22180",
Um Senior Health Center,Clinics,3601 Taylor St,"Brentwood, MD 20722",
MinuteClinic,Clinics,8330 Old Keene Mill Rd,"Springfield, VA 22152",
A Plus Medical P.C.,Clinics,7505 New Hampshire Ave Ste 314,"Takoma Park, MD 20912",
MinuteClinic,Clinics,9520 Georgia Ave,"Silver Spring, MD 20910",
Pine Dentistry,Clinics,1147 University Blvd E,"Takoma Park, MD 20912",
MinuteClinic,Clinics,7939 New Hampshire Ave,"Hyattsville, MD 20783",
Regional Health Partners,Clinics,3915 Old Lee Hwy,"Fairfax, VA 22030",
Inova Emergency Center,Clinics,4315 Chain Bridge Rd,"Fairfax, VA 22030",
MinuteClinic,Clinics,10301 New Guinea Rd,"Fairfax, VA 22032",
Ibhs,Clinics,3611 Branch Ave Ste 404,"Temple Hills, MD 20748",
Galaxy Medical Services,Clinics,3611 Branch Ave Ste 403,"Temple Hills, MD 20748",
Bio Medical Applications,Clinics,4922 Lasalle Rd,"Hyattsville, MD 20782",
Lifematters,Clinics,99 Edgemoor Ln,"Bethesda, MD 20814",
Unity Health Care,Clinics,765 Kenilworth Ter NE,"Washington, DC 20019",
American Executive Health,Clinics,3085 Nutley St,"Fairfax, VA 22031",
Physical Therapy and Sports Assessment Center,Clinics,8380 Colesville Rd Ste 200,"Silver Spring, MD 20910",
Renal Advantage Inc,Clinics,2426 Chillum Rd,"Hyattsville, MD 20782",
Neurology Center,Clinics,8555 16th St Ste 310,"Silver Spring, MD 20910",
Learning Center,Clinics,4625 G St SE,"Washington, DC 20019",
Henry Jackson Usu Center,Clinics,8484 Georgia Ave,"Silver Spring, MD 20910",
Osteopathy National Center For,Clinics,8609 2nd Ave Ste 203b,"Silver Spring, MD 20910",
Healthcare Management Group,Clinics,1400 Spring St,"Silver Spring, MD 20910",
Asian Medical Center,Clinics,9001 Braddock Rd Ste 100,"Springfield, VA 22151",
Ambulatory Cardiac Catherztion,Clinics,7610 Carroll Ave,"Takoma Park, MD 20912",
Family First Dental,Clinics,4813 Marlboro Pike,"Capitol Heights, MD 20743",
Community Clinic Inc,Clinics,7620 Carroll Ave Ste 101,"Takoma Park, MD 20912",
Knee Pain,Clinics,301 Maple Ave W,"Vienna, VA 22180",
VA Clinic Andrews,Clinics,5801 Allentown Rd,"Suitland, MD 20746",
After 4 Medical Care,Clinics,1835 University Blvd E Ste 208,"Hyattsville, MD 20783",
Adelphl Family Clinic,Clinics,7411 Riggs Rd Ste 304,"Hyattsville, MD 20783",
Prince Georges Reproductive Health Services,Clinics,7411 Riggs Rd Ste 300,"Hyattsville, MD 20783",
Suburban Transplant Clinic,Clinics,5704 Grosvenor Ln,"Bethesda, MD 20814",
Saratoga Medical Clinic,Clinics,7839 Rolling Rd,"Springfield, VA 22153",
"Kumar, Natasha",Clinics,6401 America Blvd,"Hyattsville, MD 20782",
Maryland Healthcare Clinic,Clinics,5500 Baltimore Ave,"Hyattsville, MD 20781",
Total Health Family Clinic,Clinics,5730 Silver Hill Rd,"District Heights, MD 20747",
Dimensions Health Care Systems,Clinics,2900 Mercy Ln,"Hyattsville, MD 20785",
Dynamic Rehab Inc,Clinics,1121 Leigh Mill Rd,"Great Falls, VA 22066",
MinuteClinic,Clinics,5870 Silver Hill Rd,"District Heights, MD 20747",
Redi Clinic,Clinics,6130 Baltimore Ave,"Riverdale, MD 20737",
Fitness And Rehabilitation,Clinics,10400 Eaton Pl Ste 312,"Fairfax, VA 22030",
Slade Health Care Inc,Clinics,1017 University Blvd E,"Silver Spring, MD 20903",
FT Belvoir Family Health Center Fairfax,Clinics,10580 Arrowhead Dr,"Fairfax, VA 22030",
Passport Health Silver Spring,Clinics,1734 Elton Rd,"Silver Spring, MD 20903",
"Express Healthcare, LLC",Clinics,4701 Melbourne Pl,"College Park, MD 20740",
Bridges Therapy & Wellness,Clinics,11166 Fairfax Blvd Ste 207,"Fairfax, VA 22030",
University Health Center,Clinics,3983 Campus Dr,"College Park, MD 20740",
"Pregnancy Aid Centers, Inc.",Clinics,4809 Greenbelt Rd,"College Park, MD 20740",
Luv N Care Medical,Clinics,7030 Carroll Ave,"Takoma Park, MD 20912",
Unity Health Care,Clinics,123 45th St NE,"Washington, DC 20019",
La Clinic,Clinics,8720 Georgia Ave,"Silver Spring, MD 20910",
Veronica Noh Clinic,Clinics,3012 James St,"Fairfax, VA 22031",
Medical Center Lls,Clinics,1835 University Blvd E Ste 301,"Hyattsville, MD 20783",
Maryland Men's Medical Clinic,Clinics,8555 16th St Ste 750,"Silver Spring, MD 20910",
Teen Connection of Takoma Inc,Clinics,7005 Carroll Ave,"Takoma Park, MD 20912",
Sleep Med,Clinics,7525 Carroll Ave,"Takoma Park, MD 20912",
Saratoga Medical Center,Clinics,11094 Lee Hwy Ste D103,"Fairfax, VA 22030",
Schachter David S DO,Clinics,4701 Melbourne Pl,"College Park, MD 20740",
Cignet Health Center,Clinics,3710 Riviera St Ste 2a,"Temple Hills, MD 20748",
Gambro Healthcare Silver Spring,Clinics,8412 Georgia Ave,"Silver Spring, MD 20910",
"Dr. William A. Taylor, Jr.",Clinics,1311 E West Hwy Ste A,"Silver Spring, MD 20910",
Family Health Center,Clinics,3415 Hamilton St Ste 9,"Hyattsville, MD 20782",
Med-First Urgent Care,Clinics,9452 Main St,"Fairfax, VA 22031",
DaVita,Clinics,8350 Traford Ln Ste A,"Springfield, VA 22152",
Guide Program Inc,Clinics,5126 Baltimore Ave,"Hyattsville, MD 20781",
Walmart - Pharmacy,Clinics,1500b Cornerside Blvd,"Vienna, VA 22182",
DaVita,Clinics,5155 Lee St NE,"Washington, DC 20019",
Tepeyac Family Center,Clinics,11135 Lee Hwy,"Fairfax, VA 22030",
Patient First,Clinics,8601 16th St,"Silver Spring, MD 20910",
Walmart - Pharmacy,Clinics,7910 Richmond Hwy,"Alexandria, VA 22306",
Walmart - Pharmacy,Clinics,6210 Annapolis Rd,"Hyattsville, MD 20784",
Blairs Lab,Clinics,7835 Eastern Ave Ste 205,"Silver Spring, MD 20910",
Mobile Medical Care Inc,Clinics,9309 Old Georgetown Rd,"Bethesda, MD 20814",
Target - Pharmacy,Clinics,3500 E West Hwy Ste 1200,"Hyattsville, MD 20782",
Planned Parenthood - Prince George's County Health Center,Clinics,5001 Silver Hill Rd Ste 103,"Suitland, MD 20746",
"Dr. Emerson Lapuz Coronel, MD",Clinics,5801 Allentown Rd,"Suitland, MD 20746",
Family Foot and Ankle Center,Clinics,9918 Main St,"Fairfax, VA 22031",
Patient First - Fairfax,Clinics,10100 Fairfax Blvd,"Fairfax, VA 22030",
Patient First - Landover Hills,Clinics,6201 Annapolis Rd,"Hyattsville, MD 20784",
Oakton Foot and Ankle Center,Clinics,10721 Main St Ste 3500,"Fairfax, VA 22030",
Walmart - Pharmacy,Clinics,11181 Lee Hwy,"Fairfax, VA 22030",
Marlow Heights Pregnancy Center,Clinics,3611 Branch Ave,"Temple Hills, MD 20748",
Forestville Pregnancy At,Clinics,3611 Branch Ave,"Temple Hills, MD 20748",
DaVita,Clinics,2303 Varnum St,"Mount Rainier, MD 20712",
"Neurology Services, Incorporated",Clinics,2616 Sherwood Hall Ln Ste 201,"Alexandria, VA 22306",
DaVita,Clinics,8605 Westwood Center Dr,"Vienna, VA 22182",
Inova Medical Group Podiatric Surgery,Clinics,527 Maple Ave E Ste 204,"Vienna, VA 22180",
DaVita,Clinics,8040 Georgia Ave Ste 150,"Silver Spring, MD 20910",
Mbi Hs-Hha,Clinics,4130 Hunt Pl NE,"Washington, DC 20019",
DaVita,Clinics,8123 Richmond Hwy,"Alexandria, VA 22309",
Inova Hematology Oncology,Clinics,8101 Hinson Farm Rd,"Alexandria, VA 22306",
Chillum Center,Clinics,3104 Queens Chapel Rd,"Hyattsville, MD 20782",
"Uzel, Gulbu, MD",Clinics,8136 Old Keene Mill Rd,"Springfield, VA 22152",
DaVita,Clinics,8412 Georgia Ave,"Silver Spring, MD 20910",
Teen Connection Of Takoma,Clinics,1400 Spring St Ste 200,"Silver Spring, MD 20910",
Planned Parenthood,Clinics,1400 Spring St Ste 450,"Silver Spring, MD 20910",
"Dr. Josh J Oppenheim, MD",Clinics,8314 Traford Ln Ste C,"Springfield, VA 22152",
"Araya, Henok, MD",Clinics,908 New Hampshire Ave # 400,"Takoma Park, MD 20912",
DaVita,Clinics,4797 Marlboro Pike,"Capitol Heights, MD 20743",
Broadview Networks Inc,Clinics,4419 Arnold Rd,"Suitland, MD 20746",
Virgo-Center Pediatrics,Clinics,8630 Fenton St Ste 230,"Silver Spring, MD 20910",
Nova Headache & Chronic Pain,Clinics,8993 Cotswold Dr,"Burke, VA 22015",
Endocrinology Diabetes Center,Clinics,301 Maple Ave W,"Vienna, VA 22180",
Target - Pharmacy,Clinics,1500 E West Hwy,"Hyattsville, MD 20783",
Uplift Medicals,Clinics,4333 Old Branch Ave,"Temple Hills, MD 20748",
Jose Bonelli MD,Clinics,8807 Colesville Rd Ste 500,"Silver Spring, MD 20910",
DaVita,Clinics,5000 Nannie Helen Burroughs Ave NE,"Washington, DC 20019",
"Clark, Melissa A, MD",Clinics,7676 New Hampshire Ave Ste 411,"Takoma Park, MD 20912",
Camp Springs,Clinics,5801 Allentown Rd,"Suitland, MD 20746",
Synergy Family Services Inc,Clinics,1425 University Blvd E,"Hyattsville, MD 20783",
DaVita,Clinics,1502 University Blvd E,"Hyattsville, MD 20783",
DaVita,Clinics,10905 Fort Washington Rd,"Fort Washington, MD 20744",
Synergy Wellness Center,Clinics,7101 Democracy Blvd Spc 1118,"Bethesda, MD 20817",
DaVita,Clinics,5701 Silver Hill Rd,"District Heights, MD 20747",
DaVita,Clinics,8520 Cinder Bed Rd,"Lorton, VA 22079",
General Dynamics,Clinics,8535 Terminal Rd,"Lorton, VA 22079",
DaVita,Clinics,11700 Livingston Rd,"Fort Washington, MD 20744",
Clinic First,Clinics,9800 Falls Rd Ste 3,"Potomac, MD 20854",
Standard Dental LLC,Clinics,9800 Falls Rd Suite 104,"Potomac, MD 20854",
Comm Mgnt Corp of MD,Clinics,5999 Emerson St,"Bladensburg, MD 20710",
One Capital Partners,Clinics,10721 Main St,"Fairfax, VA 22030",
Washington Speech,Clinics,11150 Fairfax Blvd Ste 500,"Fairfax, VA 22030",
DaVita,Clinics,3955 Pender Dr Ste 210,"Fairfax, VA 22030",
Cardiology Center,Clinics,9051 Autoville Dr,"College Park, MD 20740",
Metropolitan Access Center,Clinics,4155 Bladensburg Rd,"Brentwood, MD 20722",
Yeheyis Negussie Clinic,Clinics,8604 2nd Ave,"Silver Spring, MD 20910",
Fairfax-Falls Church Community Service,Clinics,8348 Traford Lane Suite 400,"Springfield, VA 22152",
DSI Silver Hill,Clinics,5652 Silver Hill Rd,"District Heights, MD 20747",
Quality Care Dialysis Center,Clinics,6357 Old Branch Ave,"Temple Hills, MD 20748",
K Rao Anantha MD,Clinics,6495 New Hampshire Ave Ste 190,"Hyattsville, MD 20783",
Psi Arista,Clinics,10400 Eaton Pl,"Fairfax, VA 22030",
Ultimate Renal Care,Clinics,2426 Chillum Rd,"Hyattsville, MD 20782",
"Dr. Lawrence L Zumo, MD",Clinics,1111 Spring St Ste 216,"Silver Spring, MD 20910",
"Dr. Fariba F Baghai, MD",Clinics,1835 University Blvd E Ste 316,"Hyattsville, MD 20783",
Optimal Physical Therapy And Rehabilitation,Clinics,1738 Elton Rd Ste 230,"Silver Spring, MD 20903",
DaVita,Clinics,8630 Fenton St,"Silver Spring, MD 20910",
Millennium Medical Care,Clinics,11213 Lee Hwy Ste H,"Fairfax, VA 22030",
MinuteClinic,Clinics,11160 S Lakes Dr,"Reston, VA 20191",
Integrated Sports Medicine,Clinics,5618H Ox Rd,"Fairfax Station, VA 22039",
Maryland Institute For,Clinics,5111 Berwyn Rd,"College Park, MD 20740",
O & O Alpan,Clinics,11212 Waples Mill Rd Ste 100,"Fairfax, VA 22030",
Kellar Center-Behavioral Health,Clinics,11204 Waples Mill Rd,"Fairfax, VA 22030",
Burke Spine Center,Clinics,5631 Burke Centre Pkwy Ste J,"Burke, VA 22015",
A & T Family Medical,Clinics,6201 Greenbelt Rd Ste M10,"Berwyn Heights, MD 20740",
Venice Family Clinic,Clinics,1850 Samuel Morse Dr,"Reston, VA 20190",
Veteran Health Care,Clinics,1606 Washington Plz,"Reston, VA 20190",
"Med-ped Health Care, LLC",Clinics,6201 Greenbelt Rd Ste M-16,"Berwyn Heights, MD 20740",
Target - Pharmacy,Clinics,6100 Greenbelt Rd,"Greenbelt, MD 20770",
The Gastroenterology Center of Virginia,Clinics,11440 Commerce Park Dr Ste Ll1a,"Reston, VA 20191",
Virginia Advanc Medical Center,Clinics,3930 Pender Dr Ste 110,"Fairfax, VA 22030",
"Dr. Fady Ihsan Sharara, MD",Clinics,11150 Sunset Hills Rd Ste 100,"Reston, VA 20190",
Mega Lab Services,Clinics,1950 Opitz Blvd.,"Woodbridge, VA 22191",
Dr Forsythe Cancer Care Center,Clinics,,,Arlington Area
MinuteClinic,Clinics,1201 S Hayes St,"Arlington, VA 22202",
MinuteClinic,Clinics,415 E Monroe Ave,"Alexandria, VA 22301",
Heart-Based Healing,Clinics,,,
Beauregard Medical Center,Clinics,3450 N Beauregard St Ste 1,"Alexandria, VA 22302",
DaVita,Clinics,1785 S Hayes St,"Arlington, VA 22202",
MinuteClinic,Clinics,2240 M St NW,"Washington, DC 20037",
MinuteClinic,Clinics,6100 Arlington Blvd,"Falls Church, VA 22044",
MinuteClinic,Clinics,6 Dupont Cir NW,"Washington, DC 20036",
MinuteClinic,Clinics,2226 Wisconsin Ave NW,"Washington, DC 20007",
MinuteClinic,Clinics,4859 Macarthur Blvd NW,"Washington, DC 20007",
Reach Out Clinic,Clinics,9135 Piscataway Rd,"Clinton, MD 20735",
Jackson Clinics,Clinics,5115 Leesburg Pike,"Falls Church, VA 22041",
Metropolitan Family Planning Clinic,Clinics,5625 Allentown Road Suite #203,"Suitland, MD 20746",
"Stan, Nshombia",Clinics,1050 W Perimeter Rd,"Jb Andrews, MD 20762",
N P Hagans Walk-In Clinic,Clinics,9135 Piscataway Rd,"Clinton, MD 20735",
Unity Health Care,Clinics,3240 Stanton Rd SE,"Washington, DC 20020",
Major Medical,Clinics,7801 Old Branch Ave,"Clinton, MD 20735",
Capitol Hill Crisis Pregnancy,Clinics,713 Maryland Ave NE,"Washington, DC 20002",
Walmart - Pharmacy,Clinics,99 H St NW,"Washington, DC 20001",
Greater Maryland Eye Physicians And Surgeons,Clinics,9131 Piscataway Rd,"Clinton, MD 20735",
Free Abortion Alternatives,Clinics,1425 K St NW Ste 350,"Washington, DC 20005",
Active Physical Therapy,Clinics,9135 Piscataway Rd Ste 305,"Clinton, MD 20735",
Kolia,Clinics,9135 Piscataway Rd Ste 310,"Clinton, MD 20735",
Clinton Family Dental,Clinics,9015 Woodyard Rd Ste 104,"Clinton, MD 20735",
MinuteClinic,Clinics,134 W Broad St,"Falls Church, VA 22046",
Sentara Lorton Station Women's Imaging Center,Clinics,8986 Lorton Station Blvd Suite 200,"Lorton, VA 22079",
Healthy Choice Family Clinic & Urgent Care,Clinics,"8700 Central Ave Ste 302A, Hyattsville MD, 20785","Hyattsville, MD 20785",
"Skievaski, Felix",Clinics,8926 Woodyard Rd,"Clinton, MD 20735",
Maryland Healthcare Clinic,Clinics,31 Yost Pl,"Capitol Heights, MD 20743",
Fields Medical Services,Clinics,3100 Ritchie Rd,"District Heights, MD 20747",
Lorton Immediate Care,Clinics,7740 Gunston Plz,"Lorton, VA 22079",
DaVita,Clinics,6274 Central Ave,"Capitol Heights, MD 20743",
Renal Advantage Inc,Clinics,7201 Old Alexandria Ferry Rd,"Clinton, MD 20735",
The Women's Wellness Center,Clinics,9023 Woodyard Rd,"Clinton, MD 20735",
The Ross Center,Clinics,5225 Wisconsin Ave NW Ste 400,"Washington, DC 20015",
The Vein Clinic Of Washington,Clinics,5454 Wisconsin Ave Ste 1040,"Chevy Chase, MD 20815",
Radiology Imaging Associates,Clinics,8926 Woodyard Rd,"Clinton, MD 20735",
Walmart - Pharmacy,Clinics,8745 Branch Ave,"Clinton, MD 20735",
Walmart - Pharmacy,Clinics,5929 Georgia Ave NW,"Washington, DC 20011",
MedStar Georgetown Orthopaedic Institute,Clinics,9455 Lorton Market St,"Lorton, VA 22079",
DaVita,Clinics,3424 Donnell Dr,"District Heights, MD 20747",
DaVita,Clinics,10401 Hospital Dr Ste G2,"Clinton, MD 20735",
"Dr. Benjamin B Pasicov, MD",Clinics,1340 Old Chain Bridge Rd Ste 101,"Mc Lean, VA 22101",
Skill Builders,Clinics,7617 Little River Tpke Ste 310,"Annandale, VA 22003",
David P Wolfe MD,Clinics,5454 Wisconsin Ave Ste 1000,"Chevy Chase, MD 20815",
Still I Rise Inc,Clinics,9015 Woodyard Rd,"Clinton, MD 20735",
Inova Medical Group Arrhythmia,Clinics,7905 Malcolm Rd Ste 103,"Clinton, MD 20735",
Capital Ortho Specialist,Clinics,7501 Surratts Rd,"Clinton, MD 20735",
Med Star Shah Medical Group,Clinics,10403 Hospital Dr,"Clinton, MD 20735",
Greater Baden Medical Service,Clinics,9440 Pennsylvania Ave,"Upper Marlboro, MD 20772",
Infectious Disease Associates,Clinics,8988 Lorton Station Blvd Ste 204,"Lorton, VA 22079",
Omni Medical Center,Clinics,8700 Central Ave Ste 100,"Hyattsville, MD 20785",
DSI Old Alexandria,Clinics,7201 Old Alexandria Ferry Rd,"Clinton, MD 20735",
DaVita,Clinics,9211 Stuart Ln,"Clinton, MD 20735",
Health Partners Inc,Clinics,3070 Crain Hwy Ste 101,"Waldorf, MD 20601",
PhysioCare Rehab & Wellness,Clinics,7651 Matapeake Business Dr,"Brandywine, MD 20613",
Lakewood Family Clinic,Clinics,1400 Mercantile Ln Ste 180,"Upper Marlboro, MD 20774",
Patient First-Waldorf,Clinics,2855 Crain Hwy,"Waldorf, MD 20601",
Lakewood Healthcare Center,Clinics,1400 Mercantile Ln Ste 180,"Upper Marlboro, MD 20774",
DaVita,Clinics,1200 Mercantile Ln Ste 105,"Upper Marlboro, MD 20774",
Waldorf Dental Care,Clinics,3010 Crain Hwy,"Waldorf, MD 20601",
"Dr. Shirley Anne Vanmilder, MD",Clinics,1221 Mercantile Ln,"Upper Marlboro, MD 20774",
MedStar Medical Group at Waldorf,Clinics,3064 Waldorf Market Pl,"Waldorf, MD 20603",
Uberoi Vikrant MD-Urology,Clinics,7704 Matapeake Business Dr,"Brandywine, MD 20613",
DaVita,Clinics,7651 Matapeake Business Dr,"Brandywine, MD 20613",
DaVita,Clinics,1101 Mercantile Ln,"Upper Marlboro, MD 20774",
DaVita,Clinics,1300 Mercantile Ln Ste 130,"Upper Marlboro, MD 20774",
Center For Therapeutic Concept,Clinics,1300 Mercantile Ln Ste 200,"Upper Marlboro, MD 20774",
"Adeyemo, Monisola, FNP",Clinics,1400 Mercantile Ln,"Upper Marlboro, MD 20774",
Kidney Care Center,Clinics,1300 Mercantile Ln Ste 194,"Upper Marlboro, MD 20774",
Dr Forsythe Cancer Care Center,Clinics,,,Alexandria Area
Family Pharmacy,Pharmacies,3612 Forest Dr,"Alexandria, VA 22302",
"Kim, Evelyn Lana",Pharmacies,5115 Leesburg Pike,"Falls Church, VA 22041",
"Hussain, Moududa",Pharmacies,5115 Leesburg Pike,"Falls Church, VA 22041",
Safeway Pharmacy,Pharmacies,5821 Crossroads Ctr,"Falls Church, VA 22041",
Giant Discount Drug,Pharmacies,5799 Leesburg Pike,"Falls Church, VA 22041",
Target - Pharmacy,Pharmacies,5115 Leesburg Pike,"Falls Church, VA 22041",
Rite Aid,Pharmacies,1815 Connecticut Ave NW,"Washington, DC 20009",
Foer's Pharmacy,Pharmacies,818 18th St NW Frnt L-1,"Washington, DC 20006",
Care Plus Pharmacy,Pharmacies,5130 Duke St Ste 3,"Alexandria, VA 22304",
CVS Pharmacy,Pharmacies,1716 G St NW,"Washington, DC 20006",
Target - Pharmacy,Pharmacies,6100 Arlington Blvd,"Falls Church, VA 22044",
Medicine Shoppe,Pharmacies,107 Park Ave,"Falls Church, VA 22046",
Pharmacy Technician Certification Board,Pharmacies,2215 Constitution Ave NW,"Washington, DC 20037",
Rite Aid,Pharmacies,6053 Leesburg Pike,"Falls Church, VA 22041",
Walgreens,Pharmacies,3614 King St,"Alexandria, VA 22302",
Tshiffely Pharmarcy,Pharmacies,2021 K St NW,"Washington, DC 20006",
Walgreens,Pharmacies,4515 Duke St,"Alexandria, VA 22304",
Tschiffely Pharmacy,Pharmacies,1145 19th St NW,"Washington, DC 20036",
Walgreens,Pharmacies,6224 Old Dominion Dr,"Mc Lean, VA 22101",
Walgreens,Pharmacies,3301 New Mexico Ave NW,"Washington, DC 20016",
CVS Pharmacy,Pharmacies,2226 Wisconsin Ave NW,"Washington, DC 20007",
CVS Pharmacy,Pharmacies,2550 Virginia Ave NW,"Washington, DC 20037",
CVS Pharmacy,Pharmacies,4606 Kenmore Ave,"Alexandria, VA 22304",
CVS Pharmacy,Pharmacies,1521 N Quaker Ln,"Alexandria, VA 22302",
CVS Pharmacy,Pharmacies,1462 N Beauregard St,"Alexandria, VA 22311",
CVS Pharmacy,Pharmacies,1403 Wisconsin Ave NW,"Washington, DC 20007",
CVS Pharmacy,Pharmacies,2125 E St NW,"Washington, DC 20037",
CVS Pharmacy,Pharmacies,2240 M St NW,"Washington, DC 20037",
CVS Pharmacy,Pharmacies,1901 Pennsylvania Ave NW,"Washington, DC 20006",
CVS Pharmacy,Pharmacies,1990 K St NW,"Washington, DC 20006",
CVS Pharmacy,Pharmacies,256 N Glebe Rd,"Arlington, VA 22203",
Preston's Care Pharmacy,Pharmacies,5101 Lee Hwy,"Arlington, VA 22207",
Nova Pharmacy,Pharmacies,6023 Wilson Blvd,"Arlington, VA 22205",
Rite Aid,Pharmacies,4720b Lee Hwy,"Arlington, VA 22207",
Safeway Pharmacy,Pharmacies,5101 Wilson Blvd,"Arlington, VA 22205",
Nacds Foundation,Pharmacies,1776 Wilson Blvd Ste 200,"Arlington, VA 22209",
Walgreens,Pharmacies,4720 Lee Hwy,"Arlington, VA 22207",
Joule Wellness Pharmacy,Pharmacies,1028 S Walter Reed Dr,"Arlington, VA 22204",
"Yuschock, Zachary",Pharmacies,800 N Glebe Rd,"Arlington, VA 22203",
Medicine Shoppe,Pharmacies,5513 Wilson Blvd,"Arlington, VA 22205",
Alexandria Care Pharamacy Store 2,Pharmacies,611 S Carlin Springs Rd,"Arlington, VA 22204",
Carlin Springs Pharmacy,Pharmacies,611 S Carlin Springs Rd,"Arlington, VA 22204",
Eklund Drug Inc,Pharmacies,5101 Lee Hwy,"Arlington, VA 22207",
Prosperity Rx Arlington,Pharmacies,5101 Lee Hwy,"Arlington, VA 22207",
Giant Pharmacy,Pharmacies,2901 S Glebe Rd,"Arlington, VA 22206",
"Ishola, Tolani",Pharmacies,2500 N Harrison St,"Arlington, VA 22207",
"Oh, Samuel",Pharmacies,251 18th St S,"Arlington, VA 22202",
Quincy Pharmacy,Pharmacies,5136 Williamsburg Blvd,"Arlington, VA 22207",
Green Valley Pharmacy,Pharmacies,2415 S Shirlington Rd,"Arlington, VA 22206",
Arlington pharmacy,Pharmacies,5513 Wilson Blvd,"Arlington, VA 22205",
Safeway,Pharmacies,5101 Wilson Blvd,"Arlington, VA 22205",
Genoa,Pharmacies,2120 Washington Blvd,"Arlington, VA 22204",
Harris Teeter,Pharmacies,4250 Campbell Ave,"Arlington, VA 22206",
Skyline Pharmacy & Clinic,Pharmacies,5100 Leesburg Pike,"Alexandria, VA 22302",
Baileys Pharmacy,Pharmacies,5623 Columbia Pike,"Falls Church, VA 22041",
Morgan Care Pharmacy,Pharmacies,3001 P St NW Apt 1,"Washington, DC 20007",
Mehrnoush Karbassiafshar,Pharmacies,6100 Arlington Blvd,"Falls Church, VA 22044",
C-More Drug Store,Pharmacies,6003 Leesburg Pike,"Falls Church, VA 22041",
"Patel, Paulomi T",Pharmacies,6053 Leesburg Pike,"Falls Church, VA 22041",
"Fasihi, Irem Shah",Pharmacies,5801 Army Pentagon,"Washington, DC 20310",
"GERO GABA SEDEDJI, Pharm D",Pharmacies,3614 King St,"Alexandria, VA 22302",
Falls Church Pharmacy,Pharmacies,6795 Wilson Blvd Ste 1-A,"Falls Church, VA 22044",
"Bakshi, Vibha",Pharmacies,3526 King St,"Alexandria, VA 22302",
Millennium Pharmacy,Pharmacies,6305 Castle Pl,"Falls Church, VA 22044",
"Kusi, Harriet",Pharmacies,3800 Reservoir Rd NW,"Washington, DC 20007",
"Aramvareekul, Varintorn",Pharmacies,3800 Reservoir Rd NW,"Washington, DC 20007",
Apha Annual Meeting,Pharmacies,2215 Constitution Ave NW,"Washington, DC 20037",
"John, Donney",Pharmacies,6400 Arlington Blvd,"Falls Church, VA 22042",
Dumbarton Pharmacy,Pharmacies,3146 Dumbarton St NW,"Washington, DC 20007",
Flora Krause Casey Health Center,Pharmacies,1200 N Howard St,"Alexandria, VA 22304",
"Wille, Alison",Pharmacies,3801 Jefferson Davis Hwy,"Alexandria, VA 22305",
"Sedlacek, Jenna C",Pharmacies,900 23rd St NW,"Washington, DC 20037",
Foer's Pharmacy,Pharmacies,2141 K St NW Ste 606,"Washington, DC 20037",
"Epstein, Mark Samuel",Pharmacies,2301 M St NW,"Washington, DC 20037",
Kimberly Cheeks,Pharmacies,3101 Jefferson Davis Hwy,"Alexandria, VA 22305",
Giant Pharmacy,Pharmacies,621 E Glebe Rd,"Alexandria, VA 22305",
Harris Teeter Pharmacy,Pharmacies,6351 Columbia Pike,"Falls Church, VA 22041",
Neighborhood Pharmacy,Pharmacies,2204 Mount Vernon Ave,"Alexandria, VA 22301",
"Choi, Jeounghee",Pharmacies,6349 Lincolnia Rd,"Alexandria, VA 22312",
Dupont Circle Pharmacy,Pharmacies,"1506 21st St NW, suite 100.","Washington, DC 20036",
CVS Pharmacy,Pharmacies,2000 L St NW,"Washington, DC 20036",
CVS Pharmacy,Pharmacies,2000 M St NW,"Washington, DC 20036",
CVS Pharmacy,Pharmacies,6637 Arlington Blvd,"Falls Church, VA 22042",
CVS Pharmacy,Pharmacies,134 W Broad St,"Falls Church, VA 22046",
CVS Pharmacy,Pharmacies,5101 Duke St,"Alexandria, VA 22304",
CVS Pharmacy,Pharmacies,1025 Connecticut Ave NW,"Washington, DC 20036",
CVS Pharmacy,Pharmacies,6 Dupont Cir NW,"Washington, DC 20036",
CVS Pharmacy,Pharmacies,415 E Monroe Ave,"Alexandria, VA 22301",
CVS Pharmacy,Pharmacies,429 Lenfant Plz SW Ste 465,"Washington, DC 20024",
CVS Pharmacy,Pharmacies,717 14th St NW,"Washington, DC 20005",
CVS Pharmacy,Pharmacies,1275 Pennsylvania Ave NW,"Washington, DC 20004",
CVS Pharmacy,Pharmacies,6100 Arlington Blvd,"Falls Church, VA 22044",
Safeway Pharmacy,Pharmacies,6118 Arlington Blvd,"Falls Church, VA 22044",
Safeway Pharmacy,Pharmacies,3526 King St,"Alexandria, VA 22302",
Safeway Pharmacy,Pharmacies,1855 Wisconsin Ave NW,"Washington, DC 20007",
Rite Aid,Pharmacies,4515 Duke St,"Alexandria, VA 22304",
Walgreens,Pharmacies,6715a Arlington Blvd,"Falls Church, VA 22042",
Walgreens,Pharmacies,1517 Mount Vernon Ave,"Alexandria, VA 22301",
Rite Aid,Pharmacies,6224 Old Dominion Dr,"Mc Lean, VA 22101",
Safeway Pharmacy,Pharmacies,6244 Old Dominion Dr,"Mc Lean, VA 22101",
Rite Aid,Pharmacies,2255 Wisconsin Ave NW,"Washington, DC 20007",
CVS Pharmacy,Pharmacies,3101 Jefferson Davis Hwy,"Alexandria, VA 22305",
Landmark Professional Building,Pharmacies,5249 Duke St,"Alexandria, VA 22304",
"Sabah, Cyprian",Pharmacies,6 Dupont Cir NW,"Washington, DC 20036",
"Rameau, Jeffrey F",Pharmacies,6715a Arlington Blvd,"Falls Church, VA 22042",
Nhhc,Pharmacies,1718 Connecticut Ave NW,"Washington, DC 20009",
Perdue Pharma,Pharmacies,1420 New York Ave NW,"Washington, DC 20005",
Giant Pharmacy,Pharmacies,1400 New York Ave NW,"Washington, DC 20005",
Giant Pharmacy,Pharmacies,3131 Duke St,"Alexandria, VA 22314",
Broad Street Pharmacy,Pharmacies,450 W Broad St Ste 120b,"Falls Church, VA 22046",
CVS Pharmacy,Pharmacies,YORKTOWN Center,"Falls Church, VA 22042",
CVS Pharmacy,Pharmacies,6164 Arlington Blvd,"Falls Church, VA 22044",
CVS Pharmacy,Pharmacies,4859 Macarthur Blvd NW,"Washington, DC 20007",
CVS Pharmacy,Pharmacies,2819 M St NW,"Washington, DC 20007",
CVS Pharmacy,Pharmacies,2000 Pennsylvania Ave NW,"Washington, DC 20006",
Walgreens,Pharmacies,1217 22nd St NW,"Washington, DC 20037",
CVS Pharmacy,Pharmacies,1101 Connecticut Ave NW,"Washington, DC 20036",
CVS Pharmacy,Pharmacies,1201 Maryland Ave SW,"Washington, DC 20024",
CVS Pharmacy,Pharmacies,1350 Connecticut Ave NW,"Washington, DC 20036",
Culmore Discount Drug Store,Pharmacies,6005 Leesburg Pike,"Falls Church, VA 22041",
Nova Scripts Central,Pharmacies,6400 Arlington Blvd Ste 120,"Falls Church, VA 22042",
"Regina N Will, PHARMD",Pharmacies,2150 Pennsylvania Ave NW # G-201,"Washington, DC 20037",
Council On Egyptian American,Pharmacies,1250 24th St NW Ste 350,"Washington, DC 20037",
Jefferson Memorial Pharmacy,Pharmacies,98 N Washington St,"Falls Church, VA 22046",
New World Pharmacy,Pharmacies,6668 Arlington Blvd,"Falls Church, VA 22042",
Physicians Pharmacy Alliance,Pharmacies,"118 Mackenan Dr Ste 200, Cary, NC 27511","Washington, DC 20001",
Rite Aid,Pharmacies,3301 New Mexico Ave NW Ste 127,"Washington, DC 20016",
Adam J Falk,Pharmacies,2001 L St NW,"Washington, DC 20036",
Cpl Inc,Pharmacies,1016 16th St NW Ste 602,"Washington, DC 20036",
EPIC Pharmacies,Pharmacies,1718 Connecticut Ave NW,"Washington, DC 20009",
Tyson's Pharmacy,Pharmacies,7508 Leesburg Pike,"Falls Church, VA 22043",
Walgreens,Pharmacies,801 7th St NW,"Washington, DC 20001",
CVS Pharmacy,Pharmacies,3130 Duke St,"Alexandria, VA 22314",
Walmart - Pharmacy,Pharmacies,7910 Richmond Hwy,"Alexandria, VA 22306",
Wellington Pharmacy,Pharmacies,1150 Varnum St NE,"Washington, DC 20017",
Foer's Pharmacy,Pharmacies,8218 Wisconsin Ave Ste P15,"Bethesda, MD 20814",
Apothe Pets,Pharmacies,4900 Massachusetts Ave NW,"Washington, DC 20016",
Center Pet Pharmacy,Pharmacies,4900 Massachusetts Ave NW Frnt 1,"Washington, DC 20016",
Specialty Rx Inc,Pharmacies,2924 Telestar Ct,"Falls Church, VA 22042",
Flex Care Pharmacy,Pharmacies,3861 Alabama Ave SE,"Washington, DC 20020",
Procare Pharmacy,Pharmacies,7202 Poplar St,"Annandale, VA 22003",
Allcare Pharmacy,Pharmacies,6196 Oxon Hill Rd,"Oxon Hill, MD 20745",
Safeway Pharmacy,Pharmacies,1100 4th St SW,"Washington, DC 20024",
Walmart - Pharmacy,Pharmacies,99 H St NW,"Washington, DC 20001",
Walgreens,Pharmacies,615 King St,"Alexandria, VA 22314",
CVS Pharmacy,Pharmacies,500 12th St SE,"Washington, DC 20003",
Bradley Care Drugs,Pharmacies,6900 Arlington Rd,"Bethesda, MD 20814",
Inova Pharmacy Plus @ Inova Fairfax Emergency Dept,Pharmacies,3300 Gallows Rd,"Falls Church, VA 22042",
CVS Pharmacy,Pharmacies,1100 New Jersey Ave SE,"Washington, DC 20003",
CVS Pharmacy,Pharmacies,3031 14th St NW,"Washington, DC 20009",
Rite Aid,Pharmacies,1306 U St NW,"Washington, DC 20009",
CVS Pharmacy,Pharmacies,6221 Oxon Hill Rd,"Oxon Hill, MD 20745",
CVS Pharmacy,Pharmacies,7205 Little River Tpke,"Annandale, VA 22003",
Safeway Pharmacy,Pharmacies,1601 Maryland Ave NE,"Washington, DC 20002",
CVS Pharmacy,Pharmacies,1637 P St NW,"Washington, DC 20036",
CVS Pharmacy,Pharmacies,259 S Van Dorn St,"Alexandria, VA 22304",
CVS Pharmacy,Pharmacies,1199 Vermont Ave NW,"Washington, DC 20005",
CVS Pharmacy,Pharmacies,1418 P St NW,"Washington, DC 20005",
CVS Pharmacy,Pharmacies,435 8th St NW,"Washington, DC 20004",
CVS Pharmacy,Pharmacies,1100 4th St SW,"Washington, DC 20024",
CVS Pharmacy,Pharmacies,1755 Columbia Rd NW,"Washington, DC 20009",
CVS Pharmacy,Pharmacies,1150 W Broad St,"Falls Church, VA 22046",
CVS Pharmacy,Pharmacies,4851 Massachusetts Ave NW,"Washington, DC 20016",
CVS Pharmacy,Pharmacies,1900 7th St NW,"Washington, DC 20001",
CVS Pharmacy,Pharmacies,4601 Sangamore Rd,"Bethesda, MD 20816",
CVS Pharmacy,Pharmacies,7275 Arlington Blvd,"Falls Church, VA 22042",
CVS Pharmacy,Pharmacies,4309 Connecticut Ave NW,"Washington, DC 20008",
CVS Pharmacy,Pharmacies,4555 Wisconsin Ave NW,"Washington, DC 20016",
CVS Pharmacy,Pharmacies,503 King St,"Alexandria, VA 22314",
CVS Pharmacy,Pharmacies,433 S Washington St,"Alexandria, VA 22314",
Walgreens,Pharmacies,4300 Backlick Rd,"Annandale, VA 22003",
CVS Pharmacy,Pharmacies,5013 Connecticut Ave NW,"Washington, DC 20008",
CVS Pharmacy,Pharmacies,1452 Chain Bridge Rd,"Mc Lean, VA 22101",
CVS Pharmacy,Pharmacies,5550 Connecticut Ave NW,"Washington, DC 20015",
CVS Pharmacy,Pharmacies,4901 Indian Head Hwy,"Oxon Hill, MD 20745",
CVS Pharmacy,Pharmacies,6150 Franconia Rd,"Alexandria, VA 22310",
Walgreens,Pharmacies,6717 Richmond Hwy,"Alexandria, VA 22306",
CVS Pharmacy,Pharmacies,1636 Belle View Blvd,"Alexandria, VA 22307",
CVS Pharmacy,Pharmacies,2350 Washington Pl NE,"Washington, DC 20018",
CVS Pharmacy,Pharmacies,5227 Georgia Ave NW,"Washington, DC 20011",
CVS Pharmacy,Pharmacies,7859 Heritage Dr,"Annandale, VA 22003",
CVS Pharmacy,Pharmacies,6700 Wisconsin Ave,"Chevy Chase, MD 20815",
CVS Pharmacy,Pharmacies,6917 Arlington Rd,"Bethesda, MD 20814",
New Hampshire Pharmacy & Medical Equipment,Pharmacies,5001 New Hampshire Ave NW,"Washington, DC 20011",
Walmart - Pharmacy,Pharmacies,5929 Georgia Ave NW,"Washington, DC 20011",
CVS Pharmacy,Pharmacies,2646 Naylor Rd SE,"Washington, DC 20020",
CVS Pharmacy,Pharmacies,3601 12th St NE,"Washington, DC 20017",
CVS Pharmacy,Pharmacies,8117 Leesburg Pike,"Vienna, VA 22182",
CVS Pharmacy,Pharmacies,128 Kennedy St NW,"Washington, DC 20011",
CVS Pharmacy,Pharmacies,162 Fleet St,"Oxon Hill, MD 20745",
Rite Aid,Pharmacies,7100 Silver Lake Blvd,"Alexandria, VA 22315",
Rite Aid,Pharmacies,5230 Port Royal Rd,"Springfield, VA 22151",
CVS Pharmacy,Pharmacies,6514 Georgia Ave NW,"Washington, DC 20012",
CVS Pharmacy,Pharmacies,3240 Pennsylvania Ave SE,"Washington, DC 20020",
CVS Pharmacy,Pharmacies,6436 Springfield Plz,"Springfield, VA 22150",
CVS Pharmacy,Pharmacies,7809 Wisconsin Ave,"Bethesda, MD 20814",
Walmart - Pharmacy,Pharmacies,310 Riggs Rd NE,"Washington, DC 20011",
Walgreens,Pharmacies,7629 Richmond Hwy,"Alexandria, VA 22306",
CVS Pharmacy,Pharmacies,8201 Oxon Hill Rd,"Fort Washington, MD 20744",
CVS Pharmacy,Pharmacies,3921 Prosperity Ave,"Fairfax, VA 22031",
CVS Pharmacy,Pharmacies,320 40th St NE,"Washington, DC 20019",
Walgreens,Pharmacies,1155 F St NW Ste 975,"Washington, DC 20004",
Safeway Pharmacy,Pharmacies,299 S Van Dorn St,"Alexandria, VA 22304",
CVS Pharmacy,Pharmacies,3700 Newark St NW,"Washington, DC 20016",
Rite Aid,Pharmacies,1003 W Broad St,"Falls Church, VA 22046",
Safeway Pharmacy,Pharmacies,1747 Columbia Rd NW,"Washington, DC 20009",
CVS Pharmacy,Pharmacies,655 K St NW,"Washington, DC 20001",
CVS Pharmacy,Pharmacies,1680 Duke St,"Alexandria, VA 22314",
Safeway Pharmacy,Pharmacies,490 L St NW,"Washington, DC 20001",
Rite Aid,Pharmacies,7395 Lee Hwy Ste K,"Falls Church, VA 22042",
Mt Pleasant Pharmacy,Pharmacies,3169 Mount Pleasant St NW,"Washington, DC 20010",
Safeway Pharmacy,Pharmacies,7397 Lee Hwy,"Falls Church, VA 22042",
Safeway Pharmacy,Pharmacies,4701 Sangamore Rd,"Bethesda, MD 20816",
CVS Pharmacy,Pharmacies,3100 14th St NW,"Washington, DC 20010",
Walgreens,Pharmacies,50 Massachusetts Ave Union Station (Lower Level),"Washington, DC 20002",
Capital Hill Pharmacy,Pharmacies,650 Pennsylvania Ave SE Lbby 1,"Washington, DC 20003",
Rite Aid,Pharmacies,6100 Rose Hill Dr,"Alexandria, VA 22310",
Walgreens,Pharmacies,6100 Rose Hill Dr,"Alexandria, VA 22310",
Safeway Pharmacy,Pharmacies,6130 Rose Hill Dr,"Alexandria, VA 22310",
CVS Pharmacy,Pharmacies,645 H St NE,"Washington, DC 20002",
Walgreens Pharmacy at Children's National,Pharmacies,111 Michigan Ave NW Suite 1107,"Washington, DC 20010",
Safeway Pharmacy,Pharmacies,7414 Little River Tpke,"Annandale, VA 22003",
Safeway Pharmacy,Pharmacies,1330 Chain Bridge Rd,"Mc Lean, VA 22101",
Safeway Pharmacy,Pharmacies,3830 Georgia Ave NW,"Washington, DC 20011",
Rite Aid,Pharmacies,801 H St NE,"Washington, DC 20002",
Community Pharmacy,Pharmacies,1117 Good Hope Rd SE,"Washington, DC 20020",
Rite Aid,Pharmacies,4635 S Capitol St SW,"Washington, DC 20032",
Walgreens,Pharmacies,4635 S Capitol St SW,"Washington, DC 20032",
Safeway Pharmacy,Pharmacies,5545 Connecticut Ave NW,"Washington, DC 20015",
Safeway Pharmacy,Pharmacies,1688 Anderson Rd,"Mc Lean, VA 22102",
CVS Pharmacy,Pharmacies,6600 Richmond Hwy,"Alexandria, VA 22306",
Walgreens Pharmacy at Howard University Hospital,Pharmacies,2041 Georgia Ave NW Ste 1-j10,"Washington, DC 20060",
Rite Aid,Pharmacies,6711 Richmond Hwy,"Alexandria, VA 22306",
CVS Pharmacy,Pharmacies,2905 District Ave Ste 400,"Fairfax, VA 22031",
Surescripts,Pharmacies,5971 Kingstowne Village Pkwy Ste 200,"Alexandria, VA 22315",
Walgreens,Pharmacies,5600 Georgia Ave NW,"Washington, DC 20011",
Safeway Pharmacy,Pharmacies,5980 Kingstowne Towne Ctr,"Alexandria, VA 22315",
Safeway Pharmacy,Pharmacies,5000 Bradley Blvd,"Chevy Chase, MD 20815",
Walgreens Pharmacy,Pharmacies,6906 Arlington Rd,"Bethesda, MD 20814",
Rite Aid,Pharmacies,8416 Lee Hwy,"Fairfax, VA 22031",
Safeway Pharmacy,Pharmacies,2845 Alabama Ave SE,"Washington, DC 20020",
CVS Pharmacy,Pharmacies,3117 Lockheed Blvd,"Alexandria, VA 22306",
CVS Pharmacy,Pharmacies,6600 Springfield Mall,"Springfield, VA 22150",
Walgreens,Pharmacies,7100 Silver Lake Blvd,"Alexandria, VA 22315",
Safeway Pharmacy,Pharmacies,6235 Oxon Hill Rd,"Oxon Hill, MD 20745",
Walgreens,Pharmacies,5230 Port Royal Rd,"Springfield, VA 22151",
Safeway Pharmacy,Pharmacies,6500 Piney Branch Rd NW,"Washington, DC 20012",
Resource Pharmacy,Pharmacies,1160 Varnum St NE Ste 2,"Washington, DC 20017",
CVS Pharmacy,Pharmacies,7678 Richmond Hwy,"Alexandria, VA 22306",
Pfizer Inc,Pharmacies,1275 Pennsylvania Ave NW Ste 600,"Washington, DC 20004",
"Dr. JOY C NWANGWU, Pharm D",Pharmacies,1275 Pennsylvania Ave NW,"Washington, DC 20004",
Oncovir,Pharmacies,3203 Cleveland Ave NW,"Washington, DC 20008",
"Bord, Eric Samuel, ATY",Pharmacies,1111 Pennsylvania Ave NW,"Washington, DC 20004",
CVS Caremark,Pharmacies,1101 Pennsylvania Ave NW,"Washington, DC 20004",
Drug Stores Walgreen,Pharmacies,1155 F St NW,"Washington, DC 20004",
"Dr. Mandicia Ebba, MD",Pharmacies,299 S Van Dorn St,"Alexandria, VA 22304",
"Dr. Erica B Shepperd-debnam, MD",Pharmacies,3700 Newark St NW,"Washington, DC 20016",
Kalorama Phamacy,Pharmacies,1841 Columbia Rd NW,"Washington, DC 20009",
Express Scripts Inc,Pharmacies,601 Pennsylvania Ave NW Ste 780s,"Washington, DC 20004",
"Dang, Quinn Mong",Pharmacies,1003 W Broad St,"Falls Church, VA 22046",
L'arche Inc,Pharmacies,2474 Ontario Rd NW,"Washington, DC 20009",
L Arche Gwdc,Pharmacies,2525 Ontario Rd NW,"Washington, DC 20009",
"Terry, Jonas H",Pharmacies,441 4th St NW,"Washington, DC 20001",
"Taylor, Tiffanie",Pharmacies,1306 U St NW,"Washington, DC 20009",
Cary Rx Inc,Pharmacies,1300 7th St NW,"Washington, DC 20001",
CaryRx - Pharmacy Delivery,Pharmacies,1300 7th St NW,"Washington, DC 20001",
"Khalil, Michael R",Pharmacies,2129 14th St NW,"Washington, DC 20009",
Pharmacist E-Link,Pharmacies,205 Daingerfield Rd,"Alexandria, VA 22314",
Flavorx,Pharmacies,4900 Massachusetts Ave NW,"Washington, DC 20016",
Amcp,Pharmacies,675 N Washington St,"Alexandria, VA 22314",
Giant Pharmacy,Pharmacies,1230 W Broad St,"Falls Church, VA 22046",
Ilma Compounding,Pharmacies,400 N Columbus St,"Alexandria, VA 22314",
"Le, Thanh Huyen",Pharmacies,2064 Kirby Rd,"Mc Lean, VA 22101",
Giant Pharmacy,Pharmacies,7235 Arlington Blvd,"Falls Church, VA 22042",
Reingold Inc,Pharmacies,1321 Duke St,"Alexandria, VA 22314",
Amerisourcebergen-Washingtondc,Pharmacies,412 1st St SE,"Washington, DC 20003",
"Liu, Amy",Pharmacies,7397 Lee Hwy,"Falls Church, VA 22042",
"Muneeruddin, Farhina",Pharmacies,7397 Lee Hwy,"Falls Church, VA 22042",
"Nguyen, Duong",Pharmacies,4701 Sangamore Rd,"Bethesda, MD 20816",
Nacds,Pharmacies,413 N Lee St,"Alexandria, VA 22314",
Foundation For Managed Care,Pharmacies,100 N Pitt St,"Alexandria, VA 22314",
Annandale Pharmacy,Pharmacies,7004 Little River Tpke,"Annandale, VA 22003",
Eulalio Market,Pharmacies,1458 Park Rd NW,"Washington, DC 20010",
"Nakbeen, Lina",Pharmacies,4251 John Marr Dr,"Annandale, VA 22003",
Alexandria City Government Historic,Pharmacies,105 S Fairfax St,"Alexandria, VA 22314",
"Maloney, Kathleen",Pharmacies,1011 N Capitol St NE,"Washington, DC 20002",
"Walk, Alexander R",Pharmacies,401 M St SE,"Washington, DC 20003",
New World Pharmacy,Pharmacies,7031 Little River Tpke,"Annandale, VA 22003",
"Yook, Sung Hwa",Pharmacies,7031 Little River Tpke,"Annandale, VA 22003",
"Winston, Delisa",Pharmacies,326 E Capitol St NE,"Washington, DC 20003",
"Martin Jr, Samuel M",Pharmacies,326 E Capitol St NE,"Washington, DC 20003",
"Khalil, Michael R",Pharmacies,326 E Capitol St NE,"Washington, DC 20003",
"Kuo, Yu-Chi",Pharmacies,326 E Capitol St NE,"Washington, DC 20003",
"Dr. DAMIKA WALKER, Pharm D",Pharmacies,326 E Capitol St NE,"Washington, DC 20003",
Howard University Pharmacy Alumni,Pharmacies,2300 4th St NW,"Washington, DC 20059",
"Dr. Gertrude Denise Moore, MD",Pharmacies,700 2nd St NE,"Washington, DC 20002",
"Ngo, Penny",Pharmacies,700 2nd St NE,"Washington, DC 20002",
"El-Amin, Brooke A",Pharmacies,700 2nd St NE,"Washington, DC 20002",
Excel Pharmacy,Pharmacies,3923 S Capitol St SW,"Washington, DC 20032",
"Walk, Alexander R",Pharmacies,1201 1st St NE,"Washington, DC 20002",
Procare,Pharmacies,650 Pennsylvania Ave SE,"Washington, DC 20003",
Heritage Pharmacy Corp,Pharmacies,770 M St SE,"Washington, DC 20003",
"Sagheb Tehrani, Mazdak",Pharmacies,661 Pennsylvania Ave SE,"Washington, DC 20003",
Academy Of Managed Care Pharmacy,Pharmacies,6133 Redwood Ln,"Alexandria, VA 22310",
Access Compounding Pharmacy,Pharmacies,1440 Emerson Ave,"Mc Lean, VA 22101",
Us House Of Representatives,Pharmacies,2235 Shannon Pl SE,"Washington, DC 20020",
"Lutu, Daniel",Pharmacies,6324 Gentele Ct,"Alexandria, VA 22310",
"Terry, Christopher",Pharmacies,1220 12th St SE,"Washington, DC 20003",
"Acevedo, Paola M",Pharmacies,1220 12th St SE,"Washington, DC 20003",
"Halabi, Rola A",Pharmacies,110 Irving St NW,"Washington, DC 20010",
"Yu, Guo",Pharmacies,110 Irving St NW,"Washington, DC 20010",
Care Connect Pharmacy,Pharmacies,6845 Elm St,"Mc Lean, VA 22101",
Soag,Pharmacies,6845 Elm St Ste 105,"Mc Lean, VA 22101",
Tensae Yilikal,Pharmacies,801 H St NE,"Washington, DC 20002",
Neighborhood Pharmacy,Pharmacies,1932 Martin Luther King Jr Ave SE,"Washington, DC 20020",
"Murray, Tiffany",Pharmacies,5350 Westbard Ave,"Bethesda, MD 20816",
Safeway Pharmacy,Pharmacies,4034 Georgia Ave NW,"Washington, DC 20011",
"Buabeng, Isaac K",Pharmacies,50 Irving St NW,"Washington, DC 20422",
"Lula B James, PHARMD",Pharmacies,50 Irving St NW,"Washington, DC 20422",
"Kim, Bi Chuy",Pharmacies,50 Irving St NW,"Washington, DC 20422",
"Dr. Tiffany Collins, PHARMD",Pharmacies,50 Irving St NW,"Washington, DC 20422",
"Dr. Deshonika Berry, MD",Pharmacies,50 Irving St NW,"Washington, DC 20422",
Safeway Pharmacy,Pharmacies,415 14th St SE,"Washington, DC 20003",
"Ariyo, Olufunmi",Pharmacies,1400 Decatur St NW,"Washington, DC 20011",
Shepherd Pharmacy,Pharmacies,4402 Georgia Ave NW,"Washington, DC 20011",
"Floden, Heidi",Pharmacies,1365 A St NE,"Washington, DC 20002",
Deepak Kapur,Pharmacies,4901 Indian Head Hwy,"Oxon Hill, MD 20745",
"Shin, Seok Youn",Pharmacies,7700 Little River Tpke Ste 103,"Annandale, VA 22003",
"Tuttle, Jeanne",Pharmacies,810 Vermont Ave NW,"Washington, DC 20420",
"Legrand, Meighan",Pharmacies,2041 Georgia Ave NW,"Washington, DC 20060",
"Johnson, Jarrett",Pharmacies,2041 Georgia Ave NW,"Washington, DC 20060",
"Cobb, Ajarvis",Pharmacies,2041 Georgia Ave NW,"Washington, DC 20060",
"Freeman, Cheryl S",Pharmacies,2041 Georgia Ave NW,"Washington, DC 20060",
"Mengistab, Mulu",Pharmacies,2041 Georgia Ave NW,"Washington, DC 20060",
"Ike, Oliver U",Pharmacies,2041 Georgia Ave NW,"Washington, DC 20060",
"Elemihe, Uzomah",Pharmacies,2041 Georgia Ave NW,"Washington, DC 20060",
"Williams, Michelle R",Pharmacies,500 12th St SW,"Washington, DC 20536",
"Onayiga, James I",Pharmacies,2041 Georgia Ave NW,"Washington, DC 20060",
"Babb, Andrea A",Pharmacies,2041 Georgia Ave NW,"Washington, DC 20060",
"Anderson, Derrick D",Pharmacies,2041 Georgia Ave NW,"Washington, DC 20060",
"Twedt, Elaine L",Pharmacies,810 Vermont Ave NW,"Washington, DC 20420",
"Dr. Latoya Shenee Toombs, MD",Pharmacies,2703 Martin Luther King Jr Ave SE,"Washington, DC 20593",
Apex Pharmacy,Pharmacies,210 Michigan Ave NE,"Washington, DC 20017",
"Shamim, Henna",Pharmacies,2909 Charing Cross Rd,"Falls Church, VA 22042",
Healing Touch,Pharmacies,5210 Indian Head Hwy Ste 1rr,"Oxon Hill, MD 20745",
Global Community Pharmacy,Pharmacies,803 Southern Ave Ste A,"Oxon Hill, MD 20745",
Acaria Health Pharmacy,Pharmacies,2924 Telestar Ct,"Falls Church, VA 22042",
Giant Pharmacy,Pharmacies,6800 Richmond Hwy,"Alexandria, VA 22306",
"Dr. KIM SISOUK, Pharm D",Pharmacies,6800 Richmond Hwy,"Alexandria, VA 22306",
"Addico, Alfred A",Pharmacies,2350 Washington Pl NE,"Washington, DC 20018",
Milennium Pharmacy Sy,Pharmacies,3700 N Capitol St NW,"Washington, DC 20011",
Excel Care Pharmacy,Pharmacies,1310 Southern Ave SE,"Washington, DC 20032",
Giant Pharmacy,Pharmacies,5870 Kingstowne Ctr,"Alexandria, VA 22315",
Mt Olivet Pharmacy,Pharmacies,1103 Mount Olivet Rd NE,"Washington, DC 20002",
Pharmacy Quality Alliance,Pharmacies,5911 Kingstowne Village Pkwy,"Alexandria, VA 22315",
"Joehl, Kurt",Pharmacies,7311 Macarthur Blvd,"Bethesda, MD 20816",
Prosperity Pharmacy,Pharmacies,3300 Gallows Rd,"Falls Church, VA 22042",
Inova Pharmacy Plus @ Inova Heart Institute,Pharmacies,3300 Gallows Rd,"Falls Church, VA 22042",
"Lawrence Eng, Other",Pharmacies,3300 Gallows Rd,"Falls Church, VA 22042",
Triple Alliance Pharmacy,Pharmacies,1819 W Virginia Ave NE,"Washington, DC 20002",
Triple Alliance Inc,Pharmacies,1217-1219 Brentwood Rd NE,"Washington, DC 20018",
"Lio, Ivy",Pharmacies,5980 Kingstowne Towne Ctr,"Alexandria, VA 22315",
District Rx LLX,Pharmacies,8301 Arlington Blvd,"Fairfax, VA 22031",
Ramdass Pharmacy,Pharmacies,475 Ingraham St NW,"Washington, DC 20011",
Braden's Compounding Pharmacy,Pharmacies,6900 Arlington Rd,"Bethesda, MD 20814",
Posz1,Pharmacies,6900 Arlington Rd,"Bethesda, MD 20814",
"Delos Reyes, Socorro",Pharmacies,6917 Arlington Rd,"Bethesda, MD 20814",
"Dr. JESSICA CUNANAN, Pharm D",Pharmacies,6917 Arlington Rd,"Bethesda, MD 20814",
"Nguyen, Xuan-Mai T",Pharmacies,6917 Arlington Rd,"Bethesda, MD 20814",
Brookland Pharmacy,Pharmacies,1001 Lawrence St NE,"Washington, DC 20017",
"Gulelat, Yodit",Pharmacies,2431 25th St SE,"Washington, DC 20020",
CVS Caremark,Pharmacies,10 Center St,"Chevy Chase, MD 20815",
"Posner, David",Pharmacies,5001 New Hampshire Ave NW,"Washington, DC 20011",
"Miller, Carol",Pharmacies,8221 Willow Oaks Corporate Dr,"Fairfax, VA 22031",
"Ashkan, Evelyn",Pharmacies,8221 Willow Oaks Corporate Dr,"Fairfax, VA 22031",
A & D Pharmacy,Pharmacies,6134 Brandon Ave,"Springfield, VA 22150",
"Mrs. Azita Tavakolian, RPH",Pharmacies,6134 Brandon Ave,"Springfield, VA 22150",
"Shannon S Murphy, Other",Pharmacies,8901 Wisconsin Ave,"Bethesda, MD 20889",
"Nkangnia-Njomo, Chantal S",Pharmacies,8901 Rockville Pike,"Bethesda, MD 20889",
"Vu, Mai T",Pharmacies,8901 Wisconsin Ave,"Bethesda, MD 20889",
"Reed, Tracy",Pharmacies,8901 Wisconsin Ave,"Bethesda, MD 20889",
"Tavakoli, Gita: Gita Tavakoli",Pharmacies,8901 Wisconsin Ave,"Bethesda, MD 20889",
"Morris, Phyllis M",Pharmacies,8901 Wisconsin Ave,"Bethesda, MD 20889",
"Reed, Devon O",Pharmacies,8901 Rockville Pike,"Bethesda, MD 20889",
"Nelson, Tammera",Pharmacies,8901 Wisconsin Ave,"Bethesda, MD 20889",
"Duong, Thanhhang T",Pharmacies,8901 Wisconsin Ave,"Bethesda, MD 20889",
"West, Gary D",Pharmacies,8901 Wisconsin Ave,"Bethesda, MD 20889",
"Best, Sylvia",Pharmacies,8901 Wisconsin Ave,"Bethesda, MD 20889",
"Jones, Staci Lynne",Pharmacies,8901 Wisconsin Ave,"Bethesda, MD 20889",
"Zywicke, Emily L",Pharmacies,8901 Rockville Pike,"Bethesda, MD 20889",
"Salako, Mebanga O",Pharmacies,8901 Rockville Pike,"Bethesda, MD 20889",
Se-A Han,Pharmacies,8416 Lee Hwy,"Fairfax, VA 22031",
"Cheng, Emily Lee",Pharmacies,8416 Lee Hwy,"Fairfax, VA 22031",
"Alonzo, Jordan A",Pharmacies,3601 12th St NE,"Washington, DC 20017",
"Mina, Peter S",Pharmacies,1401 Rhode Island Ave NE,"Washington, DC 20018",
"Hill, Chennel",Pharmacies,2845 Alabama Ave SE,"Washington, DC 20020",
Prosperity Pharmacy Of Fairfax,Pharmacies,2740 Prosperity Ave,"Fairfax, VA 22031",
"Oriola, Temitope",Pharmacies,162 Fleet St,"Oxon Hill, MD 20745",
Delca Inc,Pharmacies,7025 Brookville Rd,"Chevy Chase, MD 20815",
Joseph Wong,Pharmacies,7025 Brookville Rd,"Chevy Chase, MD 20815",
"Adiam Michael, Other",Pharmacies,6501 Loisdale Ct,"Springfield, VA 22150",
"Parker, Michael A",Pharmacies,6501 Loisdale Ct,"Springfield, VA 22150",
"Idlibi, Tamara",Pharmacies,6501 Loisdale Ct,"Springfield, VA 22150",
"Crawford, Paulette E",Pharmacies,6501 Loisdale Ct,"Springfield, VA 22150",
Anhthy Ly,Pharmacies,6501 Loisdale Ct,"Springfield, VA 22150",
"Biggs, Brandon J",Pharmacies,6501 Loisdale Ct,"Springfield, VA 22150",
"Velasco, Luis",Pharmacies,6501 Loisdale Ct,"Springfield, VA 22150",
"Geary, Lindsey C",Pharmacies,6501 Loisdale Ct,"Springfield, VA 22150",
"Youssef, Laura",Pharmacies,7100 Silver Lake Blvd,"Alexandria, VA 22315",
"Donahoe, Stephanie",Pharmacies,7625 Old Georgetown Rd,"Bethesda, MD 20814",
"Esene, Obehi",Pharmacies,6221 Oxon Hill Rd,"Oxon Hill, MD 20745",
"Stoneham, Stephanie A",Pharmacies,6514 Georgia Ave NW,"Washington, DC 20012",
"Dr. Kelsey Lynn Turner, MD",Pharmacies,6514 Georgia Ave NW,"Washington, DC 20012",
Light Rx,Pharmacies,3700 Richmond Hwy,"Alexandria, VA 22306",
Giant Pharmacy,Pharmacies,6426 Springfield Plz,"Springfield, VA 22150",
"Dr. Oludayo Atoloye, RPH",Pharmacies,3240 Pennsylvania Ave SE,"Washington, DC 20020",
"Dr. Hannah Eileen Makridis, MD",Pharmacies,8008 Westpark Dr,"Mc Lean, VA 22102",
"Maloy, Elizabeth",Pharmacies,7809 Wisconsin Ave,"Bethesda, MD 20814",
"Nguyen, Tram",Pharmacies,8200 Crestwood Heights Dr,"Mc Lean, VA 22102",
Chain Drug Store Net,Pharmacies,6715 Backlick Rd Ste 205,"Springfield, VA 22150",
"Johnson, Angela L",Pharmacies,620 Jefferson St NE,"Washington, DC 20011",
"Riley, Kathleen",Pharmacies,7660 Richmond Hwy,"Alexandria, VA 22306",
"Tarawalie, Kulumba",Pharmacies,8201 Oxon Hill Rd,"Fort Washington, MD 20744",
"Dr. Amber C Stokes, MD",Pharmacies,8201 Oxon Hill Rd,"Fort Washington, MD 20744",
"George, Lindsey",Pharmacies,4805 Battery Ln,"Bethesda, MD 20814",
"Tabile, Marissa A",Pharmacies,3732 Minnesota Ave NE,"Washington, DC 20019",
"Addo, Emmanuel O",Pharmacies,3861 Alabama Ave SE,"Washington, DC 20020",
"Dr. Andrew D Wherley, MD",Pharmacies,7059 Blair Rd NW Ste 101,"Washington, DC 20012",
Saint Pharmacy,Pharmacies,5608 Saint Barnabas Rd,"Oxon Hill, MD 20745",
Apex Pharmacy,Pharmacies,4047 Minnesota Ave NE,"Washington, DC 20019",
CVS Pharmacy,Pharmacies,845 Bladensburg Rd NE,"Washington, DC 20002",
H  Street Care Pharmacy and Wellness,Pharmacies,812 H St NE,"Washington, DC 20002",
CVS Pharmacy,Pharmacies,3327 Connecticut Ave NW,"Washington, DC 20008",
CVS Pharmacy,Pharmacies,2601 Connecticut Ave NW,"Washington, DC 20008",
Community Pharmacy,Pharmacies,1325 14th St NW,"Washington, DC 20005",
CVS Pharmacy,Pharmacies,500 C St SW,"Washington, DC 20024",
CVS Pharmacy,Pharmacies,1117 10th St NW,"Washington, DC 20001",
Walgreens,Pharmacies,3524 Connecticut Ave NW,"Washington, DC 20008",
CVS Pharmacy,Pharmacies,2129 14th St NW,"Washington, DC 20009",
CVS Pharmacy,Pharmacies,400 Massachusetts Ave NW,"Washington, DC 20001",
CVS Pharmacy,Pharmacies,1000 U St NW,"Washington, DC 20001",
CVS Pharmacy,Pharmacies,1200 1st St NE,"Washington, DC 20002",
CVS Pharmacy,Pharmacies,661 Pennsylvania Ave SE,"Washington, DC 20003",
CVS Pharmacy,Pharmacies,3642 Georgia Ave NW,"Washington, DC 20010",
CVS Pharmacy,Pharmacies,5335 Wisconsin Ave NW,"Washington, DC 20015",
CVS Pharmacy,Pharmacies,Route 1,"Alexandria, VA 22309",
Walmart - Pharmacy,Pharmacies,5885 Kingstowne Blvd,"Alexandria, VA 22315",
CVS Pharmacy,Pharmacies,110 Carroll St NW,"Washington, DC 20012",
Foer's Pharmacy,Pharmacies,5215 Loughboro Rd NW,"Washington, DC 20016",
Walmart - Pharmacy,Pharmacies,6303 Richmond Hwy,"Alexandria, VA 22306",
Brookville Pharmacy,Pharmacies,5454 Wisconsin Ave,"Chevy Chase, MD 20815",
Brookville Pharmacy,Pharmacies,7025 Brookville Rd,"Chevy Chase, MD 20815",
Target - Pharmacy,Pharmacies,6600 Springfield Mall,"Springfield, VA 22150",
Grubb's Pharmacy,Pharmacies,1517 17th St NW,"Washington, DC 20036",
Express Scripts,Pharmacies,300 New Jersey Ave NW Ste 600,"Washington, DC 20001",
Target - Pharmacy,Pharmacies,3100 14th St NW Ste 201,"Washington, DC 20010",
Columbia Heights Pharmacy,Pharmacies,3316 14th St NW,"Washington, DC 20010",
Grubbs Pharmacy,Pharmacies,326 E Capitol St NE,"Washington, DC 20003",
"Rita Rochelle, Enterprises",Pharmacies,548 7th St SE,"Washington, DC 20003",
Morton's Pharmacy,Pharmacies,724 E Capitol St NE,"Washington, DC 20003",
McLean Pharmacy,Pharmacies,1392 Chain Bridge Rd,"Mc Lean, VA 22101",
Medicine Chest,Pharmacies,6823 Old Dominion Dr,"Mc Lean, VA 22101",
Fort Washington Rx Shop,Pharmacies,11701 Livingston Rd SE,"Washington, DC 20032",
Medics Pharmacy,Pharmacies,6845 Elm St,"Mc Lean, VA 22101",
Grubbs Pharmacy Se,Pharmacies,1800 Martin Luther King Jr Ave SE,"Washington, DC 20020",
River Rx,Pharmacies,5257 River Rd,"Bethesda, MD 20816",
Chevy Chase Pharmacy,Pharmacies,3812 Northampton St NW,"Washington, DC 20015",
Glen Echo Pharmacy,Pharmacies,7311 Macarthur Blvd,"Bethesda, MD 20816",
Morningstar Specialty Pharmacy,Pharmacies,833 Kennedy St NW,"Washington, DC 20011",
Dynquest Pharmacy,Pharmacies,8326 Professional Hill Dr,"Fairfax, VA 22031",
Nations Pharmacy,Pharmacies,3818 12th St NE,"Washington, DC 20017",
Daaroo Pharmacy,Pharmacies,8401 Connecticut Ave,"Chevy Chase, MD 20815",
Cathedral Pharmacy,Pharmacies,3000 Connecticut Ave NW Ste 2,"Washington, DC 20008",
Harris Teeter,Pharmacies,1631 Kalorama Rd NW,"Washington, DC 20009",
Alpha Peoples Drugs,Pharmacies,1638 R St NW Ste Ll1,"Washington, DC 20009",
Good Care Pharmacy,Pharmacies,2910 Martin Luther King Jr Ave SE,"Washington, DC 20032",
Bioscrip Pharmacy Inc,Pharmacies,1325 14th St NW,"Washington, DC 20005",
L'arche Inc,Pharmacies,1840 Columbia Rd NW,"Washington, DC 20009",
The Pharmarcy Bar,Pharmacies,2337 18th St NW,"Washington, DC 20009",
Pharmacies,Pharmacies,1631 Kalorama Rd NW,"Washington, DC 20009",
Care Pharmacies,Pharmacies,100 Daingerfield Rd,"Alexandria, VA 22314",
Alexandria Medical Arts Pharmacy,Pharmacies,500 Montgomery St Ste 120,"Alexandria, VA 22314",
International Academy Of Compounding Pharmacists,Pharmacies,"1321 Duke St,#200","Alexandria, VA 22314",
Chaindrugstore,Pharmacies,421 King St Ste 301,"Alexandria, VA 22314",
State Pharmacy,Pharmacies,2041 Martin Luther King Jr Ave SE Ste 100,"Washington, DC 20020",
Central Pharmacy,Pharmacies,2202 Martin Luther King Jr Ave SE,"Washington, DC 20020",
Physicians Office Bldg Pharm,Pharmacies,106 Irving St NW Ste 1200,"Washington, DC 20010",
Super Pharmacy and Equipment,Pharmacies,1019 H St NE,"Washington, DC 20002",
A & R Foods,Pharmacies,5701 Backlick Rd,"Springfield, VA 22151",
Goodcare Pharmacy,Pharmacies,1328 Southern Ave SE,"Washington, DC 20032",
Sterling Pharmacy,Pharmacies,1647 Benning Rd NE Ste 101,"Washington, DC 20002",
Giant Discount Drug,Pharmacies,8301 Professional Hill Dr,"Fairfax, VA 22031",
Metro Care Pharmacy,Pharmacies,6323 Georgia Ave NW Ste 100,"Washington, DC 20011",
Acaria Health Pharmacy,Pharmacies,8505 Arlington Blvd,"Fairfax, VA 22031",
Walgreens,Pharmacies,10320 Main St,"Fairfax, VA 22030",
Vienna Rexall Drug Center,Pharmacies,150 Maple Avenue West,"Vienna, VA 22180",
CVS Pharmacy,Pharmacies,10141 Colesville Rd,"Silver Spring, MD 20901",
Walgreens,Pharmacies,225 Maple Ave E,"Vienna, VA 22180",
CVS Pharmacy,Pharmacies,337 Maple Ave E,"Vienna, VA 22180",
Walmart - Pharmacy,Pharmacies,6210 Annapolis Rd,"Hyattsville, MD 20784",
Target - Pharmacy,Pharmacies,3500 E West Hwy Ste 1200,"Hyattsville, MD 20782",
CVS Pharmacy,Pharmacies,2912 Chain Bridge Rd,"Oakton, VA 22124",
Walmart - Pharmacy,Pharmacies,1500b Cornerside Blvd,"Vienna, VA 22182",
Remedium Pharmacy,Pharmacies,3957 Pender Dr Ste 104,"Fairfax, VA 22030",
CVS Pharmacy,Pharmacies,3714 Branch Ave,"Temple Hills, MD 20748",
CVS Pharmacy,Pharmacies,3053 Nutley St,"Fairfax, VA 22031",
Walgreens,Pharmacies,3050 Nutley St,"Fairfax, VA 22031",
CVS Pharmacy,Pharmacies,1290 E West Hwy,"Silver Spring, MD 20910",
CVS Pharmacy,Pharmacies,3130 Queens Chapel Rd,"Hyattsville, MD 20782",
Rite Aid,Pharmacies,215 Maple Ave W,"Vienna, VA 22180",
CVS Pharmacy,Pharmacies,6400 Landsdowne Ctr,"Alexandria, VA 22315",
CVS Pharmacy,Pharmacies,825 Wayne Ave,"Silver Spring, MD 20910",
CVS Pharmacy,Pharmacies,8928 Burke Rd,"Burke, VA 22015",
CVS Pharmacy,Pharmacies,9520 Georgia Ave,"Silver Spring, MD 20910",
Rite Aid,Pharmacies,9579 Braddock Rd,"Fairfax, VA 22032",
CVS Pharmacy,Pharmacies,3605 E West Hwy,"Hyattsville, MD 20782",
CVS Pharmacy,Pharmacies,10090 Fairfax Blvd,"Fairfax, VA 22030",
Rite Aid,Pharmacies,6130 Baltimore Ave,"Riverdale, MD 20737",
CVS Pharmacy,Pharmacies,5922 Martin Luther King Jr Hwy,"Capitol Heights, MD 20743",
CVS Pharmacy,Pharmacies,7050 Allentown Rd,"Temple Hills, MD 20748",
CVS Pharmacy,Pharmacies,10390 Willard Way,"Fairfax, VA 22030",
Rite Aid,Pharmacies,10134 River Rd,"Potomac, MD 20854",
Walgreens,Pharmacies,10101 River Rd,"Potomac, MD 20854",
CVS Pharmacy,Pharmacies,5707 Riverdale Rd,"Riverdale, MD 20737",
CVS Pharmacy,Pharmacies,11003 Lee Hwy,"Fairfax, VA 22030",
Safeway Pharmacy,Pharmacies,7900 Fort Hunt Rd,"Alexandria, VA 22308",
Safeway Pharmacy,Pharmacies,3043 Nutley St,"Fairfax, VA 22031",
Walgreens,Pharmacies,7968 Fort Hunt Rd,"Alexandria, VA 22308",
Rite Aid,Pharmacies,1411 E West Hwy,"Silver Spring, MD 20910",
"Community, A Walgreens Pharmacy",Pharmacies,1015 Ripley St Ste B,"Silver Spring, MD 20910",
Rite Aid,Pharmacies,8244 Richmond Hwy,"Alexandria, VA 22309",
Safeway Pharmacy,Pharmacies,909 Thayer Ave,"Silver Spring, MD 20910",
Wegmans Pharmacy,Pharmacies,7905 Hilltop Village Center Dr,"Alexandria, VA 22315",
Walgreens,Pharmacies,8701 Georgia Ave Ste 100,"Silver Spring, MD 20910",
Adventist HealthCare Washington Adventist Hospital,Pharmacies,7600 Carroll Ave,"Takoma Park, MD 20912",
Safeway Pharmacy,Pharmacies,3702 E West Hwy,"Hyattsville, MD 20782",
Safeway Pharmacy,Pharmacies,8646 Richmond Hwy,"Alexandria, VA 22309",
CVS Pharmacy,Pharmacies,3500 E West Hwy Ste 1200,"Hyattsville, MD 20782",
Walgreens,Pharmacies,9579 Braddock Rd,"Fairfax, VA 22032",
Safeway Pharmacy,Pharmacies,9525 Braddock Rd,"Fairfax, VA 22032",
Rite Aid,Pharmacies,5741 Silver Hill Rd,"District Heights, MD 20747",
Walgreens,Pharmacies,5741 Silver Hill Rd,"District Heights, MD 20747",
Safeway Pharmacy,Pharmacies,116 University Blvd W,"Silver Spring, MD 20901",
Safeway Pharmacy,Pharmacies,10350 Willard Way,"Fairfax, VA 22030",
Rite Aid,Pharmacies,10521 Fairfax Blvd,"Fairfax, VA 22030",
Walmart - Pharmacy,Pharmacies,11181 Lee Hwy,"Fairfax, VA 22030",
Chrysanthus Alechi,Pharmacies,5621 Sargent Rd,"Hyattsville, MD 20782",
Corner Market & Pharmacy Inc,Pharmacies,8309 Grubb Rd,"Silver Spring, MD 20910",
"Paulk, Devin R",Pharmacies,3714 Branch Ave,"Temple Hills, MD 20748",
"Dr. Andrew Chayasriwong, MD",Pharmacies,3714 Branch Ave,"Temple Hills, MD 20748",
Remcare Pharmacy,Pharmacies,7814 Eastern Ave NW,"Washington, DC 20012",
Medicine Shoppe,Pharmacies,7814 Eastern Ave NW,"Washington, DC 20012",
American Society of Health System Pharmacists,Pharmacies,4500 E West Hwy Ste 900,"Bethesda, MD 20814",
Fort Lincoln Pharmacy,Pharmacies,3180 Bladensburg Rd NE,"Washington, DC 20018",
"Pham, Hongvan Thi",Pharmacies,8901 Walter Reed Military Ctr,"Bethesda, MD 20889",
"Le, Giang T",Pharmacies,7987 Georgia Ave,"Silver Spring, MD 20910",
"Alli, Oladapo",Pharmacies,9203 Oxon Hill Rd,"Fort Washington, MD 20744",
Healthpointe Pharmacy,Pharmacies,9203 Oxon Hill Rd,"Fort Washington, MD 20744",
"Poon, Lucas",Pharmacies,4494 N Palmer Rd,"Bethesda, MD 20889",
Giant Pharmacy,Pharmacies,1280 E West Hwy,"Silver Spring, MD 20910",
Rx Tooling Corporation,Pharmacies,407 Church St NE,"Vienna, VA 22180",
"Fonkeng, Mandop M",Pharmacies,1290 E West Hwy,"Silver Spring, MD 20910",
"Burns, Ashley",Pharmacies,10903 New Hampshire Ave,"Silver Spring, MD 20993",
"Muoio, Brendan",Pharmacies,10903 New Hampshire Ave,"Silver Spring, MD 20993",
"Leong, Ruby",Pharmacies,10903 New Hampshire Ave,"Silver Spring, MD 20993",
Qol Meds,Pharmacies,8119 Holland Rd,"Alexandria, VA 22306",
"Tran, Mai",Pharmacies,8119 Holland Rd,"Alexandria, VA 22306",
Rachel Elizabeth Valerio,Pharmacies,7968 Fort Hunt Rd,"Alexandria, VA 22308",
"Holmes, Yolanda F",Pharmacies,3130 Queens Chapel Rd,"Hyattsville, MD 20782",
"Jalloh, Amira",Pharmacies,1411 E West Hwy,"Silver Spring, MD 20910",
"Mamo, Efrem",Pharmacies,6881 New Hampshire Ave,"Takoma Park, MD 20912",
"Melaku, Senait A",Pharmacies,6881 New Hampshire Ave,"Takoma Park, MD 20912",
"Lee, Tommy",Pharmacies,1015 Ripley St,"Silver Spring, MD 20910",
"Liem Nguyen, RPH",Pharmacies,8244 Richmond Hwy,"Alexandria, VA 22309",
Vienna Drug Center Inc,Pharmacies,150 Maple Ave E,"Vienna, VA 22180",
Foers,Pharmacies,1010 Wayne Ave,"Silver Spring, MD 20910",
"Riesenberg, Helene",Pharmacies,8812 Cromwell Dr,"Springfield, VA 22151",
Maple Avenue Market,Pharmacies,128 Maple Ave E,"Vienna, VA 22180",
"Smith, Paula",Pharmacies,909 Thayer Ave,"Silver Spring, MD 20910",
"Brown, Alyanna A",Pharmacies,3611 Bladensburg Rd,"Brentwood, MD 20722",
"Mir, Omid",Pharmacies,3611 Bladensburg Rd,"Brentwood, MD 20722",
"Kircher, Jeff",Pharmacies,150 Maple Ave W,"Vienna, VA 22180",
Alexandria Care Pharmacy,Pharmacies,8330 Richmond Hwy,"Alexandria, VA 22309",
Rite Aid,Pharmacies,8701 Georgia Ave,"Silver Spring, MD 20910",
Hanna Fenta,Pharmacies,8701 Georgia Ave Ste 401,"Silver Spring, MD 20910",
"Melaku, Yohannes M",Pharmacies,825 Wayne Ave,"Silver Spring, MD 20910",
Giant Pharmacy,Pharmacies,8320 Old Keene Mill Rd,"Springfield, VA 22152",
"Ingram Darasaw, Paula",Pharmacies,4840 Marlboro Pike,"Capitol Heights, MD 20743",
"Dr. Delina Meskel, MD",Pharmacies,4840 Marlboro Pike,"Capitol Heights, MD 20743",
Target - Pharmacy,Pharmacies,1500 E West Hwy,"Hyattsville, MD 20783",
Service Care Pharmacy,Pharmacies,1111 Spring St Ste 110,"Silver Spring, MD 20910",
"Sarpong, Abigail",Pharmacies,8414 Old Keene Mill Rd Unit A,"Springfield, VA 22152",
"Dr. Ryan Junho Choi, MD",Pharmacies,8414 Old Keene Mill Rd Unit A,"Springfield, VA 22152",
Saffell & Associates,Pharmacies,9500 Old Spring Rd,"Kensington, MD 20895",
Amerimmune,Pharmacies,6212 Old Keene Mill Ct,"Springfield, VA 22152",
Giant Pharmacy,Pharmacies,3521 E West Hwy,"Hyattsville, MD 20782",
"Hein, Krista",Pharmacies,3702 E West Hwy,"Hyattsville, MD 20782",
Allyson Corinne Armstead,Pharmacies,3605 E West Hwy,"Hyattsville, MD 20782",
"Hoang, Kristen",Pharmacies,8928 Burke Rd,"Burke, VA 22015",
Rite Aid,Pharmacies,4705 Silver Hill Rd,"Suitland, MD 20746",
Cleveland Enterprises Two,Pharmacies,5831 Allentown Rd,"Suitland, MD 20746",
"Ekeanyanwu, Bethel",Pharmacies,3321 Toledo Ter,"Hyattsville, MD 20782",
Martinsville Family Pharm,Pharmacies,8792 Sacramento Dr,"Alexandria, VA 22309",
Heritage Pharmacy Corp,Pharmacies,5820 Dix St NE,"Washington, DC 20019",
"Pak, Gina",Pharmacies,7373 Boston Blvd,"Springfield, VA 22153",
"Dr. Sara Tadios Munie, MD",Pharmacies,1500 Forest Glen Rd,"Silver Spring, MD 20910",
Alexandria Compounding Pharmacy,Pharmacies,9868 Main St,"Fairfax, VA 22031",
"Nkeng, Sarah",Pharmacies,5100 Auth Way,"Suitland, MD 20746",
Giant Pharmacy,Pharmacies,5500 Silver Hill Rd,"District Heights, MD 20747",
K & C Pharmacy Depot,Pharmacies,5686 Silver Hill Rd,"District Heights, MD 20747",
Chesapeake Bay Pharmacy,Pharmacies,5686 Silver Hill Rd,"District Heights, MD 20747",
Maxime Pharmacy,Pharmacies,636 University Blvd E,"Silver Spring, MD 20901",
"Darling, Carla",Pharmacies,6525 Belcrest Rd,"Hyattsville, MD 20782",
"Awofeso, Temitope",Pharmacies,6525 Belcrest Rd,"Hyattsville, MD 20782",
Padek Healthcare Pharmacy,Pharmacies,5814 Baltimore Ave,"Hyattsville, MD 20781",
"Braithwaite, Aria",Pharmacies,5741 Silver Hill Rd,"District Heights, MD 20747",
"Lee, Seulbi",Pharmacies,6130 Baltimore Ave,"Riverdale, MD 20737",
"Acheampong, Akosua",Pharmacies,5870 Silver Hill Rd,"District Heights, MD 20747",
"Barry, Erica S",Pharmacies,5870 Silver Hill Rd,"District Heights, MD 20747",
"Stephen Jr, Antonio",Pharmacies,7050 Allentown Rd,"Temple Hills, MD 20748",
"Dr. Ayesha Nasir, MD",Pharmacies,7050 Allentown Rd,"Temple Hills, MD 20748",
Giant Pharmacy,Pharmacies,2932 Chain Bridge Rd,"Oakton, VA 22124",
"Dr. Yves Gerald Gomes, MD",Pharmacies,116 University Blvd W,"Silver Spring, MD 20901",
"Dr. Omotayo Lasean Olowolayemo, MD",Pharmacies,5403a Annapolis Rd,"Bladensburg, MD 20710",
"Nguyen, Oanh",Pharmacies,10141 Colesville Rd,"Silver Spring, MD 20901",
"Dr. DONGHA LE, Pharm D",Pharmacies,10141 Colesville Rd,"Silver Spring, MD 20901",
PCA Pharmacy,Pharmacies,3565 Chain Bridge Rd,"Fairfax, VA 22030",
"Agunbiade, Olufunmilay",Pharmacies,6104 Old Branch Ave,"Temple Hills, MD 20748",
"Robinson, Lisa",Pharmacies,6104 Old Branch Ave,"Temple Hills, MD 20748",
"Carter, Deonte D",Pharmacies,6104 Old Branch Ave,"Temple Hills, MD 20748",
"Wilson, Shakia",Pharmacies,6104 Old Branch Ave,"Temple Hills, MD 20748",
Dr. REBECCA AKUJOR,Pharmacies,10101 River Rd,"Potomac, MD 20854",
"Maio, Alexandra M",Pharmacies,10101 River Rd,"Potomac, MD 20854",
Adenike Akindolire,Pharmacies,5707 Riverdale Rd,"Riverdale, MD 20737",
"Kieu, Vinh Nguyen",Pharmacies,4400 University Dr,"Fairfax, VA 22030",
Hana Pharmacy,Pharmacies,10780 Fairfax Blvd,"Fairfax, VA 22030",
Stone Spring Pharmacy,Pharmacies,10721 Main St,"Fairfax, VA 22030",
"Abdelgowad, Mohamed M",Pharmacies,3957 Pender Dr Ste 104,"Fairfax, VA 22030",
Amerimmune,Pharmacies,11212 Waples Mill Rd,"Fairfax, VA 22030",
Tysons Pharmacy,Pharmacies,110 Pleasant St NW Ste 2c,"Vienna, VA 22180",
CVS Pharmacy,Pharmacies,3611 Bladensburg Rd,"Brentwood, MD 20722",
Walgreens,Pharmacies,8414 Old Keene Mill Rd Unit A,"Springfield, VA 22152",
Mendel Inc,Pharmacies,1264 Benning Rd,"Capitol Heights, MD 20743",
Lawson's Pharmacy,Pharmacies,3415 Hamilton St Ste 2,"Hyattsville, MD 20782",
Seat Pleasant Care Pharmacy,Pharmacies,354 Eastern Ave NE,"Washington, DC 20019",
Padek Healthcare Pharmacy,Pharmacies,5403 Annapolis Rd,"Bladensburg, MD 20710",
CVS Pharmacy,Pharmacies,5870 Silver Hill Rd,"District Heights, MD 20747",
St Barnabas Pharmacy,Pharmacies,4311 Saint Barnabas Rd,"Temple Hills, MD 20748",
Suitland Pharmacy,Pharmacies,4731 Silver Hill Rd,"Suitland, MD 20746",
Star Pharmacy,Pharmacies,7053 Allentown Rd,"Temple Hills, MD 20748",
Differx Pharmacy,Pharmacies,3887 Fairfax Ridge Rd,"Fairfax, VA 22030",
Safeway,Pharmacies,5821 Crossroads Ctr Way,"Falls Church, VA 22041",
Shoppers Food & Pharmacy,Pharmacies,5799 Leesburg Pike,"Falls Church, VA 22041",
Shoppers Food & Pharmacy,Pharmacies,6360 Seven Corners Ctr,"Falls Church, VA 22044",
Safeway,Pharmacies,1800 20th St NW,"Washington, DC 20009",
Safeway,Pharmacies,6118 Arlington Blvd,"Falls Church, VA 22044",
Safeway,Pharmacies,3526 King St,"Alexandria, VA 22302",
Safeway,Pharmacies,4865 Macarthur Blvd NW,"Washington, DC 20007",
Safeway,Pharmacies,1855 Wisconsin Ave NW,"Washington, DC 20007",
Harris Teeter,Pharmacies,6351 Columbia Pike,"Falls Church, VA 22041",
Harris Teeter,Pharmacies,4641 Duke St,"Alexandria, VA 22304",
Shoppers Food & Pharmacy,Pharmacies,6200 Little River Tpke,"Alexandria, VA 22312",
Safeway,Pharmacies,6244 Old Dominion Dr,"Mc Lean, VA 22101",
Board Of Pharmacy Specialties,Pharmacies,2215 Constitution Ave NW,"Washington, DC 20037",
Harris Teeter,Pharmacies,4619 Duke St,"Alexandria, VA 22304",
Vertex Pharmaceuticals Inc,Pharmacies,1201 Maryland Ave SW,"Washington, DC 20024",
Harris Teeter,Pharmacies,301 W Broad St,"Falls Church, VA 22046",
Shoppers Food & Pharmacy,Pharmacies,3801 Jefferson Davis Hwy,"Alexandria, VA 22305",
American Home Products Corp,Pharmacies,1667 K St NW Ste 1270,"Washington, DC 20006",
Rodman's Discount Food & Drug,Pharmacies,5100 Wisconsin Ave NW,"Washington, DC 20016",
Harris Teeter,Pharmacies,1350 Potomac Ave SE,"Washington, DC 20003",
Safeway,Pharmacies,1624 Belle View Blvd,"Alexandria, VA 22307",
Kmart,Pharmacies,4251 John Marr Dr,"Annandale, VA 22003",
Kmart,Pharmacies,6364 Springfield Plz,"Springfield, VA 22150",
Safeway,Pharmacies,299 S Van Dorn St,"Alexandria, VA 22304",
Safeway,Pharmacies,1100 4th St SW,"Washington, DC 20024",
Safeway,Pharmacies,1747 Columbia Rd NW,"Washington, DC 20009",
Safeway,Pharmacies,490 L St NW,"Washington, DC 20001",
Safeway,Pharmacies,7397 Lee Hwy,"Falls Church, VA 22042",
Safeway,Pharmacies,4701 Sangamore Rd,"Bethesda, MD 20816",
Shoppers Food & Pharmacy,Pharmacies,3801 Richmond Hwy,"Alexandria, VA 22303",
Safeway,Pharmacies,6130 Rose Hill Dr,"Alexandria, VA 22310",
Safeway,Pharmacies,7414 Little River Tpke,"Annandale, VA 22003",
Safeway,Pharmacies,1330 Chain Bridge Rd,"Mc Lean, VA 22101",
Safeway,Pharmacies,3830 Georgia Ave NW,"Washington, DC 20011",
Safeway,Pharmacies,5545 Connecticut Ave NW,"Washington, DC 20015",
Safeway,Pharmacies,1688 Anderson Rd,"Mc Lean, VA 22102",
Safeway,Pharmacies,1601 Maryland Ave NE,"Washington, DC 20002",
Safeway,Pharmacies,5980 Kingstowne Towne Ctr,"Alexandria, VA 22315",
Safeway,Pharmacies,5000 Bradley Blvd,"Chevy Chase, MD 20815",
Safeway,Pharmacies,2845 Alabama Ave SE,"Washington, DC 20020",
Shoppers Food & Pharmacy,Pharmacies,7005 Manchester Blvd,"Alexandria, VA 22310",
Safeway,Pharmacies,6235 Oxon Hill Rd,"Oxon Hill, MD 20745",
Safeway,Pharmacies,6500 Piney Branch Rd NW,"Washington, DC 20012",
Kmart,Pharmacies,6163 Oxon Hill Rd,"Oxon Hill, MD 20745",
Shoppers Food & Pharmacy,Pharmacies,7660 Richmond Hwy,"Alexandria, VA 22306",
Safeway,Pharmacies,322 40th St NE,"Washington, DC 20019",
Purdue Pharma,Pharmacies,700 13th St NW Ste 525,"Washington, DC 20005",
Astellas,Pharmacies,1001 G St NW,"Washington, DC 20001",
Bayer Corp,Pharmacies,701 Pennsylvania Ave NW Ste 720,"Washington, DC 20004",
Harris Teeter,Pharmacies,401 M St SE,"Washington, DC 20003",
Safeway,Pharmacies,4203 Davenport St NW,"Washington, DC 20016",
Harris Teeter,Pharmacies,1201 1st St NE,"Washington, DC 20002",
Genoa Health Care,Pharmacies,801 Pennsylvania Ave SE,"Washington, DC 20003",
Good Hope Care Pharmacy,Pharmacies,1343 Good Hope Rd SE,"Washington, DC 20020",
Safeway,Pharmacies,415 14th St SE,"Washington, DC 20003",
Shoppers Food & Pharmacy,Pharmacies,1505 Farm Credit Dr,"Mc Lean, VA 22102",
Harris Teeter,Pharmacies,2675 Avenir Pl,"Vienna, VA 22180",
Physicians Pharamacy Alliance,Pharmacies,580 23rd Pl NE,"Washington, DC 20002",
Sucampo Pharmeceuticals,Pharmacies,4733 Bethesda Ave,"Bethesda, MD 20814",
Best Practices,Pharmacies,7500 Old Georgetown Rd Ste 601,"Bethesda, MD 20814",
Safeway,Pharmacies,7625 Old Georgetown Rd,"Bethesda, MD 20814",
Safeway,Pharmacies,7451 Mount Vernon Square Ctr,"Alexandria, VA 22306",
Harris Teeter,Pharmacies,8200 Crestwood Heights Dr,"Mc Lean, VA 22102",
Harris Teeter,Pharmacies,4805 Battery Ln,"Bethesda, MD 20814",
Chevy Chase Care Pharmacy,Pharmacies,8531 Connecticut Ave,"Chevy Chase, MD 20815",
Shoppers Food & Pharmacy,Pharmacies,6111 Livingston Rd,"Oxon Hill, MD 20745",
Takeda Pharmaceuticals,Pharmacies,750 9th St NW Ste 575,"Washington, DC 20001",
Neuren Pharmaceuticals,Pharmacies,3 Bethesda Metro Ctr Ste 630,"Bethesda, MD 20814",
Aventis Pharmaceuticals,Pharmacies,801 Pennsylvania Ave NW Ste 725,"Washington, DC 20004",
Pathway -Apothecary,Pharmacies,5415 W Cedar Ln,"Bethesda, MD 20814",
Safeway,Pharmacies,4600 Cooper Ln,"Hyattsville, MD 20784",
Kmart,Pharmacies,6411 Riggs Rd,"Hyattsville, MD 20783",
Shoppers Food & Pharmacy,Pharmacies,6881 New Hampshire Ave,"Takoma Park, MD 20912",
CVS Pharmacy,Pharmacies,5621 Sargent Rd ,"Hyattsville, MD 20782",
Safeway,Pharmacies,7900 Fort Hunt Rd,"Alexandria, VA 22308",
Safeway,Pharmacies,3043 Nutley St,"Fairfax, VA 22031",
Safeway,Pharmacies,909 Thayer Ave,"Silver Spring, MD 20910",
Shoppers Food & Pharmacy,Pharmacies,3831 Bladensburg Rd,"Brentwood, MD 20722",
Shoppers Food & Pharmacy,Pharmacies,4801 Marlboro Pike,"Capitol Heights, MD 20743",
Safeway,Pharmacies,3702 E West Hwy,"Hyattsville, MD 20782",
Shoppers Food & Pharmacy,Pharmacies,9622 Main St,"Fairfax, VA 22031",
Safeway,Pharmacies,8646 Richmond Hwy,"Alexandria, VA 22309",
Safeway,Pharmacies,9525 Braddock Rd,"Fairfax, VA 22032",
Safeway,Pharmacies,116 University Blvd W,"Silver Spring, MD 20901",
Safeway,Pharmacies,10350 Willard Way,"Fairfax, VA 22030",
Shoppers Food & Pharmacy,Pharmacies,2441 Chillum Rd,"Hyattsville, MD 20782",
Genoa Health Care,Pharmacies,8350 Richmond Hwy,"Alexandria, VA 22309",
Safeway,Pharmacies,3511 Hamilton St,"Hyattsville, MD 20782",
Wellnessplex Inc,Pharmacies,10125 Colesville Rd # 212,"Silver Spring, MD 20901",
Media Force,Pharmacies,4031 University Dr Ste 200,"Fairfax, VA 22030",
Shoppers Food & Pharmacy,Pharmacies,5820 Silver Hill Rd,"District Heights, MD 20747",
Costco,Pharmacies,7373 Boston Blvd,"Springfield, VA 22153",
Hospital Beds-Hospital Direct Medical Inc.,Pharmacies,,,Arlington Area
Rite Aid,Pharmacies,1671 Crystal Square Arc,"Arlington, VA 22202",
Rite Aid,Pharmacies,1301 S Joyce St,"Arlington, VA 22202",
CVS Pharmacy,Pharmacies,2400 Jefferson Davis Hwy,"Arlington, VA 22202",
CVS Pharmacy,Pharmacies,1201 S Hayes St,"Arlington, VA 22202",
Safeway Pharmacy,Pharmacies,990 E Swan Creek Rd,"Fort Washington, MD 20744",
CVS Pharmacy,Pharmacies,2601 Columbia Pike,"Arlington, VA 22204",
CVS Pharmacy,Pharmacies,ROOM 2B1080 The Pentagon,"Arlington, VA 22202",
CVS Pharmacy,Pharmacies,3535 S Jefferson St,"Falls Church, VA 22041",
CVS Pharmacy,Pharmacies,5017 Columbia Pike,"Arlington, VA 22204",
CVS Pharmacy,Pharmacies,3141 Wilson Blvd,"Arlington, VA 22201",
CVS Pharmacy,Pharmacies,2121 15th St N,"Arlington, VA 22201",
CVS Pharmacy,Pharmacies,1100 Wilson Blvd,"Arlington, VA 22209",
CVS Pharmacy,Pharmacies,11906 Livingston Rd,"Fort Washington, MD 20744",
CVS Pharmacy,Pharmacies,1555 Wilson Blvd,"Arlington, VA 22209",
CVS Pharmacy,Pharmacies,4709 Lee Hwy,"Arlington, VA 22207",
CVS Pharmacy,Pharmacies,5402 Lee Hwy,"Arlington, VA 22207",
CVS Pharmacy,Pharmacies,5115 Leesburg Pike,"Falls Church, VA 22041",
CVS Pharmacy,Pharmacies,4238 Wilson Blvd,"Arlington, VA 22203",
CVS Pharmacy,Pharmacies,1500 Wilson Blvd,"Arlington, VA 22209",
Rite Aid,Pharmacies,1700 N Moore St Ste M1a,"Arlington, VA 22209",
CVS Pharmacy,Pharmacies,Lyons Village Shopping Center 3133 Lee Highway Lyons Village Shopping Center,"Arlington, VA 22201",
Safeway Pharmacy,Pharmacies,3713 Lee Hwy,"Arlington, VA 22207",
Rite Aid,Pharmacies,5841 Washington Blvd,"Arlington, VA 22205",
Safeway Pharmacy,Pharmacies,2500 N Harrison St,"Arlington, VA 22207",
Medicine Shoppe,Pharmacies,11101 Indian Head Hwy,"Fort Washington, MD 20744",
"Yurko, Lauren K",Pharmacies,11906 Livingston Rd,"Fort Washington, MD 20744",
"Richardson, Andreya E",Pharmacies,11906 Livingston Rd,"Fort Washington, MD 20744",
Safeway Pharmacy,Pharmacies,1525 Wilson Blvd,"Arlington, VA 22209",
Fort Washington Pharmacy,Pharmacies,12764 Old Fort Rd,"Fort Washington, MD 20744",
Mendel Pharmacy,Pharmacies,9131 Piscataway Rd,"Clinton, MD 20735",
"Ogbonna, Casmir I",Pharmacies,9300 Dewitt Loop,"Fort Belvoir, VA 22060",
"Gunter, Janet A",Pharmacies,9300 Dewitt Loop,"Fort Belvoir, VA 22060",
"McKenzie, Chad Eric",Pharmacies,9300 Dewitt Loop,"Fort Belvoir, VA 22060",
"Romrell, Evan",Pharmacies,9300 Dewitt Loop,"Fort Belvoir, VA 22060",
"Oh, Emily E",Pharmacies,9300 Dewitt Loop,"Fort Belvoir, VA 22060",
"Tefferi, Josephine D",Pharmacies,9300 Dewitt Loop,"Fort Belvoir, VA 22060",
"Doan, Minh-Huong",Pharmacies,9300 Dewitt Loop,"Fort Belvoir, VA 22060",
Walgreens,Pharmacies,3130 Lee Hwy,"Arlington, VA 22201",
Walgreens,Pharmacies,2825 Wilson Blvd,"Arlington, VA 22201",
Shalom Pharmacy,Pharmacies,9131 Piscataway Rd Ste 260,"Clinton, MD 20735",
Walgreens,Pharmacies,9372 Richmond Hwy,"Lorton, VA 22079",
CVS Pharmacy,Pharmacies,6516 Landover Rd,"Cheverly, MD 20785",
Walgreens,Pharmacies,9001 Woody Ter,"Clinton, MD 20735",
Safeway Pharmacy,Pharmacies,8785 Branch Ave,"Clinton, MD 20735",
CVS Pharmacy,Pharmacies,6404 Williamsburg Blvd,"Arlington, VA 22207",
Walmart - Pharmacy,Pharmacies,8745 Branch Ave,"Clinton, MD 20735",
CVS Pharmacy,Pharmacies,8859 Branch Ave,"Clinton, MD 20735",
CVS Pharmacy,Pharmacies,6200 Central Ave,"Capitol Heights, MD 20743",
CVS Pharmacy,Pharmacies,7041 Martin Luther King Jr Hwy,"Hyattsville, MD 20785",
Walgreens,Pharmacies,6498 Landover Rd,"Cheverly, MD 20785",
CVS Pharmacy,Pharmacies,CARDINAL Forest Plaza,"Springfield, VA 22152",
Rite Aid,Pharmacies,8934 Woodyard Rd,"Clinton, MD 20735",
CVS Pharmacy,Pharmacies,3101 Donnell Dr,"District Heights, MD 20747",
Rite Aid,Pharmacies,7764 Gunston Plz,"Lorton, VA 22079",
"Quality Of Life Pharmacy & Health, Inc",Pharmacies,"8900 Edgeworth Dr, Unit G","Capitol Heights, MD 20743",
"Abazyan, Irina",Pharmacies,6104 Old Silver Hill Rd,"District Heights, MD 20747",
Pulse Pharmacy,Pharmacies,8981 Woodyard Rd,"Clinton, MD 20735",
"Buremoh Jr, James",Pharmacies,8859 Branch Ave,"Clinton, MD 20735",
"Ma, Katherine",Pharmacies,9001 Woody Ter,"Clinton, MD 20735",
"Dr. Akinola E Adeyemo, MD",Pharmacies,9001 Woody Ter,"Clinton, MD 20735",
"Suebang Dorothy Kenmatio, PHARMD",Pharmacies,7012 Marlboro Pike,"District Heights, MD 20747",
"Patel, Umakant H",Pharmacies,2950 Donnell Dr,"District Heights, MD 20747",
New Era Pharmacy,Pharmacies,1436 Addison Rd S,"Capitol Heights, MD 20743",
Giant Pharmacy,Pharmacies,7025 Berry Rd,"Accokeek, MD 20607",
Medplus DC,Pharmacies,7217 Lockport Pl,"Lorton, VA 22079",
Pharmaco Inc,Pharmacies,10403 Hospital Dr Suite 104,"Clinton, MD 20735",
K C Pharmacy,Pharmacies,8988 Lorton Station Blvd Ste 102,"Lorton, VA 22079",
Kim Hoang,Pharmacies,9372 Richmond Hwy,"Lorton, VA 22079",
Quarters Tenant Basic Overnight,Pharmacies,9042 Lorton Station Blvd,"Lorton, VA 22079",
"Ambaye, Mekonen",Pharmacies,7041 Martin Luther King Jr Hwy,"Hyattsville, MD 20785",
"Dr. SIMONA DEREJE, RPH",Pharmacies,6498 Landover Rd,"Cheverly, MD 20785",
Medsurg Pharmacy,Pharmacies,3037 Marshall Hall Rd,"Bryans Road, MD 20616",
"Johnson, Ashley A",Pharmacies,3075 Marshall Hall Rd,"Bryans Road, MD 20616",
Kpm Specialty Pharmacy,Pharmacies,8700 Central Ave Ste 205,"Hyattsville, MD 20785",
Cheverly Pharmacy,Pharmacies,7781 Landover Rd,"Hyattsville, MD 20785",
Walgreens,Pharmacies,7008 Marlboro Pike,"District Heights, MD 20747",
CVS Pharmacy,Pharmacies,7012 Marlboro Pike,"District Heights, MD 20747",
Parkland Pharmacy,Pharmacies,6104 Old Silver Hill Rd,"District Heights, MD 20747",
Cheverly Pharmacy,Pharmacies,6427 Landover Rd,"Cheverly, MD 20785",
Target - Pharmacy,Pharmacies,3101 Donnell Dr,"District Heights, MD 20747",
Advanced Pharmacy,Pharmacies,9211 Stuart Ln,"Clinton, MD 20735",
CVS Pharmacy,Pharmacies,3061 Technology Pl,"Waldorf, MD 20601",
CVS Pharmacy,Pharmacies,10692 Campus Way S,"Upper Marlboro, MD 20774",
CVS Pharmacy,Pharmacies,15922 Crain Hwy,"Brandywine, MD 20613",
Safeway Pharmacy,Pharmacies,15916 Crain Hwy,"Brandywine, MD 20613",
Wegmans Pharmacy,Pharmacies,9001 Mchugh Dr,"Lanham, MD 20706",
CVS Pharmacy,Pharmacies,10500 Campus Way S,"Upper Marlboro, MD 20774",
"McCollum, Brittany",Pharmacies,15916 Crain Hwy,"Brandywine, MD 20613",
"Walk, Alexander R",Pharmacies,15922 Crain Hwy,"Brandywine, MD 20613",
Maheder Yismu Dachew,Pharmacies,15922 Crain Hwy,"Brandywine, MD 20613",
Physicia Rx,Pharmacies,9701 Apollo Dr Ste 400,"Upper Marlboro, MD 20774",
Physicians Rx Pharmacy,Pharmacies,9701 Apollo Dr,"Upper Marlboro, MD 20774",
Mynga Hua,Pharmacies,9810 Apollo Dr,"Upper Marlboro, MD 20774",
"Wilson, Cherise",Pharmacies,1221 Mercantile Ln,"Upper Marlboro, MD 20774",
"Elekwachi, Oluchi",Pharmacies,1221 Mercantile Ln,"Upper Marlboro, MD 20774",
"Ihezie, Onyekachukw",Pharmacies,1221 Mercantile Ln,"Upper Marlboro, MD 20774",
"Charles, Crystal",Pharmacies,1221 Mercantile Ln,"Upper Marlboro, MD 20774",
"Maddox, Shadana",Pharmacies,1221 Mercantile Ln,"Upper Marlboro, MD 20774",
"Walsh, Catherine",Pharmacies,10500 Campus Way S,"Upper Marlboro, MD 20774",
"Forman, Macy A",Pharmacies,3061 Technology Pl,"Waldorf, MD 20601",
"Dr. Damilola Rebecca Adebayo, MD",Pharmacies,3061 Technology Pl,"Waldorf, MD 20601",
Dr. Hany Meskelu,Pharmacies,10692 Campus Way S,"Upper Marlboro, MD 20774",
"Elame, Yanick E",Pharmacies,10692 Campus Way S,"Upper Marlboro, MD 20774",
"Adjei-Baffour, Priscilla",Pharmacies,10692 Campus Way S,"Upper Marlboro, MD 20774",
"Greene, Patty",Pharmacies,1221 Mercantile Ln,"Upper Marlboro, MD 20774",
Supreme Pharmacy,Pharmacies,7936 Johnson Ave,"Glenarden, MD 20706",
Harris Teeter,Pharmacies,3600 S Glebe Rd Ste 100,"Arlington, VA 22202",
Harris Teeter,Pharmacies,2750 S Stafford St,"Arlington, VA 22206",
Harris Teeter,Pharmacies,900 Army Navy Dr,"Arlington, VA 22202",
Safeway,Pharmacies,990 E Swan Creek Rd,"Fort Washington, MD 20744",
Safeway,Pharmacies,1525 Wilson Blvd,"Arlington, VA 22209",
Safeway,Pharmacies,3713 Lee Hwy,"Arlington, VA 22207",
Safeway,Pharmacies,2500 N Harrison St,"Arlington, VA 22207",
Shoppers Food & Pharmacy,Pharmacies,6300 Coventry Way,"Clinton, MD 20735",
Harris Teeter,Pharmacies,2425 N Harrison St,"Arlington, VA 22207",
Harris Teeter,Pharmacies,600 N Glebe Rd,"Arlington, VA 22203",
Accokeek Cleaners,Pharmacies,15789 Livingston Rd,"Accokeek, MD 20607",
Safeway,Pharmacies,8785 Branch Ave,"Clinton, MD 20735",
Weis Markets,Pharmacies,15789 Livingston Rd,"Accokeek, MD 20607",
Shoppers Food & Pharmacy,Pharmacies,2950 Donnell Dr,"District Heights, MD 20747",
Food Lion,Pharmacies,7760 Gunston Plz,"Lorton, VA 22079",
Food Lion,Pharmacies,2960 Marshall Hall Rd,"Bryans Road, MD 20616",
Safeway,Pharmacies,3129 Marshall Hall Rd,"Bryans Road, MD 20616",
Super Fresh,Pharmacies,2950 Donnell Dr,"District Heights, MD 20747",
Safeway,Pharmacies,6300 Central Ave,"Capitol Heights, MD 20743",
Shoppers Food & Pharmacy,Pharmacies,9409 Lorton Market St,"Lorton, VA 22079",
Kmart,Pharmacies,8827 Woodyard Rd,"Clinton, MD 20735",
Shoppers Food & Pharmacy,Pharmacies,806 Largo Center Dr,"Upper Marlboro, MD 20774",
Safeway,Pharmacies,15916 Crain Hwy,"Brandywine, MD 20613",
Wegmans,Pharmacies,9001 Mchugh Dr,"Lanham, MD 20706",
Hospital Beds-Hospital Direct Medical Inc.,Pharmacies,,,Alexandria Area
