,gsId,name,type,gradeRange,enrollment,parentRating,city,state,address,phone,fax,website,ncesId,lat,lon,overviewLink,ratingsLink,reviewsLink,schoolStatsLink,gsRating,districtId,district,districtNCESId,Zip Code
0,394,Academia de la Recta Porta,private,PK-12,72.0,4.0,Washington,DC,"7614 Georgia Ave NW, 
Washington, DC  20012",(202) 726-8737,,,A0300737,38.982582,-77.02679,https://www.greatschools.org/washington-dc/washington/394-Academia-De-La-Recta-Porta/?utm_source=GSAPI&utm_medium=referral,https://www.greatschools.org/washington-dc/washington/394-Academia-De-La-Recta-Porta/?utm_source=GSAPI&utm_medium=referral,https://www.greatschools.org/washington-dc/washington/394-Academia-De-La-Recta-Porta/?utm_source=GSAPI&utm_medium=referral#Reviews,https://www.greatschools.org/washington-dc/washington/394-Academia-De-La-Recta-Porta/?utm_source=GSAPI&utm_medium=referral,,,,,20012
1,862,Academy for Ideal Education - Gallatin Street,private,PK-5,,,Washington,DC,"1501 Gallatin Street, 
Washington, DC  20001",(202) 726-0313,(202) 726-9265,http://www.idealacademy.org/our-philosophy/,,38.952175,-77.03474,https://www.greatschools.org/washington-dc/washington/862-Academy-For-Ideal-Education---Gallatin-Street/?utm_source=GSAPI&utm_medium=referral,https://www.greatschools.org/washington-dc/washington/862-Academy-For-Ideal-Education---Gallatin-Street/?utm_source=GSAPI&utm_medium=referral,https://www.greatschools.org/washington-dc/washington/862-Academy-For-Ideal-Education---Gallatin-Street/?utm_source=GSAPI&utm_medium=referral#Reviews,https://www.greatschools.org/washington-dc/washington/862-Academy-For-Ideal-Education---Gallatin-Street/?utm_source=GSAPI&utm_medium=referral,,,,,20001
2,246,Academy for Ideal Education - T Street,private,1-12,65.0,4.0,Washington,DC,"62 T st N.E washington, 
Washington, DC  20002",(202) 269-3186,(202) 269-3426,http://www.idealacademy.org/,A9901125,38.91555,-77.00846,https://www.greatschools.org/washington-dc/washington/246-Academy-For-Ideal-Education---T-Street/?utm_source=GSAPI&utm_medium=referral,https://www.greatschools.org/washington-dc/washington/246-Academy-For-Ideal-Education---T-Street/?utm_source=GSAPI&utm_medium=referral,https://www.greatschools.org/washington-dc/washington/246-Academy-For-Ideal-Education---T-Street/?utm_source=GSAPI&utm_medium=referral#Reviews,https://www.greatschools.org/washington-dc/washington/246-Academy-For-Ideal-Education---T-Street/?utm_source=GSAPI&utm_medium=referral,,,,,20002
3,587,Achievement Preparatory Academy PCS,charter,4-8,383.0,4.0,Washington,DC,"908 Wahler Place Southeast, 
Washington, DC  20032",(202) 562-1214,(202) 562-1219,http://www.aprepacademy.org,110007200405,38.83435,-76.99234,https://www.greatschools.org/washington-dc/washington/587-Achievement-Preparatory-Academy-PCS/?utm_source=GSAPI&utm_medium=referral,https://www.greatschools.org/washington-dc/washington/587-Achievement-Preparatory-Academy-PCS/?utm_source=GSAPI&utm_medium=referral,https://www.greatschools.org/washington-dc/washington/587-Achievement-Preparatory-Academy-PCS/?utm_source=GSAPI&utm_medium=referral#Reviews,https://www.greatschools.org/washington-dc/washington/587-Achievement-Preparatory-Academy-PCS/?utm_source=GSAPI&utm_medium=referral,4.0,113.0,Achievement Preparatory Academy Pcs,1100072.0,20032
4,1206,Achievement Preparatory PCS-Elementary,charter,PK-3,,,Washington,DC,"908 Wahler Place Southeast, 
Washington, DC  20032",(202) 727-7373,,http://www.aprepacademy.org,110007200473,38.83435,-76.99234,https://www.greatschools.org/washington-dc/washington/1206-Achievement-Preparatory-PCS-Elementary/?utm_source=GSAPI&utm_medium=referral,https://www.greatschools.org/washington-dc/washington/1206-Achievement-Preparatory-PCS-Elementary/?utm_source=GSAPI&utm_medium=referral,https://www.greatschools.org/washington-dc/washington/1206-Achievement-Preparatory-PCS-Elementary/?utm_source=GSAPI&utm_medium=referral#Reviews,https://www.greatschools.org/washington-dc/washington/1206-Achievement-Preparatory-PCS-Elementary/?utm_source=GSAPI&utm_medium=referral,,113.0,Achievement Preparatory Academy Pcs,1100072.0,20032
5,1218,"Acton Academy of Washington, DC",private,1-4,16.0,,Washington,DC,"2422 K Street, NW, Washington, DC 20037, 
Washington, DC  20007",(202) 495-0507,,http://www.actondc.org,,38.9305,-77.070946,"https://www.greatschools.org/washington-dc/washington/1218-Acton-Academy-Of-Washington,-DC/?utm_source=GSAPI&utm_medium=referral","https://www.greatschools.org/washington-dc/washington/1218-Acton-Academy-Of-Washington,-DC/?utm_source=GSAPI&utm_medium=referral","https://www.greatschools.org/washington-dc/washington/1218-Acton-Academy-Of-Washington,-DC/?utm_source=GSAPI&utm_medium=referral#Reviews","https://www.greatschools.org/washington-dc/washington/1218-Acton-Academy-Of-Washington,-DC/?utm_source=GSAPI&utm_medium=referral",,,,,20007
6,194,Aidan Montessori School,private,PK-6,198.0,4.0,Washington,DC,"2700 27th Street Northwest, 
Washington, DC  20008",(202) 387-2700,(202) 387-1777,www.aidanschool.org,00253517,38.9262,-77.05561,https://www.greatschools.org/washington-dc/washington/194-Aidan-Montessori-School/?utm_source=GSAPI&utm_medium=referral,https://www.greatschools.org/washington-dc/washington/194-Aidan-Montessori-School/?utm_source=GSAPI&utm_medium=referral,https://www.greatschools.org/washington-dc/washington/194-Aidan-Montessori-School/?utm_source=GSAPI&utm_medium=referral#Reviews,https://www.greatschools.org/washington-dc/washington/194-Aidan-Montessori-School/?utm_source=GSAPI&utm_medium=referral,,,,,20008
7,97,Aiton Elementary School,public,PK-5,252.0,,Washington,DC,"533 48th Place Northeast, 
Washington, DC  20019",(202) 671-6060,(202) 724-4630,http://www.dcps.dc.gov,110003000122,38.897007,-76.93336,https://www.greatschools.org/washington-dc/washington/97-Aiton-Elementary-School/?utm_source=GSAPI&utm_medium=referral,https://www.greatschools.org/washington-dc/washington/97-Aiton-Elementary-School/?utm_source=GSAPI&utm_medium=referral,https://www.greatschools.org/washington-dc/washington/97-Aiton-Elementary-School/?utm_source=GSAPI&utm_medium=referral#Reviews,https://www.greatschools.org/washington-dc/washington/97-Aiton-Elementary-School/?utm_source=GSAPI&utm_medium=referral,4.0,1.0,District Of Columbia Public Schools,1100030.0,20019
8,881,Alternative Solutions for Youth,private,n/a,,,Washington,DC,"1301 Lenfant Square, 
Washington, DC  20020",(202) 584-1244,(423) 472-2718,http://dcase.org/Alternative,,38.87393,-76.97009,https://www.greatschools.org/washington-dc/washington/881-Alternative-Solutions-For-Youth/?utm_source=GSAPI&utm_medium=referral,https://www.greatschools.org/washington-dc/washington/881-Alternative-Solutions-For-Youth/?utm_source=GSAPI&utm_medium=referral,https://www.greatschools.org/washington-dc/washington/881-Alternative-Solutions-For-Youth/?utm_source=GSAPI&utm_medium=referral#Reviews,https://www.greatschools.org/washington-dc/washington/881-Alternative-Solutions-For-Youth/?utm_source=GSAPI&utm_medium=referral,,,,,20020
9,96,Amidon-Bowen Elementary School,public,PK-5,350.0,4.0,Washington,DC,"401 I Street Southwest, 
Washington, DC  20024",(202) 724-4867,,http://www.amidonbowen.org/,110003000121,38.879833,-77.01829,https://www.greatschools.org/washington-dc/washington/96-Amidon-Bowen-Elementary-School/?utm_source=GSAPI&utm_medium=referral,https://www.greatschools.org/washington-dc/washington/96-Amidon-Bowen-Elementary-School/?utm_source=GSAPI&utm_medium=referral,https://www.greatschools.org/washington-dc/washington/96-Amidon-Bowen-Elementary-School/?utm_source=GSAPI&utm_medium=referral#Reviews,https://www.greatschools.org/washington-dc/washington/96-Amidon-Bowen-Elementary-School/?utm_source=GSAPI&utm_medium=referral,2.0,1.0,District Of Columbia Public Schools,1100030.0,20024
10,164,Annunciation Catholic School,private,PK-8,140.0,4.0,Washington,DC,"3825 Klingle Pl, 
Washington, DC  20016",(202) 362-1408,,http://www.annunciationschool.net,00252626,38.929733,-77.0753,https://www.greatschools.org/washington-dc/washington/164-Annunciation-Catholic-School/?utm_source=GSAPI&utm_medium=referral,https://www.greatschools.org/washington-dc/washington/164-Annunciation-Catholic-School/?utm_source=GSAPI&utm_medium=referral,https://www.greatschools.org/washington-dc/washington/164-Annunciation-Catholic-School/?utm_source=GSAPI&utm_medium=referral#Reviews,https://www.greatschools.org/washington-dc/washington/164-Annunciation-Catholic-School/?utm_source=GSAPI&utm_medium=referral,,,,,20016
11,847,BASIS DC,charter,5-12,648.0,4.0,Washington,DC,"410 8th Street NW, 
Washington, DC  20004",(202) 804-6390,(202) 393-5438,http://www.basisdc.org,110008300443,38.89523,-77.02331,https://www.greatschools.org/washington-dc/washington/847-BASIS-DC-/?utm_source=GSAPI&utm_medium=referral,https://www.greatschools.org/washington-dc/washington/847-BASIS-DC-/?utm_source=GSAPI&utm_medium=referral,https://www.greatschools.org/washington-dc/washington/847-BASIS-DC-/?utm_source=GSAPI&utm_medium=referral#Reviews,https://www.greatschools.org/washington-dc/washington/847-BASIS-DC-/?utm_source=GSAPI&utm_medium=referral,8.0,124.0,Basis Dc Pcs,1100083.0,20004
12,95,Bancroft Elementary School,public,PK-5,473.0,4.0,Washington,DC,"4300 13th Street Northwest, 
Washington, DC  20011",(202) 673-7280,(202) 671-5033,http://www.dcps.dc.gov,110003000120,38.94358,-77.030266,https://www.greatschools.org/washington-dc/washington/95-Bancroft-Elementary-School/?utm_source=GSAPI&utm_medium=referral,https://www.greatschools.org/washington-dc/washington/95-Bancroft-Elementary-School/?utm_source=GSAPI&utm_medium=referral,https://www.greatschools.org/washington-dc/washington/95-Bancroft-Elementary-School/?utm_source=GSAPI&utm_medium=referral#Reviews,https://www.greatschools.org/washington-dc/washington/95-Bancroft-Elementary-School/?utm_source=GSAPI&utm_medium=referral,5.0,1.0,District Of Columbia Public Schools,1100030.0,20011
13,94,Barnard Elementary School,public,PK-5,569.0,4.0,Washington,DC,"430 Decatur Street Northwest, 
Washington, DC  20011",(202) 576-1100,(202) 541-6010,http://www.dcps.dc.gov,110003000119,38.947956,-77.01785,https://www.greatschools.org/washington-dc/washington/94-Barnard-Elementary-School/?utm_source=GSAPI&utm_medium=referral,https://www.greatschools.org/washington-dc/washington/94-Barnard-Elementary-School/?utm_source=GSAPI&utm_medium=referral,https://www.greatschools.org/washington-dc/washington/94-Barnard-Elementary-School/?utm_source=GSAPI&utm_medium=referral#Reviews,https://www.greatschools.org/washington-dc/washington/94-Barnard-Elementary-School/?utm_source=GSAPI&utm_medium=referral,7.0,1.0,District Of Columbia Public Schools,1100030.0,20011
14,185,Beauvoir - The National Cathedral Elementary School,private,PK-3,390.0,5.0,Washington,DC,"3500 Woodley Rd NW, 
Washington, DC  20016",(202) 537-6485,,http://www.beauvoirschool.org,00253186,38.9316,-77.0686,https://www.greatschools.org/washington-dc/washington/185-Beauvoir---The-National-Cathedral-Elementary-School/?utm_source=GSAPI&utm_medium=referral,https://www.greatschools.org/washington-dc/washington/185-Beauvoir---The-National-Cathedral-Elementary-School/?utm_source=GSAPI&utm_medium=referral,https://www.greatschools.org/washington-dc/washington/185-Beauvoir---The-National-Cathedral-Elementary-School/?utm_source=GSAPI&utm_medium=referral#Reviews,https://www.greatschools.org/washington-dc/washington/185-Beauvoir---The-National-Cathedral-Elementary-School/?utm_source=GSAPI&utm_medium=referral,,,,,20016
15,93,Beers Elementary School,public,PK-5,384.0,5.0,Washington,DC,"3600 Alabama Avenue Southeast, 
Washington, DC  20020",(202) 939-4800,(202) 645-3225,http://www.dcps.dc.gov,110003000118,38.864643,-76.95553,https://www.greatschools.org/washington-dc/washington/93-Beers-Elementary-School/?utm_source=GSAPI&utm_medium=referral,https://www.greatschools.org/washington-dc/washington/93-Beers-Elementary-School/?utm_source=GSAPI&utm_medium=referral,https://www.greatschools.org/washington-dc/washington/93-Beers-Elementary-School/?utm_source=GSAPI&utm_medium=referral#Reviews,https://www.greatschools.org/washington-dc/washington/93-Beers-Elementary-School/?utm_source=GSAPI&utm_medium=referral,5.0,1.0,District Of Columbia Public Schools,1100030.0,20020
16,904,Bishop John T Walker School For Boys,private,PK-2,54.0,,Washington,DC,"3640 Martin Luther King Junior Avenue Southeast, 
Washington, DC  20032",(202) 678-1515,,http://www.bishopwalkerschool.org/,A0900738,38.838295,-77.00541,https://www.greatschools.org/washington-dc/washington/904-Bishop-John-T-Walker-School-For-Boys/?utm_source=GSAPI&utm_medium=referral,https://www.greatschools.org/washington-dc/washington/904-Bishop-John-T-Walker-School-For-Boys/?utm_source=GSAPI&utm_medium=referral,https://www.greatschools.org/washington-dc/washington/904-Bishop-John-T-Walker-School-For-Boys/?utm_source=GSAPI&utm_medium=referral#Reviews,https://www.greatschools.org/washington-dc/washington/904-Bishop-John-T-Walker-School-For-Boys/?utm_source=GSAPI&utm_medium=referral,,,,,20032
17,834,Bishop John T. Walker School For Bo,private,PK-4,80.0,5.0,Washington,DC,"3640 Martin Luther King Jr Ave Ave Se, 
Washington, DC  20032",(202) 678-1515,(202) 591-6031,www.bishopwalkerschool.org/,,38.838295,-77.00541,https://www.greatschools.org/washington-dc/washington/834-Bishop-John-T.-Walker-School-For-Bo/?utm_source=GSAPI&utm_medium=referral,https://www.greatschools.org/washington-dc/washington/834-Bishop-John-T.-Walker-School-For-Bo/?utm_source=GSAPI&utm_medium=referral,https://www.greatschools.org/washington-dc/washington/834-Bishop-John-T.-Walker-School-For-Bo/?utm_source=GSAPI&utm_medium=referral#Reviews,https://www.greatschools.org/washington-dc/washington/834-Bishop-John-T.-Walker-School-For-Bo/?utm_source=GSAPI&utm_medium=referral,,,,,20032
18,181,Blessed Sacrament Elementary School,private,K-8,535.0,4.0,Washington,DC,"5841 Chevy Chase Pkwy NW, 
Washington, DC  20015",(202) 966-6682,(202) 966-4938,www.bsstoday.org,00253029,38.967937,-77.075226,https://www.greatschools.org/washington-dc/washington/181-Blessed-Sacrament-Elementary-School/?utm_source=GSAPI&utm_medium=referral,https://www.greatschools.org/washington-dc/washington/181-Blessed-Sacrament-Elementary-School/?utm_source=GSAPI&utm_medium=referral,https://www.greatschools.org/washington-dc/washington/181-Blessed-Sacrament-Elementary-School/?utm_source=GSAPI&utm_medium=referral#Reviews,https://www.greatschools.org/washington-dc/washington/181-Blessed-Sacrament-Elementary-School/?utm_source=GSAPI&utm_medium=referral,,,,,20015
19,89,Brent Elementary School,public,PK-5,358.0,4.0,Washington,DC,"301 North Carolina Avenue Southeast, 
Washington, DC  20003",(202) 698-3363,(202) 698-3369,http://www.dcps.dc.gov,110003000113,38.88479,-77.0013,https://www.greatschools.org/washington-dc/washington/89-Brent-Elementary-School/?utm_source=GSAPI&utm_medium=referral,https://www.greatschools.org/washington-dc/washington/89-Brent-Elementary-School/?utm_source=GSAPI&utm_medium=referral,https://www.greatschools.org/washington-dc/washington/89-Brent-Elementary-School/?utm_source=GSAPI&utm_medium=referral#Reviews,https://www.greatschools.org/washington-dc/washington/89-Brent-Elementary-School/?utm_source=GSAPI&utm_medium=referral,8.0,1.0,District Of Columbia Public Schools,1100030.0,20003
20,209,Bridges Early Childhood Academy,private,PK-8,180.0,4.0,Washington,DC,"6123 Georgia Avenue Northwest, 
Washington, DC  20011",(202) 829-1901,(202) 829-2429,www.bridgespcs.org,02016154,38.96445,-77.02734,https://www.greatschools.org/washington-dc/washington/209-Bridges-Early-Childhood-Academy/?utm_source=GSAPI&utm_medium=referral,https://www.greatschools.org/washington-dc/washington/209-Bridges-Early-Childhood-Academy/?utm_source=GSAPI&utm_medium=referral,https://www.greatschools.org/washington-dc/washington/209-Bridges-Early-Childhood-Academy/?utm_source=GSAPI&utm_medium=referral#Reviews,https://www.greatschools.org/washington-dc/washington/209-Bridges-Early-Childhood-Academy/?utm_source=GSAPI&utm_medium=referral,,,,,20011
21,380,Bridges PCS,charter,PK-4,328.0,5.0,Washington,DC,"100 Gallatin St. NE, 
Washington, DC  20011",(202) 545-0515,(202) 545-0517,www.bridgespcs.org,110005500305,38.940487,-77.028625,https://www.greatschools.org/washington-dc/washington/380-Bridges-PCS/?utm_source=GSAPI&utm_medium=referral,https://www.greatschools.org/washington-dc/washington/380-Bridges-PCS/?utm_source=GSAPI&utm_medium=referral,https://www.greatschools.org/washington-dc/washington/380-Bridges-PCS/?utm_source=GSAPI&utm_medium=referral#Reviews,https://www.greatschools.org/washington-dc/washington/380-Bridges-PCS/?utm_source=GSAPI&utm_medium=referral,6.0,54.0,Bridges Pcs,1100055.0,20011
22,88,Brightwood Education Campus,public,PK-8,573.0,2.0,Washington,DC,"1300 Nicholson Street Northwest, 
Washington, DC  20011",(202) 722-5670,(202) 576-6168,http://www.dcps.dc.gov,110003000112,38.960712,-77.03016,https://www.greatschools.org/washington-dc/washington/88-Brightwood-Education-Campus/?utm_source=GSAPI&utm_medium=referral,https://www.greatschools.org/washington-dc/washington/88-Brightwood-Education-Campus/?utm_source=GSAPI&utm_medium=referral,https://www.greatschools.org/washington-dc/washington/88-Brightwood-Education-Campus/?utm_source=GSAPI&utm_medium=referral#Reviews,https://www.greatschools.org/washington-dc/washington/88-Brightwood-Education-Campus/?utm_source=GSAPI&utm_medium=referral,6.0,1.0,District Of Columbia Public Schools,1100030.0,20011
23,373,British International School of Washington,private,PK-12,501.0,3.0,Washington,DC,"2001 Wisconsin Avenue NW, 
Washington, DC  20007",(202) 829-3700,(202) 829-6522,http://www.nordangliaeducation.com/our-schools/washington,A0500912,38.91671,-77.0681,https://www.greatschools.org/washington-dc/washington/373-British-International-School-Of-Washington/?utm_source=GSAPI&utm_medium=referral,https://www.greatschools.org/washington-dc/washington/373-British-International-School-Of-Washington/?utm_source=GSAPI&utm_medium=referral,https://www.greatschools.org/washington-dc/washington/373-British-International-School-Of-Washington/?utm_source=GSAPI&utm_medium=referral#Reviews,https://www.greatschools.org/washington-dc/washington/373-British-International-School-Of-Washington/?utm_source=GSAPI&utm_medium=referral,,,,,20007
24,87,Brookland Education Campus @ Bunker Hill,public,PK-5,274.0,3.0,Washington,DC,"1401 Michigan Avenue Northeast, 
Washington, DC  20017",(202) 576-6095,(202) 576-4632,http://www.dcps.dc.gov,110003000111,38.942093,-76.984375,https://www.greatschools.org/washington-dc/washington/87-Brookland-Education-Campus-@-Bunker-Hill/?utm_source=GSAPI&utm_medium=referral,https://www.greatschools.org/washington-dc/washington/87-Brookland-Education-Campus-@-Bunker-Hill/?utm_source=GSAPI&utm_medium=referral,https://www.greatschools.org/washington-dc/washington/87-Brookland-Education-Campus-@-Bunker-Hill/?utm_source=GSAPI&utm_medium=referral#Reviews,https://www.greatschools.org/washington-dc/washington/87-Brookland-Education-Campus-@-Bunker-Hill/?utm_source=GSAPI&utm_medium=referral,,1.0,District Of Columbia Public Schools,1100030.0,20017
25,333,Browne Education Campus,public,PK-8,364.0,5.0,Washington,DC,"850 26th Street Northeast, 
Washington, DC  20002",(202) 671-6210,(202) 724-1530,http://www.dcps.dc.gov,110003000152,38.903183,-76.97088,https://www.greatschools.org/washington-dc/washington/333-Browne-Education-Campus/?utm_source=GSAPI&utm_medium=referral,https://www.greatschools.org/washington-dc/washington/333-Browne-Education-Campus/?utm_source=GSAPI&utm_medium=referral,https://www.greatschools.org/washington-dc/washington/333-Browne-Education-Campus/?utm_source=GSAPI&utm_medium=referral#Reviews,https://www.greatschools.org/washington-dc/washington/333-Browne-Education-Campus/?utm_source=GSAPI&utm_medium=referral,5.0,1.0,District Of Columbia Public Schools,1100030.0,20002
26,86,Bruce-Monroe Elementary School @ Park View,public,PK-5,442.0,5.0,Washington,DC,"3560 Warder Street Northwest, 
Washington, DC  20010",(202) 576-6222,(202) 576-6225,http://www.dcps.dc.gov,110003000110,38.93436,-77.02141,https://www.greatschools.org/washington-dc/washington/86-Bruce-Monroe-Elementary-School-@-Park-View/?utm_source=GSAPI&utm_medium=referral,https://www.greatschools.org/washington-dc/washington/86-Bruce-Monroe-Elementary-School-@-Park-View/?utm_source=GSAPI&utm_medium=referral,https://www.greatschools.org/washington-dc/washington/86-Bruce-Monroe-Elementary-School-@-Park-View/?utm_source=GSAPI&utm_medium=referral#Reviews,https://www.greatschools.org/washington-dc/washington/86-Bruce-Monroe-Elementary-School-@-Park-View/?utm_source=GSAPI&utm_medium=referral,6.0,1.0,District Of Columbia Public Schools,1100030.0,20010
27,882,Building for the Future/Seeds of Tomorrow,private,n/a,,,Washington,DC,"2041 Martin Luther King Jr. Ave, 
Washington, DC  20020",(202) 747-7530,(717) 394-0885,http://empoweringcenter.org/newempoweringcenter,,38.86591,-76.98979,https://www.greatschools.org/washington-dc/washington/882-Building-For-The-Future-Seeds-Of-Tomorrow/?utm_source=GSAPI&utm_medium=referral,https://www.greatschools.org/washington-dc/washington/882-Building-For-The-Future-Seeds-Of-Tomorrow/?utm_source=GSAPI&utm_medium=referral,https://www.greatschools.org/washington-dc/washington/882-Building-For-The-Future-Seeds-Of-Tomorrow/?utm_source=GSAPI&utm_medium=referral#Reviews,https://www.greatschools.org/washington-dc/washington/882-Building-For-The-Future-Seeds-Of-Tomorrow/?utm_source=GSAPI&utm_medium=referral,,,,,20020
28,84,Burroughs Education Campus,public,PK-5,283.0,4.0,Washington,DC,"1820 Monroe Street Northeast, 
Washington, DC  20018",(202) 576-6150,(202) 576-6819,http://www.dcps.dc.gov,110003000107,38.933445,-76.97915,https://www.greatschools.org/washington-dc/washington/84-Burroughs-Education-Campus/?utm_source=GSAPI&utm_medium=referral,https://www.greatschools.org/washington-dc/washington/84-Burroughs-Education-Campus/?utm_source=GSAPI&utm_medium=referral,https://www.greatschools.org/washington-dc/washington/84-Burroughs-Education-Campus/?utm_source=GSAPI&utm_medium=referral#Reviews,https://www.greatschools.org/washington-dc/washington/84-Burroughs-Education-Campus/?utm_source=GSAPI&utm_medium=referral,3.0,1.0,District Of Columbia Public Schools,1100030.0,20018
29,83,Burrville Elementary School,public,PK-5,357.0,5.0,Washington,DC,"801 Division Avenue Northeast, 
Washington, DC  20019",(202) 671-6020,(202) 724-5578,http://www.dcps.dc.gov,110003000106,38.900536,-76.92416,https://www.greatschools.org/washington-dc/washington/83-Burrville-Elementary-School/?utm_source=GSAPI&utm_medium=referral,https://www.greatschools.org/washington-dc/washington/83-Burrville-Elementary-School/?utm_source=GSAPI&utm_medium=referral,https://www.greatschools.org/washington-dc/washington/83-Burrville-Elementary-School/?utm_source=GSAPI&utm_medium=referral#Reviews,https://www.greatschools.org/washington-dc/washington/83-Burrville-Elementary-School/?utm_source=GSAPI&utm_medium=referral,4.0,1.0,District Of Columbia Public Schools,1100030.0,20019
30,145,C.W. Harris Elementary School,public,PK-5,265.0,,Washington,DC,"301 53rd Street Southeast, 
Washington, DC  20019",(202) 645-3188,(202) 645-3190,http://www.dcps.dc.gov,110003000185,38.883602,-76.92591,https://www.greatschools.org/washington-dc/washington/145-C.W.-Harris-Elementary-School/?utm_source=GSAPI&utm_medium=referral,https://www.greatschools.org/washington-dc/washington/145-C.W.-Harris-Elementary-School/?utm_source=GSAPI&utm_medium=referral,https://www.greatschools.org/washington-dc/washington/145-C.W.-Harris-Elementary-School/?utm_source=GSAPI&utm_medium=referral#Reviews,https://www.greatschools.org/washington-dc/washington/145-C.W.-Harris-Elementary-School/?utm_source=GSAPI&utm_medium=referral,2.0,1.0,District Of Columbia Public Schools,1100030.0,20019
31,239,Calvary Christian Academy,private,PK-8,202.0,4.0,Washington,DC,"806 Rhode Island Ave NE, 
Washington, DC  20018",(202) 526-5176,(202) 526-2672,http://www.calvarychristianacad.org,K9301156,38.92223,-76.99422,https://www.greatschools.org/washington-dc/washington/239-Calvary-Christian-Academy/?utm_source=GSAPI&utm_medium=referral,https://www.greatschools.org/washington-dc/washington/239-Calvary-Christian-Academy/?utm_source=GSAPI&utm_medium=referral,https://www.greatschools.org/washington-dc/washington/239-Calvary-Christian-Academy/?utm_source=GSAPI&utm_medium=referral#Reviews,https://www.greatschools.org/washington-dc/washington/239-Calvary-Christian-Academy/?utm_source=GSAPI&utm_medium=referral,,,,,20018
32,282,Capital City PCS - Lower School,charter,PK-4,325.0,4.0,Washington,DC,"100 Peabody Street Northwest, 
Washington, DC  20011",(202) 808-9800,(202) 733-1812,http://www.ccpcs.org,110003500253,38.962334,-77.01261,https://www.greatschools.org/washington-dc/washington/282-Capital-City-PCS---Lower-School/?utm_source=GSAPI&utm_medium=referral,https://www.greatschools.org/washington-dc/washington/282-Capital-City-PCS---Lower-School/?utm_source=GSAPI&utm_medium=referral,https://www.greatschools.org/washington-dc/washington/282-Capital-City-PCS---Lower-School/?utm_source=GSAPI&utm_medium=referral#Reviews,https://www.greatschools.org/washington-dc/washington/282-Capital-City-PCS---Lower-School/?utm_source=GSAPI&utm_medium=referral,6.0,74.0,Capital City Pcs,1100035.0,20011
33,190,Capitol Hill Day School,private,PK-8,225.0,5.0,Washington,DC,"210 South Carolina Ave SE, 
Washington, DC  20003",(202) 547-2244,(202) 543-4597,http://www.chds.org,00253415,38.88226,-77.00312,https://www.greatschools.org/washington-dc/washington/190-Capitol-Hill-Day-School/?utm_source=GSAPI&utm_medium=referral,https://www.greatschools.org/washington-dc/washington/190-Capitol-Hill-Day-School/?utm_source=GSAPI&utm_medium=referral,https://www.greatschools.org/washington-dc/washington/190-Capitol-Hill-Day-School/?utm_source=GSAPI&utm_medium=referral#Reviews,https://www.greatschools.org/washington-dc/washington/190-Capitol-Hill-Day-School/?utm_source=GSAPI&utm_medium=referral,,,,,20003
34,840,Capitol Hill Montessori @ Logan,public,PK-8,224.0,4.0,Washington,DC,"215 G Street Northeast, 
Washington, DC  20002",(202) 698-4467,(202) 698-4533,http://www.dcps.dc.gov,110003000446,38.898502,-77.00257,https://www.greatschools.org/washington-dc/washington/840-Capitol-Hill-Montessori-@-Logan/?utm_source=GSAPI&utm_medium=referral,https://www.greatschools.org/washington-dc/washington/840-Capitol-Hill-Montessori-@-Logan/?utm_source=GSAPI&utm_medium=referral,https://www.greatschools.org/washington-dc/washington/840-Capitol-Hill-Montessori-@-Logan/?utm_source=GSAPI&utm_medium=referral#Reviews,https://www.greatschools.org/washington-dc/washington/840-Capitol-Hill-Montessori-@-Logan/?utm_source=GSAPI&utm_medium=referral,8.0,1.0,District Of Columbia Public Schools,1100030.0,20002
35,883,Career Training Program,private,n/a,,,Washington,DC,"700 Monroes St, NE, 
Washington, DC  20017",(202) 526-1400,(202) 526-1405,,,38.932556,-76.995804,https://www.greatschools.org/washington-dc/washington/883-Career-Training-Program/?utm_source=GSAPI&utm_medium=referral,https://www.greatschools.org/washington-dc/washington/883-Career-Training-Program/?utm_source=GSAPI&utm_medium=referral,https://www.greatschools.org/washington-dc/washington/883-Career-Training-Program/?utm_source=GSAPI&utm_medium=referral#Reviews,https://www.greatschools.org/washington-dc/washington/883-Career-Training-Program/?utm_source=GSAPI&utm_medium=referral,,,,,20017
36,323,Carlos Rosario International PCS,charter,n/a,1750.0,5.0,Washington,DC,"1100 Harvard Street, NW, 
Washington, DC  20009",(202) 797-4700,(202) 232-6442,,110000400218,38.926716,-77.02705,https://www.greatschools.org/washington-dc/washington/323-Carlos-Rosario-International-PCS/?utm_source=GSAPI&utm_medium=referral,https://www.greatschools.org/washington-dc/washington/323-Carlos-Rosario-International-PCS/?utm_source=GSAPI&utm_medium=referral,https://www.greatschools.org/washington-dc/washington/323-Carlos-Rosario-International-PCS/?utm_source=GSAPI&utm_medium=referral#Reviews,https://www.greatschools.org/washington-dc/washington/323-Carlos-Rosario-International-PCS/?utm_source=GSAPI&utm_medium=referral,,42.0,Carlos Rosario International Pcs,1100004.0,20009
37,593,Center City PCS - Brightwood,charter,PK-8,238.0,3.0,Washington,DC,"6008 Georgia Avenue Northwest, 
Washington, DC  20011",(202) 723-3322,(202) 291-0219,http://www.centercitypcs.org,110007300400,38.963215,-77.02839,https://www.greatschools.org/washington-dc/washington/593-Center-City-PCS---Brightwood/?utm_source=GSAPI&utm_medium=referral,https://www.greatschools.org/washington-dc/washington/593-Center-City-PCS---Brightwood/?utm_source=GSAPI&utm_medium=referral,https://www.greatschools.org/washington-dc/washington/593-Center-City-PCS---Brightwood/?utm_source=GSAPI&utm_medium=referral#Reviews,https://www.greatschools.org/washington-dc/washington/593-Center-City-PCS---Brightwood/?utm_source=GSAPI&utm_medium=referral,7.0,114.0,Center City Pcs,1100073.0,20011
38,594,Center City PCS - Capitol Hill,charter,PK-8,230.0,2.0,Washington,DC,"1503 East Capitol Street Southeast, 
Washington, DC  20003",(202) 547-7556,(202) 547-5686,http://www.centercitypcs.org,110007300393,38.889454,-76.98325,https://www.greatschools.org/washington-dc/washington/594-Center-City-PCS---Capitol-Hill/?utm_source=GSAPI&utm_medium=referral,https://www.greatschools.org/washington-dc/washington/594-Center-City-PCS---Capitol-Hill/?utm_source=GSAPI&utm_medium=referral,https://www.greatschools.org/washington-dc/washington/594-Center-City-PCS---Capitol-Hill/?utm_source=GSAPI&utm_medium=referral#Reviews,https://www.greatschools.org/washington-dc/washington/594-Center-City-PCS---Capitol-Hill/?utm_source=GSAPI&utm_medium=referral,,114.0,Center City Pcs,1100073.0,20003
39,595,Center City PCS - Congress Heights,charter,PK-8,254.0,4.0,Washington,DC,"220 Highview Place Southeast, 
Washington, DC  20032",(202) 562-7070,(202) 574-5829,http://www.centercitypcs.org,110007300412,38.841515,-77.00458,https://www.greatschools.org/washington-dc/washington/595-Center-City-PCS---Congress-Heights/?utm_source=GSAPI&utm_medium=referral,https://www.greatschools.org/washington-dc/washington/595-Center-City-PCS---Congress-Heights/?utm_source=GSAPI&utm_medium=referral,https://www.greatschools.org/washington-dc/washington/595-Center-City-PCS---Congress-Heights/?utm_source=GSAPI&utm_medium=referral#Reviews,https://www.greatschools.org/washington-dc/washington/595-Center-City-PCS---Congress-Heights/?utm_source=GSAPI&utm_medium=referral,6.0,114.0,Center City Pcs,1100073.0,20032
40,596,Center City PCS - Petworth,charter,PK-8,235.0,4.0,Washington,DC,"510 Webster Street Northwest, 
Washington, DC  20011",(202) 726-9212,(202) 726-3378,http://www.centercitypcs.org,110007300395,38.943764,-77.02087,https://www.greatschools.org/washington-dc/washington/596-Center-City-PCS---Petworth/?utm_source=GSAPI&utm_medium=referral,https://www.greatschools.org/washington-dc/washington/596-Center-City-PCS---Petworth/?utm_source=GSAPI&utm_medium=referral,https://www.greatschools.org/washington-dc/washington/596-Center-City-PCS---Petworth/?utm_source=GSAPI&utm_medium=referral#Reviews,https://www.greatschools.org/washington-dc/washington/596-Center-City-PCS---Petworth/?utm_source=GSAPI&utm_medium=referral,6.0,114.0,Center City Pcs,1100073.0,20011
41,597,Center City PCS - Shaw,charter,PK-8,218.0,3.0,Washington,DC,"711 N Street Northwest, 
Washington, DC  20001",(202) 234-1093,(202) 462-6875,http://www.centercitypcs.org,110007300404,38.907524,-77.022484,https://www.greatschools.org/washington-dc/washington/597-Center-City-PCS---Shaw/?utm_source=GSAPI&utm_medium=referral,https://www.greatschools.org/washington-dc/washington/597-Center-City-PCS---Shaw/?utm_source=GSAPI&utm_medium=referral,https://www.greatschools.org/washington-dc/washington/597-Center-City-PCS---Shaw/?utm_source=GSAPI&utm_medium=referral#Reviews,https://www.greatschools.org/washington-dc/washington/597-Center-City-PCS---Shaw/?utm_source=GSAPI&utm_medium=referral,8.0,114.0,Center City Pcs,1100073.0,20001
42,598,Center City PCS - Trinidad,charter,PK-8,230.0,4.0,Washington,DC,"1217 West Virginia Avenue Northeast, 
Washington, DC  20002",(202) 397-1614,(202) 398-4832,http://www.centercitypcs.org,110007300403,38.90532,-76.99122,https://www.greatschools.org/washington-dc/washington/598-Center-City-PCS---Trinidad/?utm_source=GSAPI&utm_medium=referral,https://www.greatschools.org/washington-dc/washington/598-Center-City-PCS---Trinidad/?utm_source=GSAPI&utm_medium=referral,https://www.greatschools.org/washington-dc/washington/598-Center-City-PCS---Trinidad/?utm_source=GSAPI&utm_medium=referral#Reviews,https://www.greatschools.org/washington-dc/washington/598-Center-City-PCS---Trinidad/?utm_source=GSAPI&utm_medium=referral,,114.0,Center City Pcs,1100073.0,20002
43,901,Christian Family Montessori School,private,PK-6,107.0,5.0,Washington,DC,"201 Allison St., 
Washington, DC  20011",(202) 722-1520,,http://www.cfmschool.org/,,38.945435,-77.01421,https://www.greatschools.org/washington-dc/washington/901-Christian-Family-Montessori-School/?utm_source=GSAPI&utm_medium=referral,https://www.greatschools.org/washington-dc/washington/901-Christian-Family-Montessori-School/?utm_source=GSAPI&utm_medium=referral,https://www.greatschools.org/washington-dc/washington/901-Christian-Family-Montessori-School/?utm_source=GSAPI&utm_medium=referral#Reviews,https://www.greatschools.org/washington-dc/washington/901-Christian-Family-Montessori-School/?utm_source=GSAPI&utm_medium=referral,,,,,20011
44,81,Cleveland Elementary School,public,PK-5,297.0,5.0,Washington,DC,"1825 8th Street Northwest, 
Washington, DC  20001",(202) 939-4380,(202) 673-6461,http://www.dcps.dc.gov,110003000103,38.915157,-77.022575,https://www.greatschools.org/washington-dc/washington/81-Cleveland-Elementary-School/?utm_source=GSAPI&utm_medium=referral,https://www.greatschools.org/washington-dc/washington/81-Cleveland-Elementary-School/?utm_source=GSAPI&utm_medium=referral,https://www.greatschools.org/washington-dc/washington/81-Cleveland-Elementary-School/?utm_source=GSAPI&utm_medium=referral#Reviews,https://www.greatschools.org/washington-dc/washington/81-Cleveland-Elementary-School/?utm_source=GSAPI&utm_medium=referral,5.0,1.0,District Of Columbia Public Schools,1100030.0,20001
45,245,"Cornerstone Schools of Washington, D.C.",private,PK-12,130.0,4.0,Washington,DC,"3742 Ely Place SE, 
Washington, DC  20019",(202) 575-0027,(202) 575-0669,http://www.cornerstone-schools.org,A9901122,38.882893,-76.94812,"https://www.greatschools.org/washington-dc/washington/245-Cornerstone-Schools-Of-Washington,-D.C./?utm_source=GSAPI&utm_medium=referral","https://www.greatschools.org/washington-dc/washington/245-Cornerstone-Schools-Of-Washington,-D.C./?utm_source=GSAPI&utm_medium=referral","https://www.greatschools.org/washington-dc/washington/245-Cornerstone-Schools-Of-Washington,-D.C./?utm_source=GSAPI&utm_medium=referral#Reviews","https://www.greatschools.org/washington-dc/washington/245-Cornerstone-Schools-Of-Washington,-D.C./?utm_source=GSAPI&utm_medium=referral",,,,,20019
46,848,Creative Minds International PCS,charter,PK-6,238.0,5.0,Washington,DC,"3700 North Capitol Street Northwest, 
Washington, DC  20011",(202) 588-0370,(202) 588-0263,http://www.creativemindspcs.org,110008400440,38.936302,-77.01102,https://www.greatschools.org/washington-dc/washington/848-Creative-Minds-International-PCS/?utm_source=GSAPI&utm_medium=referral,https://www.greatschools.org/washington-dc/washington/848-Creative-Minds-International-PCS/?utm_source=GSAPI&utm_medium=referral,https://www.greatschools.org/washington-dc/washington/848-Creative-Minds-International-PCS/?utm_source=GSAPI&utm_medium=referral#Reviews,https://www.greatschools.org/washington-dc/washington/848-Creative-Minds-International-PCS/?utm_source=GSAPI&utm_medium=referral,7.0,125.0,Creative Minds Pcs,1100084.0,20011
47,902,D C Preparatory Benning Middle Campus,charter,4-7,220.0,5.0,Washington,DC,"100 41st Street Northeast, 
Washington, DC  20019",(202) 396-3780,,http://www.dcprep.org/,110004800474,38.890778,-76.944954,https://www.greatschools.org/washington-dc/washington/902-D-C-Preparatory-Benning-Middle-Campus/?utm_source=GSAPI&utm_medium=referral,https://www.greatschools.org/washington-dc/washington/902-D-C-Preparatory-Benning-Middle-Campus/?utm_source=GSAPI&utm_medium=referral,https://www.greatschools.org/washington-dc/washington/902-D-C-Preparatory-Benning-Middle-Campus/?utm_source=GSAPI&utm_medium=referral#Reviews,https://www.greatschools.org/washington-dc/washington/902-D-C-Preparatory-Benning-Middle-Campus/?utm_source=GSAPI&utm_medium=referral,7.0,80.0,D.C. Preparatory Academy Pcs,1100048.0,20019
48,360,DC Bilingual PCS,charter,PK-5,405.0,5.0,Washington,DC,"33 Riggs Road Northeast, 
Washington, DC  20011",(202) 750-6674,(202) 750-6733,http://www.dcbilingual.org,110004200273,38.954834,-77.00665,https://www.greatschools.org/washington-dc/washington/360-DC-Bilingual-PCS/?utm_source=GSAPI&utm_medium=referral,https://www.greatschools.org/washington-dc/washington/360-DC-Bilingual-PCS/?utm_source=GSAPI&utm_medium=referral,https://www.greatschools.org/washington-dc/washington/360-DC-Bilingual-PCS/?utm_source=GSAPI&utm_medium=referral#Reviews,https://www.greatschools.org/washington-dc/washington/360-DC-Bilingual-PCS/?utm_source=GSAPI&utm_medium=referral,7.0,79.0,D.C. Bilingual Pcs,1100042.0,20011
49,1217,DC Prep - Anacostia Elementary Campus,charter,PK-1,150.0,,Washington,DC,"1409 V Street SE, 
Washington, DC  20020",(202) 729-3500,(202) 889-2785,http://www.dcprep.org/Anacostia_Elementary_Campus,110004800501,38.864887,-76.985504,https://www.greatschools.org/washington-dc/washington/1217-DC-Prep---Anacostia-Elementary-Campus/?utm_source=GSAPI&utm_medium=referral,https://www.greatschools.org/washington-dc/washington/1217-DC-Prep---Anacostia-Elementary-Campus/?utm_source=GSAPI&utm_medium=referral,https://www.greatschools.org/washington-dc/washington/1217-DC-Prep---Anacostia-Elementary-Campus/?utm_source=GSAPI&utm_medium=referral#Reviews,https://www.greatschools.org/washington-dc/washington/1217-DC-Prep---Anacostia-Elementary-Campus/?utm_source=GSAPI&utm_medium=referral,,80.0,D.C. Preparatory Academy Pcs,1100048.0,20020
50,601,DC Prep - Edgewood Middle Campus,charter,4-8,300.0,5.0,Washington,DC,"701 Edgewood Street NE, 
Washington, DC  20017",(202) 832-5700,(202) 832-5701,http://www.dcprep.org/,110004800277,38.924778,-76.99599,https://www.greatschools.org/washington-dc/washington/601-DC-Prep---Edgewood-Middle-Campus/?utm_source=GSAPI&utm_medium=referral,https://www.greatschools.org/washington-dc/washington/601-DC-Prep---Edgewood-Middle-Campus/?utm_source=GSAPI&utm_medium=referral,https://www.greatschools.org/washington-dc/washington/601-DC-Prep---Edgewood-Middle-Campus/?utm_source=GSAPI&utm_medium=referral#Reviews,https://www.greatschools.org/washington-dc/washington/601-DC-Prep---Edgewood-Middle-Campus/?utm_source=GSAPI&utm_medium=referral,8.0,80.0,D.C. Preparatory Academy Pcs,1100048.0,20017
51,600,DC Prep -- Benning Elementary Campus,charter,PK-3,400.0,3.0,Washington,DC,"100 41st Street NE, 
Washington, DC  20019",(202) 398-2838,(202) 398-2839,http://www.dcprep.org/,110004800387,38.89089,-76.94452,https://www.greatschools.org/washington-dc/washington/600-DC-Prep----Benning-Elementary-Campus/?utm_source=GSAPI&utm_medium=referral,https://www.greatschools.org/washington-dc/washington/600-DC-Prep----Benning-Elementary-Campus/?utm_source=GSAPI&utm_medium=referral,https://www.greatschools.org/washington-dc/washington/600-DC-Prep----Benning-Elementary-Campus/?utm_source=GSAPI&utm_medium=referral#Reviews,https://www.greatschools.org/washington-dc/washington/600-DC-Prep----Benning-Elementary-Campus/?utm_source=GSAPI&utm_medium=referral,8.0,80.0,D.C. Preparatory Academy Pcs,1100048.0,20019
52,339,DC Prep -- Edgewood Elementary Campus,charter,PK-3,400.0,4.0,Washington,DC,"707 Edgewood Street NE, 
Washington, DC  20017",(202) 635-4411,(202) 635-4412,http://www.dcprep.org/,110004800388,38.9242,-76.99554,https://www.greatschools.org/washington-dc/washington/339-DC-Prep----Edgewood-Elementary-Campus/?utm_source=GSAPI&utm_medium=referral,https://www.greatschools.org/washington-dc/washington/339-DC-Prep----Edgewood-Elementary-Campus/?utm_source=GSAPI&utm_medium=referral,https://www.greatschools.org/washington-dc/washington/339-DC-Prep----Edgewood-Elementary-Campus/?utm_source=GSAPI&utm_medium=referral#Reviews,https://www.greatschools.org/washington-dc/washington/339-DC-Prep----Edgewood-Elementary-Campus/?utm_source=GSAPI&utm_medium=referral,9.0,80.0,D.C. Preparatory Academy Pcs,1100048.0,20017
53,849,DC Scholars PCS,charter,PK-7,183.0,,Washington,DC,"5601 East Capitol Street Southeast, 
Washington, DC  20019",(202) 559-6138,(202) 618-9396,http://www.dcscholars.org,110008500438,38.889347,-76.921,https://www.greatschools.org/washington-dc/washington/849-DC-Scholars-PCS/?utm_source=GSAPI&utm_medium=referral,https://www.greatschools.org/washington-dc/washington/849-DC-Scholars-PCS/?utm_source=GSAPI&utm_medium=referral,https://www.greatschools.org/washington-dc/washington/849-DC-Scholars-PCS/?utm_source=GSAPI&utm_medium=referral#Reviews,https://www.greatschools.org/washington-dc/washington/849-DC-Scholars-PCS/?utm_source=GSAPI&utm_medium=referral,5.0,126.0,Dc Scholars Pcs,1100085.0,20019
54,1226,Democracy Prep PCS-Congress Heights,charter,PK-7,620.0,,Washington,DC,"3100 Martin Luther King Junior Avenue Southeast, 
Washington, DC  20032",(202) 561-0860,,http://www.democracyprep.org/,110009500485,38.8435,-76.998146,https://www.greatschools.org/washington-dc/washington/1226-Democracy-Prep-PCS-Congress-Heights/?utm_source=GSAPI&utm_medium=referral,https://www.greatschools.org/washington-dc/washington/1226-Democracy-Prep-PCS-Congress-Heights/?utm_source=GSAPI&utm_medium=referral,https://www.greatschools.org/washington-dc/washington/1226-Democracy-Prep-PCS-Congress-Heights/?utm_source=GSAPI&utm_medium=referral#Reviews,https://www.greatschools.org/washington-dc/washington/1226-Democracy-Prep-PCS-Congress-Heights/?utm_source=GSAPI&utm_medium=referral,3.0,132.0,Democracy Prep PCS-Congress Heights,,20032
55,1233,Dorothy Heights,public,PK-5,,,Washington,DC,"1300 Allison Street Northwest, 
Washington, DC  20011",(202) 723-4100,,http://www.dcps.dc.gov,110003000504,38.944557,-77.03048,https://www.greatschools.org/washington-dc/washington/1233-Dorothy-Heights/?utm_source=GSAPI&utm_medium=referral,https://www.greatschools.org/washington-dc/washington/1233-Dorothy-Heights/?utm_source=GSAPI&utm_medium=referral,https://www.greatschools.org/washington-dc/washington/1233-Dorothy-Heights/?utm_source=GSAPI&utm_medium=referral#Reviews,https://www.greatschools.org/washington-dc/washington/1233-Dorothy-Heights/?utm_source=GSAPI&utm_medium=referral,6.0,1.0,District Of Columbia Public Schools,1100030.0,20011
56,75,Drew Elementary School,public,PK-5,164.0,5.0,Washington,DC,"5600 Eads Street Northeast, 
Washington, DC  20019",(202) 671-6040,(202) 727-3392,http://www.dcps.dc.gov,110003000097,38.896008,-76.91997,https://www.greatschools.org/washington-dc/washington/75-Drew-Elementary-School/?utm_source=GSAPI&utm_medium=referral,https://www.greatschools.org/washington-dc/washington/75-Drew-Elementary-School/?utm_source=GSAPI&utm_medium=referral,https://www.greatschools.org/washington-dc/washington/75-Drew-Elementary-School/?utm_source=GSAPI&utm_medium=referral#Reviews,https://www.greatschools.org/washington-dc/washington/75-Drew-Elementary-School/?utm_source=GSAPI&utm_medium=referral,2.0,1.0,District Of Columbia Public Schools,1100030.0,20019
57,202,Dupont Park  Adventist School,private,PK-10,221.0,4.0,Washington,DC,"3942 Alabama Avenue Southeast, 
Washington, DC  20020",(202) 583-8500,,www.dupontparkadventistschool.org,00253914,38.868855,-76.948166,https://www.greatschools.org/washington-dc/washington/202-Dupont-Park--Adventist-School/?utm_source=GSAPI&utm_medium=referral,https://www.greatschools.org/washington-dc/washington/202-Dupont-Park--Adventist-School/?utm_source=GSAPI&utm_medium=referral,https://www.greatschools.org/washington-dc/washington/202-Dupont-Park--Adventist-School/?utm_source=GSAPI&utm_medium=referral#Reviews,https://www.greatschools.org/washington-dc/washington/202-Dupont-Park--Adventist-School/?utm_source=GSAPI&utm_medium=referral,,,,,20020
58,1199,E.L. Haynes PCS - Kansas Avenue (Elementary School),charter,PK-4,327.0,,Washington,DC,"4501 Kansas Avenue Northwest, 
Washington, DC  20011",(202) 667-4446,,http://www.elhaynes.org,110004300472,38.94573,-77.0224,https://www.greatschools.org/washington-dc/washington/1199-E.L.-Haynes-PCS---Kansas-Avenue-(Elementary-School)/?utm_source=GSAPI&utm_medium=referral,https://www.greatschools.org/washington-dc/washington/1199-E.L.-Haynes-PCS---Kansas-Avenue-(Elementary-School)/?utm_source=GSAPI&utm_medium=referral,https://www.greatschools.org/washington-dc/washington/1199-E.L.-Haynes-PCS---Kansas-Avenue-(Elementary-School)/?utm_source=GSAPI&utm_medium=referral#Reviews,https://www.greatschools.org/washington-dc/washington/1199-E.L.-Haynes-PCS---Kansas-Avenue-(Elementary-School)/?utm_source=GSAPI&utm_medium=referral,8.0,81.0,E.L. Haynes Pcs,1100043.0,20011
59,843,Eagle Academy PCS - Capitol Riverfront,charter,PK-3,138.0,4.0,Washington,DC,"1017 New Jersey Avenue Southeast, 
Washington, DC  20003",(202) 459-6825,(202) 479-6796,http://www.eagleacademypcs.org,110004900434,38.877792,-77.00512,https://www.greatschools.org/washington-dc/washington/843-Eagle-Academy-PCS---Capitol-Riverfront/?utm_source=GSAPI&utm_medium=referral,https://www.greatschools.org/washington-dc/washington/843-Eagle-Academy-PCS---Capitol-Riverfront/?utm_source=GSAPI&utm_medium=referral,https://www.greatschools.org/washington-dc/washington/843-Eagle-Academy-PCS---Capitol-Riverfront/?utm_source=GSAPI&utm_medium=referral#Reviews,https://www.greatschools.org/washington-dc/washington/843-Eagle-Academy-PCS---Capitol-Riverfront/?utm_source=GSAPI&utm_medium=referral,,45.0,Eagle Academy Pcs,1100049.0,20003
60,340,Eagle Academy PCS at Congress Heights,charter,PK-3,770.0,5.0,Washington,DC,"3400 Wheeler Road Southeast, 
Washington, DC  20032",(202) 544-2646,(202) 544-0187,http://www.eagleacademypcs.org,110004900278,38.840256,-76.9927,https://www.greatschools.org/washington-dc/washington/340-Eagle-Academy-PCS-At-Congress-Heights/?utm_source=GSAPI&utm_medium=referral,https://www.greatschools.org/washington-dc/washington/340-Eagle-Academy-PCS-At-Congress-Heights/?utm_source=GSAPI&utm_medium=referral,https://www.greatschools.org/washington-dc/washington/340-Eagle-Academy-PCS-At-Congress-Heights/?utm_source=GSAPI&utm_medium=referral#Reviews,https://www.greatschools.org/washington-dc/washington/340-Eagle-Academy-PCS-At-Congress-Heights/?utm_source=GSAPI&utm_medium=referral,5.0,45.0,Eagle Academy Pcs,1100049.0,20032
61,382,Early Childhood Academy PCS - Johenning,charter,PK-3,262.0,4.0,Washington,DC,"4025 9th Street Southeast, 
Washington, DC  20032",(202) 373-0035,(202) 373-5586,http://www.ecapcs.org,110005700431,38.831738,-76.99054,https://www.greatschools.org/washington-dc/washington/382-Early-Childhood-Academy-PCS---Johenning/?utm_source=GSAPI&utm_medium=referral,https://www.greatschools.org/washington-dc/washington/382-Early-Childhood-Academy-PCS---Johenning/?utm_source=GSAPI&utm_medium=referral,https://www.greatschools.org/washington-dc/washington/382-Early-Childhood-Academy-PCS---Johenning/?utm_source=GSAPI&utm_medium=referral#Reviews,https://www.greatschools.org/washington-dc/washington/382-Early-Childhood-Academy-PCS---Johenning/?utm_source=GSAPI&utm_medium=referral,,56.0,Early Childhood Academy Pcs,1100057.0,20032
62,74,Eaton Elementary School,public,PK-5,459.0,4.0,Washington,DC,"3301 Lowell Street Northwest, 
Washington, DC  20008",(202) 282-0103,(202) 282-0074,http://www.dcps.dc.gov,110003000096,38.932785,-77.06553,https://www.greatschools.org/washington-dc/washington/74-Eaton-Elementary-School/?utm_source=GSAPI&utm_medium=referral,https://www.greatschools.org/washington-dc/washington/74-Eaton-Elementary-School/?utm_source=GSAPI&utm_medium=referral,https://www.greatschools.org/washington-dc/washington/74-Eaton-Elementary-School/?utm_source=GSAPI&utm_medium=referral#Reviews,https://www.greatschools.org/washington-dc/washington/74-Eaton-Elementary-School/?utm_source=GSAPI&utm_medium=referral,10.0,1.0,District Of Columbia Public Schools,1100030.0,20008
63,256,Elsie Whitlow Stokes Community Freedom PCS,charter,PK-5,350.0,5.0,Washington,DC,"3700 Oakview Terrace Northeast, 
Washington, DC  20017",(202) 265-7237,,http://www.ewstokes.org,110000900223,38.934917,-76.99009,https://www.greatschools.org/washington-dc/washington/256-Elsie-Whitlow-Stokes-Community-Freedom-PCS/?utm_source=GSAPI&utm_medium=referral,https://www.greatschools.org/washington-dc/washington/256-Elsie-Whitlow-Stokes-Community-Freedom-PCS/?utm_source=GSAPI&utm_medium=referral,https://www.greatschools.org/washington-dc/washington/256-Elsie-Whitlow-Stokes-Community-Freedom-PCS/?utm_source=GSAPI&utm_medium=referral#Reviews,https://www.greatschools.org/washington-dc/washington/256-Elsie-Whitlow-Stokes-Community-Freedom-PCS/?utm_source=GSAPI&utm_medium=referral,6.0,105.0,Elsie Whitlow Stokes Communtiy Freedom Pcs,1100009.0,20017
64,602,Excel Academy PCS,charter,PK-8,630.0,4.0,Washington,DC,"2501 Martin Luther King Junior Avenue Southeast, 
Washington, DC  20020",(202) 373-0097,(202) 373-0477,http://excelpubliccharterschool.org,110007600408,38.859917,-76.9954,https://www.greatschools.org/washington-dc/washington/602-Excel-Academy-PCS/?utm_source=GSAPI&utm_medium=referral,https://www.greatschools.org/washington-dc/washington/602-Excel-Academy-PCS/?utm_source=GSAPI&utm_medium=referral,https://www.greatschools.org/washington-dc/washington/602-Excel-Academy-PCS/?utm_source=GSAPI&utm_medium=referral#Reviews,https://www.greatschools.org/washington-dc/washington/602-Excel-Academy-PCS/?utm_source=GSAPI&utm_medium=referral,4.0,120.0,Excel Academy Pcs,1100076.0,20020
65,1235,Friendship PCS Armstrong,charter,PK-5,,,Washington,DC,"1400 1st Street Northwest, 
Washington, DC  20001",(202) 572-1070,,http://www.friendshipschools.org,110000800497,38.909046,-77.01322,https://www.greatschools.org/washington-dc/washington/1235-Friendship-PCS-Armstrong/?utm_source=GSAPI&utm_medium=referral,https://www.greatschools.org/washington-dc/washington/1235-Friendship-PCS-Armstrong/?utm_source=GSAPI&utm_medium=referral,https://www.greatschools.org/washington-dc/washington/1235-Friendship-PCS-Armstrong/?utm_source=GSAPI&utm_medium=referral#Reviews,https://www.greatschools.org/washington-dc/washington/1235-Friendship-PCS-Armstrong/?utm_source=GSAPI&utm_medium=referral,4.0,82.0,Friendship Pcs,1100008.0,20001
66,1209,Friendship PCS Blow Pierce Elementary,charter,PK-3,,,Washington,DC,"725 19th Street Northeast, 
Washington, DC  20002",(202) 572-1070,,http://www.friendshipschools.org,110000800479,38.8979,-76.97658,https://www.greatschools.org/washington-dc/washington/1209-Friendship-PCS-Blow-Pierce-Elementary/?utm_source=GSAPI&utm_medium=referral,https://www.greatschools.org/washington-dc/washington/1209-Friendship-PCS-Blow-Pierce-Elementary/?utm_source=GSAPI&utm_medium=referral,https://www.greatschools.org/washington-dc/washington/1209-Friendship-PCS-Blow-Pierce-Elementary/?utm_source=GSAPI&utm_medium=referral#Reviews,https://www.greatschools.org/washington-dc/washington/1209-Friendship-PCS-Blow-Pierce-Elementary/?utm_source=GSAPI&utm_medium=referral,,82.0,Friendship Pcs,1100008.0,20002
67,1210,Friendship PCS Blow-Pierce Middle,charter,4-8,,,Washington,DC,"725 19th Street Northeast, 
Washington, DC  20002",(202) 572-1070,,http://www.friendshipschools.org,110000800478,38.8979,-76.97658,https://www.greatschools.org/washington-dc/washington/1210-Friendship-PCS-Blow-Pierce-Middle/?utm_source=GSAPI&utm_medium=referral,https://www.greatschools.org/washington-dc/washington/1210-Friendship-PCS-Blow-Pierce-Middle/?utm_source=GSAPI&utm_medium=referral,https://www.greatschools.org/washington-dc/washington/1210-Friendship-PCS-Blow-Pierce-Middle/?utm_source=GSAPI&utm_medium=referral#Reviews,https://www.greatschools.org/washington-dc/washington/1210-Friendship-PCS-Blow-Pierce-Middle/?utm_source=GSAPI&utm_medium=referral,6.0,82.0,Friendship Pcs,1100008.0,20002
68,1211,Friendship PCS Chamberlain Elementary,charter,PK-3,,,Washington,DC,"1345 Potomac Avenue Southeast, 
Washington, DC  20003",(202) 547-5800,,http://www.friendshipschools.org,110000800480,38.879528,-76.9868,https://www.greatschools.org/washington-dc/washington/1211-Friendship-PCS-Chamberlain-Elementary/?utm_source=GSAPI&utm_medium=referral,https://www.greatschools.org/washington-dc/washington/1211-Friendship-PCS-Chamberlain-Elementary/?utm_source=GSAPI&utm_medium=referral,https://www.greatschools.org/washington-dc/washington/1211-Friendship-PCS-Chamberlain-Elementary/?utm_source=GSAPI&utm_medium=referral#Reviews,https://www.greatschools.org/washington-dc/washington/1211-Friendship-PCS-Chamberlain-Elementary/?utm_source=GSAPI&utm_medium=referral,,82.0,Friendship Pcs,1100008.0,20003
69,1212,Friendship PCS Chamberlain Middle,charter,4-8,,,Washington,DC,"1345 Potomac Avenue Southeast, 
Washington, DC  20003",(202) 547-5800,,http://www.friendshipschools.org,110000800483,38.879528,-76.9868,https://www.greatschools.org/washington-dc/washington/1212-Friendship-PCS-Chamberlain-Middle/?utm_source=GSAPI&utm_medium=referral,https://www.greatschools.org/washington-dc/washington/1212-Friendship-PCS-Chamberlain-Middle/?utm_source=GSAPI&utm_medium=referral,https://www.greatschools.org/washington-dc/washington/1212-Friendship-PCS-Chamberlain-Middle/?utm_source=GSAPI&utm_medium=referral#Reviews,https://www.greatschools.org/washington-dc/washington/1212-Friendship-PCS-Chamberlain-Middle/?utm_source=GSAPI&utm_medium=referral,7.0,82.0,Friendship Pcs,1100008.0,20003
70,562,Friendship PCS Online,charter,K-8,132.0,5.0,Washington,DC,"1351 Nicholson Street Northwest, 
Washington, DC  20011",(202) 281-1700,,http://www.friendshipschools.org,110000800495,38.960472,-77.03159,https://www.greatschools.org/washington-dc/washington/562-Friendship-PCS-Online/?utm_source=GSAPI&utm_medium=referral,https://www.greatschools.org/washington-dc/washington/562-Friendship-PCS-Online/?utm_source=GSAPI&utm_medium=referral,https://www.greatschools.org/washington-dc/washington/562-Friendship-PCS-Online/?utm_source=GSAPI&utm_medium=referral#Reviews,https://www.greatschools.org/washington-dc/washington/562-Friendship-PCS-Online/?utm_source=GSAPI&utm_medium=referral,,82.0,Friendship Pcs,1100008.0,20011
71,1213,Friendship PCS Woodridge Elementary,charter,PK-3,,,Washington,DC,"2959 Carlton Avenue Northeast, 
Washington, DC  20018",(202) 635-6500,,http://www.friendshipschools.org,110000800482,38.929688,-76.96664,https://www.greatschools.org/washington-dc/washington/1213-Friendship-PCS-Woodridge-Elementary/?utm_source=GSAPI&utm_medium=referral,https://www.greatschools.org/washington-dc/washington/1213-Friendship-PCS-Woodridge-Elementary/?utm_source=GSAPI&utm_medium=referral,https://www.greatschools.org/washington-dc/washington/1213-Friendship-PCS-Woodridge-Elementary/?utm_source=GSAPI&utm_medium=referral#Reviews,https://www.greatschools.org/washington-dc/washington/1213-Friendship-PCS-Woodridge-Elementary/?utm_source=GSAPI&utm_medium=referral,,82.0,Friendship Pcs,1100008.0,20018
72,1214,Friendship PCS Woodridge Middle,charter,4-8,,,Washington,DC,"2959 Carlton Avenue Northeast, 
Washington, DC  20018",(202) 635-6500,,http://www.friendshipschools.org,110000800481,38.929688,-76.96664,https://www.greatschools.org/washington-dc/washington/1214-Friendship-PCS-Woodridge-Middle/?utm_source=GSAPI&utm_medium=referral,https://www.greatschools.org/washington-dc/washington/1214-Friendship-PCS-Woodridge-Middle/?utm_source=GSAPI&utm_medium=referral,https://www.greatschools.org/washington-dc/washington/1214-Friendship-PCS-Woodridge-Middle/?utm_source=GSAPI&utm_medium=referral#Reviews,https://www.greatschools.org/washington-dc/washington/1214-Friendship-PCS-Woodridge-Middle/?utm_source=GSAPI&utm_medium=referral,5.0,82.0,Friendship Pcs,1100008.0,20018
73,270,Friendship Southeast Elementary Academy PCS,charter,PK-5,551.0,3.0,Washington,DC,"645 Milwaukee Place Southeast, 
Washington, DC  20032",(202) 562-1980,(202) 562-0726,http://www.friendshipschools.org,110000800382,38.847694,-76.99697,https://www.greatschools.org/washington-dc/washington/270-Friendship-Southeast-Elementary-Academy-PCS/?utm_source=GSAPI&utm_medium=referral,https://www.greatschools.org/washington-dc/washington/270-Friendship-Southeast-Elementary-Academy-PCS/?utm_source=GSAPI&utm_medium=referral,https://www.greatschools.org/washington-dc/washington/270-Friendship-Southeast-Elementary-Academy-PCS/?utm_source=GSAPI&utm_medium=referral#Reviews,https://www.greatschools.org/washington-dc/washington/270-Friendship-Southeast-Elementary-Academy-PCS/?utm_source=GSAPI&utm_medium=referral,3.0,82.0,Friendship Pcs,1100008.0,20032
74,130,Garfield Elementary School,public,PK-5,245.0,5.0,Washington,DC,"2435 Alabama Avenue Southeast, 
Washington, DC  20020",(202) 671-6140,(202) 698-1614,http://www.dcps.dc.gov,110003000165,38.851547,-76.97038,https://www.greatschools.org/washington-dc/washington/130-Garfield-Elementary-School/?utm_source=GSAPI&utm_medium=referral,https://www.greatschools.org/washington-dc/washington/130-Garfield-Elementary-School/?utm_source=GSAPI&utm_medium=referral,https://www.greatschools.org/washington-dc/washington/130-Garfield-Elementary-School/?utm_source=GSAPI&utm_medium=referral#Reviews,https://www.greatschools.org/washington-dc/washington/130-Garfield-Elementary-School/?utm_source=GSAPI&utm_medium=referral,5.0,1.0,District Of Columbia Public Schools,1100030.0,20020
75,134,Garrison Elementary School,public,PK-5,228.0,4.0,Washington,DC,"1200 S Street Northwest, 
Washington, DC  20009",(202) 673-7263,(202) 673-6828,http://www.dcps.dc.gov,110003000171,38.91375,-77.0286,https://www.greatschools.org/washington-dc/washington/134-Garrison-Elementary-School/?utm_source=GSAPI&utm_medium=referral,https://www.greatschools.org/washington-dc/washington/134-Garrison-Elementary-School/?utm_source=GSAPI&utm_medium=referral,https://www.greatschools.org/washington-dc/washington/134-Garrison-Elementary-School/?utm_source=GSAPI&utm_medium=referral#Reviews,https://www.greatschools.org/washington-dc/washington/134-Garrison-Elementary-School/?utm_source=GSAPI&utm_medium=referral,3.0,1.0,District Of Columbia Public Schools,1100030.0,20009
76,248,Georgetown Day School - Lower/Middle School,private,PK-8,550.0,4.0,Washington,DC,"4530 MacArthur Blvd, NW, Washington, DC, 
Washington, DC  20007",(202) 295-6200,(202) 295-6151,http://www.gds.org,Y9101619,38.907974,-77.08619,https://www.greatschools.org/washington-dc/washington/248-Georgetown-Day-School---Lower-Middle-School/?utm_source=GSAPI&utm_medium=referral,https://www.greatschools.org/washington-dc/washington/248-Georgetown-Day-School---Lower-Middle-School/?utm_source=GSAPI&utm_medium=referral,https://www.greatschools.org/washington-dc/washington/248-Georgetown-Day-School---Lower-Middle-School/?utm_source=GSAPI&utm_medium=referral#Reviews,https://www.greatschools.org/washington-dc/washington/248-Georgetown-Day-School---Lower-Middle-School/?utm_source=GSAPI&utm_medium=referral,,,,,20007
77,78,H.D. Cooke Elementary School,public,PK-5,388.0,4.0,Washington,DC,"2525 17th Street Northwest, 
Washington, DC  20009",(202) 939-5390,(202) 671-2757,http://www.dcps.dc.gov,110003000100,38.923836,-77.03873,https://www.greatschools.org/washington-dc/washington/78-H.D.-Cooke-Elementary-School/?utm_source=GSAPI&utm_medium=referral,https://www.greatschools.org/washington-dc/washington/78-H.D.-Cooke-Elementary-School/?utm_source=GSAPI&utm_medium=referral,https://www.greatschools.org/washington-dc/washington/78-H.D.-Cooke-Elementary-School/?utm_source=GSAPI&utm_medium=referral#Reviews,https://www.greatschools.org/washington-dc/washington/78-H.D.-Cooke-Elementary-School/?utm_source=GSAPI&utm_medium=referral,6.0,1.0,District Of Columbia Public Schools,1100030.0,20009
78,1216,Harmony DC Public Charter Schools,charter,K-5,200.0,4.0,Washington,DC,"62 T Street, 
Washington, DC  20002",(202) 529-7500,(202) 529-7501,www.harmonydc.org,110009600491,38.91606,-77.006676,https://www.greatschools.org/washington-dc/washington/1216-Harmony-DC-Public-Charter-Schools/?utm_source=GSAPI&utm_medium=referral,https://www.greatschools.org/washington-dc/washington/1216-Harmony-DC-Public-Charter-Schools/?utm_source=GSAPI&utm_medium=referral,https://www.greatschools.org/washington-dc/washington/1216-Harmony-DC-Public-Charter-Schools/?utm_source=GSAPI&utm_medium=referral#Reviews,https://www.greatschools.org/washington-dc/washington/1216-Harmony-DC-Public-Charter-Schools/?utm_source=GSAPI&utm_medium=referral,3.0,139.0,Harmony DC Public Charter School,,20002
79,144,Hearst Elementary School,public,PK-5,300.0,4.0,Washington,DC,"3950 37th Street Northwest, 
Washington, DC  20008",(202) 282-0106,(202) 282-2303,http://www.dcps.dc.gov,110003000183,38.940536,-77.071754,https://www.greatschools.org/washington-dc/washington/144-Hearst-Elementary-School/?utm_source=GSAPI&utm_medium=referral,https://www.greatschools.org/washington-dc/washington/144-Hearst-Elementary-School/?utm_source=GSAPI&utm_medium=referral,https://www.greatschools.org/washington-dc/washington/144-Hearst-Elementary-School/?utm_source=GSAPI&utm_medium=referral#Reviews,https://www.greatschools.org/washington-dc/washington/144-Hearst-Elementary-School/?utm_source=GSAPI&utm_medium=referral,8.0,1.0,District Of Columbia Public Schools,1100030.0,20008
80,143,Hendley Elementary School,public,PK-5,339.0,3.0,Washington,DC,"425 Chesapeake Street Southeast, 
Washington, DC  20032",(202) 645-3450,(202) 645-7098,http://www.dcps.dc.gov,110003000182,38.828815,-76.99954,https://www.greatschools.org/washington-dc/washington/143-Hendley-Elementary-School/?utm_source=GSAPI&utm_medium=referral,https://www.greatschools.org/washington-dc/washington/143-Hendley-Elementary-School/?utm_source=GSAPI&utm_medium=referral,https://www.greatschools.org/washington-dc/washington/143-Hendley-Elementary-School/?utm_source=GSAPI&utm_medium=referral#Reviews,https://www.greatschools.org/washington-dc/washington/143-Hendley-Elementary-School/?utm_source=GSAPI&utm_medium=referral,2.0,1.0,District Of Columbia Public Schools,1100030.0,20032
81,576,High Road Middle School of Washington,private,n/a,31.0,,Washington,DC,"1530 First Street, SW, 
Washington, DC  20001",(202) 479-0089,(202) 479-4709,,,38.910564,-77.012436,https://www.greatschools.org/washington-dc/washington/576-High-Road-Middle-School-Of-Washington/?utm_source=GSAPI&utm_medium=referral,https://www.greatschools.org/washington-dc/washington/576-High-Road-Middle-School-Of-Washington/?utm_source=GSAPI&utm_medium=referral,https://www.greatschools.org/washington-dc/washington/576-High-Road-Middle-School-Of-Washington/?utm_source=GSAPI&utm_medium=referral#Reviews,https://www.greatschools.org/washington-dc/washington/576-High-Road-Middle-School-Of-Washington/?utm_source=GSAPI&utm_medium=referral,,,,,20001
82,586,"High Road Primary Academy of Washington, DC",private,1-6 & ungraded,6.0,,Washington,DC,"1530 First Street SW, 
Washington, DC  20011",(202) 479-0089,(202) 479-4709,www.highroadschool.com,,38.87121,-77.01171,"https://www.greatschools.org/washington-dc/washington/586-High-Road-Primary-Academy-Of-Washington,-DC/?utm_source=GSAPI&utm_medium=referral","https://www.greatschools.org/washington-dc/washington/586-High-Road-Primary-Academy-Of-Washington,-DC/?utm_source=GSAPI&utm_medium=referral","https://www.greatschools.org/washington-dc/washington/586-High-Road-Primary-Academy-Of-Washington,-DC/?utm_source=GSAPI&utm_medium=referral#Reviews","https://www.greatschools.org/washington-dc/washington/586-High-Road-Primary-Academy-Of-Washington,-DC/?utm_source=GSAPI&utm_medium=referral",,,,,20011
83,169,Holy Trinity Catholic School,private,PK-8,320.0,5.0,Washington,DC,"1325 36th St, 
Washington, DC  20007",(202) 337-2339,(202) 337-0368,www.htsdc.org,00252717,38.907433,-77.06995,https://www.greatschools.org/washington-dc/washington/169-Holy-Trinity-Catholic-School/?utm_source=GSAPI&utm_medium=referral,https://www.greatschools.org/washington-dc/washington/169-Holy-Trinity-Catholic-School/?utm_source=GSAPI&utm_medium=referral,https://www.greatschools.org/washington-dc/washington/169-Holy-Trinity-Catholic-School/?utm_source=GSAPI&utm_medium=referral#Reviews,https://www.greatschools.org/washington-dc/washington/169-Holy-Trinity-Catholic-School/?utm_source=GSAPI&utm_medium=referral,,,,,20007
84,563,Hope Community PCS - Lamond,charter,PK-5,392.0,3.0,Washington,DC,"6200 Kansas Avenue Northeast, 
Washington, DC  20011",(202) 722-4421,(202) 722-4431,http://www.imaginehopelamond.com,110005100301,38.965847,-77.008675,https://www.greatschools.org/washington-dc/washington/563-Hope-Community-PCS---Lamond/?utm_source=GSAPI&utm_medium=referral,https://www.greatschools.org/washington-dc/washington/563-Hope-Community-PCS---Lamond/?utm_source=GSAPI&utm_medium=referral,https://www.greatschools.org/washington-dc/washington/563-Hope-Community-PCS---Lamond/?utm_source=GSAPI&utm_medium=referral#Reviews,https://www.greatschools.org/washington-dc/washington/563-Hope-Community-PCS---Lamond/?utm_source=GSAPI&utm_medium=referral,6.0,83.0,Hope Community Academy Pcs,1100051.0,20011
85,603,Hope Community PCS - Tolson,charter,PK-8,432.0,3.0,Washington,DC,"2917 8th Street Northeast, 
Washington, DC  20017",(202) 832-7370,(202) 832-7644,http://www.hopecommunitycs.org,110005100386,38.927048,-76.99464,https://www.greatschools.org/washington-dc/washington/603-Hope-Community-PCS---Tolson/?utm_source=GSAPI&utm_medium=referral,https://www.greatschools.org/washington-dc/washington/603-Hope-Community-PCS---Tolson/?utm_source=GSAPI&utm_medium=referral,https://www.greatschools.org/washington-dc/washington/603-Hope-Community-PCS---Tolson/?utm_source=GSAPI&utm_medium=referral#Reviews,https://www.greatschools.org/washington-dc/washington/603-Hope-Community-PCS---Tolson/?utm_source=GSAPI&utm_medium=referral,4.0,83.0,Hope Community Academy Pcs,1100051.0,20017
86,142,Houston Elementary School,public,PK-5,238.0,4.0,Washington,DC,"1100 50th Place Northeast, 
Washington, DC  20019",(202) 671-6170,(202) 724-4625,http://www.dcps.dc.gov,110003000181,38.905567,-76.92996,https://www.greatschools.org/washington-dc/washington/142-Houston-Elementary-School/?utm_source=GSAPI&utm_medium=referral,https://www.greatschools.org/washington-dc/washington/142-Houston-Elementary-School/?utm_source=GSAPI&utm_medium=referral,https://www.greatschools.org/washington-dc/washington/142-Houston-Elementary-School/?utm_source=GSAPI&utm_medium=referral#Reviews,https://www.greatschools.org/washington-dc/washington/142-Houston-Elementary-School/?utm_source=GSAPI&utm_medium=referral,3.0,1.0,District Of Columbia Public Schools,1100030.0,20019
87,141,Hyde-Addison Elementary School,public,PK-5,332.0,5.0,Washington,DC,"3219 O Street Northwest, 
Washington, DC  20007",(202) 282-0170,(202) 282-0087,http://www.dcps.dc.gov,110003000180,38.9082,-77.06481,https://www.greatschools.org/washington-dc/washington/141-Hyde-Addison-Elementary-School/?utm_source=GSAPI&utm_medium=referral,https://www.greatschools.org/washington-dc/washington/141-Hyde-Addison-Elementary-School/?utm_source=GSAPI&utm_medium=referral,https://www.greatschools.org/washington-dc/washington/141-Hyde-Addison-Elementary-School/?utm_source=GSAPI&utm_medium=referral#Reviews,https://www.greatschools.org/washington-dc/washington/141-Hyde-Addison-Elementary-School/?utm_source=GSAPI&utm_medium=referral,8.0,1.0,District Of Columbia Public Schools,1100030.0,20007
88,1223,IQRA Prep Academy,private,K-12,160.0,,Washington,DC,"1050 Connecticut Ave NW, 
Washington, DC  20035",(202) 659-4772,(202) 446-0893,www.iqraprepacademy.com,,38.903385,-77.04083,https://www.greatschools.org/washington-dc/washington/1223-IQRA-Prep-Academy/?utm_source=GSAPI&utm_medium=referral,https://www.greatschools.org/washington-dc/washington/1223-IQRA-Prep-Academy/?utm_source=GSAPI&utm_medium=referral,https://www.greatschools.org/washington-dc/washington/1223-IQRA-Prep-Academy/?utm_source=GSAPI&utm_medium=referral#Reviews,https://www.greatschools.org/washington-dc/washington/1223-IQRA-Prep-Academy/?utm_source=GSAPI&utm_medium=referral,,,,,20035
89,259,Ideal Academy PCS,charter,PK-8,280.0,3.0,Washington,DC,"6130 North Capitol Street Northwest, 
Washington, DC  20011",(202) 729-6660,(202) 729-6677,http://www.iapcs.com,110001200401,38.965076,-77.01008,https://www.greatschools.org/washington-dc/washington/259-Ideal-Academy-PCS/?utm_source=GSAPI&utm_medium=referral,https://www.greatschools.org/washington-dc/washington/259-Ideal-Academy-PCS/?utm_source=GSAPI&utm_medium=referral,https://www.greatschools.org/washington-dc/washington/259-Ideal-Academy-PCS/?utm_source=GSAPI&utm_medium=referral#Reviews,https://www.greatschools.org/washington-dc/washington/259-Ideal-Academy-PCS/?utm_source=GSAPI&utm_medium=referral,3.0,89.0,Ideal Academy Pcs,1100012.0,20011
90,876,Ingenuity Prep,charter,PK-3,496.0,5.0,Washington,DC,"4600 Livingston Road SE, 
Washington, DC  20001",(202) 562-0391,(202) 562-0395,www.ingenuityprep.org,110009000460,38.823624,-77.00284,https://www.greatschools.org/washington-dc/washington/876-Ingenuity-Prep/?utm_source=GSAPI&utm_medium=referral,https://www.greatschools.org/washington-dc/washington/876-Ingenuity-Prep/?utm_source=GSAPI&utm_medium=referral,https://www.greatschools.org/washington-dc/washington/876-Ingenuity-Prep/?utm_source=GSAPI&utm_medium=referral#Reviews,https://www.greatschools.org/washington-dc/washington/876-Ingenuity-Prep/?utm_source=GSAPI&utm_medium=referral,,128.0,Ingenuity Preparatory Pcs,1100090.0,20001
91,839,Inspired Teaching Demonstration PCS,charter,PK-8,470.0,4.0,Washington,DC,"200 Douglas Street NE, 
Washington, DC  20002",(202) 248-6825,(202) 248-6939,www.inspiredteachingschool.org,110008000437,38.923676,-77.002785,https://www.greatschools.org/washington-dc/washington/839-Inspired-Teaching-Demonstration-PCS/?utm_source=GSAPI&utm_medium=referral,https://www.greatschools.org/washington-dc/washington/839-Inspired-Teaching-Demonstration-PCS/?utm_source=GSAPI&utm_medium=referral,https://www.greatschools.org/washington-dc/washington/839-Inspired-Teaching-Demonstration-PCS/?utm_source=GSAPI&utm_medium=referral#Reviews,https://www.greatschools.org/washington-dc/washington/839-Inspired-Teaching-Demonstration-PCS/?utm_source=GSAPI&utm_medium=referral,8.0,121.0,Inspired Teaching Demonstration Pcs,1100080.0,20002
92,46,J.O. Wilson Elementary School,public,PK-5,408.0,5.0,Washington,DC,"660 K Street Northeast, 
Washington, DC  20002",(202) 698-4733,(202) 698-4727,http://www.dcps.dc.gov,110003000062,38.9029,-76.996796,https://www.greatschools.org/washington-dc/washington/46-J.O.-Wilson-Elementary-School/?utm_source=GSAPI&utm_medium=referral,https://www.greatschools.org/washington-dc/washington/46-J.O.-Wilson-Elementary-School/?utm_source=GSAPI&utm_medium=referral,https://www.greatschools.org/washington-dc/washington/46-J.O.-Wilson-Elementary-School/?utm_source=GSAPI&utm_medium=referral#Reviews,https://www.greatschools.org/washington-dc/washington/46-J.O.-Wilson-Elementary-School/?utm_source=GSAPI&utm_medium=referral,5.0,1.0,District Of Columbia Public Schools,1100030.0,20002
93,140,Janney Elementary School,public,PK-5,599.0,5.0,Washington,DC,"4130 Albemarle Street Northwest, 
Washington, DC  20016",(202) 282-0110,(202) 282-0112,http://www.dcps.dc.gov,110003000179,38.947582,-77.08122,https://www.greatschools.org/washington-dc/washington/140-Janney-Elementary-School/?utm_source=GSAPI&utm_medium=referral,https://www.greatschools.org/washington-dc/washington/140-Janney-Elementary-School/?utm_source=GSAPI&utm_medium=referral,https://www.greatschools.org/washington-dc/washington/140-Janney-Elementary-School/?utm_source=GSAPI&utm_medium=referral#Reviews,https://www.greatschools.org/washington-dc/washington/140-Janney-Elementary-School/?utm_source=GSAPI&utm_medium=referral,10.0,1.0,District Of Columbia Public Schools,1100030.0,20016
94,341,Jewish Primary Day School of the Nation's Capital,private,PK-6,273.0,5.0,Washington,DC,"6045 16th St NW, 
Washington, DC  20011",(202) 291-5737,(202) 291-9750,http://www.jpds.org,A0103989,38.96403,-77.0359,https://www.greatschools.org/washington-dc/washington/341-Jewish-Primary-Day-School-Of-The-Nation's-Capital/?utm_source=GSAPI&utm_medium=referral,https://www.greatschools.org/washington-dc/washington/341-Jewish-Primary-Day-School-Of-The-Nation's-Capital/?utm_source=GSAPI&utm_medium=referral,https://www.greatschools.org/washington-dc/washington/341-Jewish-Primary-Day-School-Of-The-Nation's-Capital/?utm_source=GSAPI&utm_medium=referral#Reviews,https://www.greatschools.org/washington-dc/washington/341-Jewish-Primary-Day-School-Of-The-Nation's-Capital/?utm_source=GSAPI&utm_medium=referral,,,,,20011
95,851,KIPP DC - Heights Academy PCS,charter,1-4,453.0,,Washington,DC,"2600 Douglass Road Southeast, 
Washington, DC  20020",(202) 610-5323,,http://www.kippdc.org,110003100452,38.856335,-76.98864,https://www.greatschools.org/washington-dc/washington/851-KIPP-DC---Heights-Academy-PCS/?utm_source=GSAPI&utm_medium=referral,https://www.greatschools.org/washington-dc/washington/851-KIPP-DC---Heights-Academy-PCS/?utm_source=GSAPI&utm_medium=referral,https://www.greatschools.org/washington-dc/washington/851-KIPP-DC---Heights-Academy-PCS/?utm_source=GSAPI&utm_medium=referral#Reviews,https://www.greatschools.org/washington-dc/washington/851-KIPP-DC---Heights-Academy-PCS/?utm_source=GSAPI&utm_medium=referral,7.0,91.0,KIPP DC,1100031.0,20020
96,872,KIPP DC - LEAD Academy PCS,charter,1-4,,,Washington,DC,"421 P Street Northwest, 
Washington, DC  20001",(202) 233-4505,(202) 223-4504,http://www.kippdc.org,110003100463,38.909943,-77.01813,https://www.greatschools.org/washington-dc/washington/872-KIPP-DC---LEAD-Academy-PCS/?utm_source=GSAPI&utm_medium=referral,https://www.greatschools.org/washington-dc/washington/872-KIPP-DC---LEAD-Academy-PCS/?utm_source=GSAPI&utm_medium=referral,https://www.greatschools.org/washington-dc/washington/872-KIPP-DC---LEAD-Academy-PCS/?utm_source=GSAPI&utm_medium=referral#Reviews,https://www.greatschools.org/washington-dc/washington/872-KIPP-DC---LEAD-Academy-PCS/?utm_source=GSAPI&utm_medium=referral,6.0,91.0,KIPP DC,1100031.0,20001
97,611,KIPP DC - Promise Academy PCS,charter,K-4,413.0,5.0,Washington,DC,"4801 Benning Road Southeast, 
Washington, DC  20019",(202) 582-1390,,http://www.kippdc.org,110003100419,38.88251,-76.934326,https://www.greatschools.org/washington-dc/washington/611-KIPP-DC---Promise-Academy-PCS/?utm_source=GSAPI&utm_medium=referral,https://www.greatschools.org/washington-dc/washington/611-KIPP-DC---Promise-Academy-PCS/?utm_source=GSAPI&utm_medium=referral,https://www.greatschools.org/washington-dc/washington/611-KIPP-DC---Promise-Academy-PCS/?utm_source=GSAPI&utm_medium=referral#Reviews,https://www.greatschools.org/washington-dc/washington/611-KIPP-DC---Promise-Academy-PCS/?utm_source=GSAPI&utm_medium=referral,9.0,91.0,KIPP DC,1100031.0,20019
98,1227,KIPP DC Quest PCS,charter,1-4,358.0,,Washington,DC,"5300 Blaine Street Northeast, 
Washington, DC  20019",(202) 397-5477,,http://www.kippdc.org,110003100488,38.892258,-76.9247,https://www.greatschools.org/washington-dc/washington/1227-KIPP-DC-Quest-PCS/?utm_source=GSAPI&utm_medium=referral,https://www.greatschools.org/washington-dc/washington/1227-KIPP-DC-Quest-PCS/?utm_source=GSAPI&utm_medium=referral,https://www.greatschools.org/washington-dc/washington/1227-KIPP-DC-Quest-PCS/?utm_source=GSAPI&utm_medium=referral#Reviews,https://www.greatschools.org/washington-dc/washington/1227-KIPP-DC-Quest-PCS/?utm_source=GSAPI&utm_medium=referral,7.0,91.0,KIPP DC,1100031.0,20019
99,1232,KIPP DC Spring Academy - PCS,charter,1-4,333.0,,Washington,DC,"1375 Mount Olivet Road Northeast, 
Washington, DC  20002",(202) 397-5477,,http://www.kippdc.org,110003100469,38.907833,-76.98078,https://www.greatschools.org/washington-dc/washington/1232-KIPP-DC-Spring-Academy---PCS/?utm_source=GSAPI&utm_medium=referral,https://www.greatschools.org/washington-dc/washington/1232-KIPP-DC-Spring-Academy---PCS/?utm_source=GSAPI&utm_medium=referral,https://www.greatschools.org/washington-dc/washington/1232-KIPP-DC-Spring-Academy---PCS/?utm_source=GSAPI&utm_medium=referral#Reviews,https://www.greatschools.org/washington-dc/washington/1232-KIPP-DC-Spring-Academy---PCS/?utm_source=GSAPI&utm_medium=referral,7.0,91.0,KIPP DC,1100031.0,20002
100,357,Kendall Demonstration Elementary School,private,PK-8,94.0,3.0,Washington,DC,"800 Florida Ave NE, 
Washington, DC  20002",(202) 651-5397,,www.gallaudet.edu,A9101622,38.9053,-76.99616,https://www.greatschools.org/washington-dc/washington/357-Kendall-Demonstration-Elementary-School/?utm_source=GSAPI&utm_medium=referral,https://www.greatschools.org/washington-dc/washington/357-Kendall-Demonstration-Elementary-School/?utm_source=GSAPI&utm_medium=referral,https://www.greatschools.org/washington-dc/washington/357-Kendall-Demonstration-Elementary-School/?utm_source=GSAPI&utm_medium=referral#Reviews,https://www.greatschools.org/washington-dc/washington/357-Kendall-Demonstration-Elementary-School/?utm_source=GSAPI&utm_medium=referral,,,,,20002
101,393,Kennedy School,private,n/a,45.0,,Washington,DC,"801 Buchanan Street Northeast, 
Washington, DC  20017",(202) 281-2700,,,A0500914,38.945595,-76.99362,https://www.greatschools.org/washington-dc/washington/393-Kennedy-School/?utm_source=GSAPI&utm_medium=referral,https://www.greatschools.org/washington-dc/washington/393-Kennedy-School/?utm_source=GSAPI&utm_medium=referral,https://www.greatschools.org/washington-dc/washington/393-Kennedy-School/?utm_source=GSAPI&utm_medium=referral#Reviews,https://www.greatschools.org/washington-dc/washington/393-Kennedy-School/?utm_source=GSAPI&utm_medium=referral,,,,,20017
102,138,Ketcham Elementary School,public,PK-5,272.0,4.0,Washington,DC,"1919 15th Street Southeast, 
Washington, DC  20020",(202) 698-1122,(202) 698-1113,http://www.dcps.dc.gov,110003000176,38.86605,-76.98361,https://www.greatschools.org/washington-dc/washington/138-Ketcham-Elementary-School/?utm_source=GSAPI&utm_medium=referral,https://www.greatschools.org/washington-dc/washington/138-Ketcham-Elementary-School/?utm_source=GSAPI&utm_medium=referral,https://www.greatschools.org/washington-dc/washington/138-Ketcham-Elementary-School/?utm_source=GSAPI&utm_medium=referral#Reviews,https://www.greatschools.org/washington-dc/washington/138-Ketcham-Elementary-School/?utm_source=GSAPI&utm_medium=referral,5.0,1.0,District Of Columbia Public Schools,1100030.0,20020
103,136,Key Elementary School,public,PK-5,375.0,4.0,Washington,DC,"5001 Dana Place Northwest, 
Washington, DC  20016",(202) 729-3280,(202) 282-0188,http://www.dcps.dc.gov,110003000174,38.926804,-77.100555,https://www.greatschools.org/washington-dc/washington/136-Key-Elementary-School/?utm_source=GSAPI&utm_medium=referral,https://www.greatschools.org/washington-dc/washington/136-Key-Elementary-School/?utm_source=GSAPI&utm_medium=referral,https://www.greatschools.org/washington-dc/washington/136-Key-Elementary-School/?utm_source=GSAPI&utm_medium=referral#Reviews,https://www.greatschools.org/washington-dc/washington/136-Key-Elementary-School/?utm_source=GSAPI&utm_medium=referral,9.0,1.0,District Of Columbia Public Schools,1100030.0,20016
104,135,Kimball Elementary School,public,PK-5,289.0,3.0,Washington,DC,"3375 Minnesota Avenue Southeast, 
Washington, DC  20019",(202) 671-6260,(202) 645-3147,http://www.dcps.dc.gov,110003000173,38.88294,-76.9576,https://www.greatschools.org/washington-dc/washington/135-Kimball-Elementary-School/?utm_source=GSAPI&utm_medium=referral,https://www.greatschools.org/washington-dc/washington/135-Kimball-Elementary-School/?utm_source=GSAPI&utm_medium=referral,https://www.greatschools.org/washington-dc/washington/135-Kimball-Elementary-School/?utm_source=GSAPI&utm_medium=referral#Reviews,https://www.greatschools.org/washington-dc/washington/135-Kimball-Elementary-School/?utm_source=GSAPI&utm_medium=referral,4.0,1.0,District Of Columbia Public Schools,1100030.0,20019
105,80,King Elementary School,public,PK-5,311.0,5.0,Washington,DC,"3200 6th Street Southeast, 
Washington, DC  20032",(202) 939-4900,(202) 645-7308,http://www.dcps.dc.gov,110003000102,38.84256,-76.99819,https://www.greatschools.org/washington-dc/washington/80-King-Elementary-School/?utm_source=GSAPI&utm_medium=referral,https://www.greatschools.org/washington-dc/washington/80-King-Elementary-School/?utm_source=GSAPI&utm_medium=referral,https://www.greatschools.org/washington-dc/washington/80-King-Elementary-School/?utm_source=GSAPI&utm_medium=referral#Reviews,https://www.greatschools.org/washington-dc/washington/80-King-Elementary-School/?utm_source=GSAPI&utm_medium=referral,3.0,1.0,District Of Columbia Public Schools,1100030.0,20032
106,303,Kingsbury Day School,private,PK-12,100.0,4.0,Washington,DC,"5000 14th Street NW, 
Washington, DC  20011",(202) 722-5555,(202) 722-5531,www.kingsbury.org,A9101623,38.950836,-77.03472,https://www.greatschools.org/washington-dc/washington/303-Kingsbury-Day-School/?utm_source=GSAPI&utm_medium=referral,https://www.greatschools.org/washington-dc/washington/303-Kingsbury-Day-School/?utm_source=GSAPI&utm_medium=referral,https://www.greatschools.org/washington-dc/washington/303-Kingsbury-Day-School/?utm_source=GSAPI&utm_medium=referral#Reviews,https://www.greatschools.org/washington-dc/washington/303-Kingsbury-Day-School/?utm_source=GSAPI&utm_medium=referral,,,,,20011
107,352,Kuumba Learning Center,private,PK-10,120.0,4.0,Washington,DC,"3328 Martin Luther King Junior Avenue Southeast Washington DC 20032, 
Washington, DC  20032",(202) 563-5971,(202) 563-3363,www.kuumbaprep.org,A0307372,38.842052,-77.00259,https://www.greatschools.org/washington-dc/washington/352-Kuumba-Learning-Center/?utm_source=GSAPI&utm_medium=referral,https://www.greatschools.org/washington-dc/washington/352-Kuumba-Learning-Center/?utm_source=GSAPI&utm_medium=referral,https://www.greatschools.org/washington-dc/washington/352-Kuumba-Learning-Center/?utm_source=GSAPI&utm_medium=referral#Reviews,https://www.greatschools.org/washington-dc/washington/352-Kuumba-Learning-Center/?utm_source=GSAPI&utm_medium=referral,,,,,20032
108,898,LaShawn - DCPS Non Public,public,K-5,,,Washington,DC,"1200 First Street Northeast, 
Washington, DC  20002",(202) 724-4800,,http://www.dcps.dc.gov,110003000266,38.906063,-77.00633,https://www.greatschools.org/washington-dc/washington/898-LaShawn---DCPS-Non-Public/?utm_source=GSAPI&utm_medium=referral,https://www.greatschools.org/washington-dc/washington/898-LaShawn---DCPS-Non-Public/?utm_source=GSAPI&utm_medium=referral,https://www.greatschools.org/washington-dc/washington/898-LaShawn---DCPS-Non-Public/?utm_source=GSAPI&utm_medium=referral#Reviews,https://www.greatschools.org/washington-dc/washington/898-LaShawn---DCPS-Non-Public/?utm_source=GSAPI&utm_medium=referral,,1.0,District Of Columbia Public Schools,1100030.0,20002
109,852,Lab School of Washington - Foxhall Campus,private,1-4,380.0,5.0,Washington,DC,"4759 Reservoir Road, 
Washington, DC  20007",(202) 965-6600,,,,38.915203,-77.09291,https://www.greatschools.org/washington-dc/washington/852-Lab-School-Of-Washington---Foxhall-Campus/?utm_source=GSAPI&utm_medium=referral,https://www.greatschools.org/washington-dc/washington/852-Lab-School-Of-Washington---Foxhall-Campus/?utm_source=GSAPI&utm_medium=referral,https://www.greatschools.org/washington-dc/washington/852-Lab-School-Of-Washington---Foxhall-Campus/?utm_source=GSAPI&utm_medium=referral#Reviews,https://www.greatschools.org/washington-dc/washington/852-Lab-School-Of-Washington---Foxhall-Campus/?utm_source=GSAPI&utm_medium=referral,,,,,20007
110,322,Lab School of Washington - Reservoir Campus,private,1-12,355.0,4.0,Washington,DC,"4759 Reservoir Road NW, 
Washington, DC  20007",(202) 965-6600,,,02016176,38.914944,-77.09271,https://www.greatschools.org/washington-dc/washington/322-Lab-School-Of-Washington---Reservoir-Campus/?utm_source=GSAPI&utm_medium=referral,https://www.greatschools.org/washington-dc/washington/322-Lab-School-Of-Washington---Reservoir-Campus/?utm_source=GSAPI&utm_medium=referral,https://www.greatschools.org/washington-dc/washington/322-Lab-School-Of-Washington---Reservoir-Campus/?utm_source=GSAPI&utm_medium=referral#Reviews,https://www.greatschools.org/washington-dc/washington/322-Lab-School-Of-Washington---Reservoir-Campus/?utm_source=GSAPI&utm_medium=referral,,,,,20007
111,35,Lafayette Elementary School,public,PK-5,689.0,3.0,Washington,DC,"5701 Broad Branch Road Northwest, 
Washington, DC  20015",(202) 282-0116,(202) 724-8961,http://www.dcps.dc.gov,110003000045,38.966576,-77.06787,https://www.greatschools.org/washington-dc/washington/35-Lafayette-Elementary-School/?utm_source=GSAPI&utm_medium=referral,https://www.greatschools.org/washington-dc/washington/35-Lafayette-Elementary-School/?utm_source=GSAPI&utm_medium=referral,https://www.greatschools.org/washington-dc/washington/35-Lafayette-Elementary-School/?utm_source=GSAPI&utm_medium=referral#Reviews,https://www.greatschools.org/washington-dc/washington/35-Lafayette-Elementary-School/?utm_source=GSAPI&utm_medium=referral,9.0,1.0,District Of Columbia Public Schools,1100030.0,20015
112,34,Langdon ES,public,PK-5,350.0,4.0,Washington,DC,"1900 Evarts Street Northeast, 
Washington, DC  20018",(202) 576-6048,(202) 576-7976,http://www.dcps.dc.gov,110003000044,38.924995,-76.97748,https://www.greatschools.org/washington-dc/washington/34-Langdon-ES/?utm_source=GSAPI&utm_medium=referral,https://www.greatschools.org/washington-dc/washington/34-Langdon-ES/?utm_source=GSAPI&utm_medium=referral,https://www.greatschools.org/washington-dc/washington/34-Langdon-ES/?utm_source=GSAPI&utm_medium=referral#Reviews,https://www.greatschools.org/washington-dc/washington/34-Langdon-ES/?utm_source=GSAPI&utm_medium=referral,3.0,1.0,District Of Columbia Public Schools,1100030.0,20018
113,864,Langley Elementary School,public,PK-5,284.0,,Washington,DC,"101 T Street Northeast, 
Washington, DC  20002",(202) 724-4223,(202) 576-7365,langleyelementary.org,110003000445,38.91516,-77.00594,https://www.greatschools.org/washington-dc/washington/864-Langley-Elementary-School/?utm_source=GSAPI&utm_medium=referral,https://www.greatschools.org/washington-dc/washington/864-Langley-Elementary-School/?utm_source=GSAPI&utm_medium=referral,https://www.greatschools.org/washington-dc/washington/864-Langley-Elementary-School/?utm_source=GSAPI&utm_medium=referral#Reviews,https://www.greatschools.org/washington-dc/washington/864-Langley-Elementary-School/?utm_source=GSAPI&utm_medium=referral,2.0,1.0,District Of Columbia Public Schools,1100030.0,20002
114,33,Lasalle Backus Education Campus,public,PK-8,288.0,1.0,Washington,DC,"501 Riggs Road Northeast, 
Washington, DC  20011",(202) 671-6340,(202) 541-3859,http://www.dcps.dc.gov,110003000042,38.959915,-76.99981,https://www.greatschools.org/washington-dc/washington/33-Lasalle-Backus-Education-Campus/?utm_source=GSAPI&utm_medium=referral,https://www.greatschools.org/washington-dc/washington/33-Lasalle-Backus-Education-Campus/?utm_source=GSAPI&utm_medium=referral,https://www.greatschools.org/washington-dc/washington/33-Lasalle-Backus-Education-Campus/?utm_source=GSAPI&utm_medium=referral#Reviews,https://www.greatschools.org/washington-dc/washington/33-Lasalle-Backus-Education-Campus/?utm_source=GSAPI&utm_medium=referral,5.0,1.0,District Of Columbia Public Schools,1100030.0,20011
115,338,Latin American Montessori Bilingual (LAMB) - Missouri Ave,charter,PK-5,341.0,4.0,Washington,DC,"1375 Missouri Avenue Northwest, 
Washington, DC  20011",(202) 726-6200,(202) 722-4125,http://www.lambpcs.org,110003200247,38.962242,-77.032364,https://www.greatschools.org/washington-dc/washington/338-Latin-American-Montessori-Bilingual-(LAMB)---Missouri-Ave/?utm_source=GSAPI&utm_medium=referral,https://www.greatschools.org/washington-dc/washington/338-Latin-American-Montessori-Bilingual-(LAMB)---Missouri-Ave/?utm_source=GSAPI&utm_medium=referral,https://www.greatschools.org/washington-dc/washington/338-Latin-American-Montessori-Bilingual-(LAMB)---Missouri-Ave/?utm_source=GSAPI&utm_medium=referral#Reviews,https://www.greatschools.org/washington-dc/washington/338-Latin-American-Montessori-Bilingual-(LAMB)---Missouri-Ave/?utm_source=GSAPI&utm_medium=referral,8.0,92.0,Latin America Youth Bilingual Montessori,1100032.0,20011
116,32,Leckie Elementary School,public,PK-7,420.0,4.0,Washington,DC,"4201 Martin Luther King Junior Avenue Southwest, 
Washington, DC  20032",(202) 645-3330,(202) 645-4138,http://www.dcps.dc.gov,110003000041,38.828117,-77.013306,https://www.greatschools.org/washington-dc/washington/32-Leckie-Elementary-School/?utm_source=GSAPI&utm_medium=referral,https://www.greatschools.org/washington-dc/washington/32-Leckie-Elementary-School/?utm_source=GSAPI&utm_medium=referral,https://www.greatschools.org/washington-dc/washington/32-Leckie-Elementary-School/?utm_source=GSAPI&utm_medium=referral#Reviews,https://www.greatschools.org/washington-dc/washington/32-Leckie-Elementary-School/?utm_source=GSAPI&utm_medium=referral,4.0,1.0,District Of Columbia Public Schools,1100030.0,20032
117,1201,Lee Montessori PCS,charter,PK-3,74.0,,Washington,DC,"3015 4th Street Northeast, 
Washington, DC  20017",(202) 779-9740,,http://www.leemontessori.org/,110009300476,38.928024,-76.99876,https://www.greatschools.org/washington-dc/washington/1201-Lee-Montessori-PCS/?utm_source=GSAPI&utm_medium=referral,https://www.greatschools.org/washington-dc/washington/1201-Lee-Montessori-PCS/?utm_source=GSAPI&utm_medium=referral,https://www.greatschools.org/washington-dc/washington/1201-Lee-Montessori-PCS/?utm_source=GSAPI&utm_medium=referral#Reviews,https://www.greatschools.org/washington-dc/washington/1201-Lee-Montessori-PCS/?utm_source=GSAPI&utm_medium=referral,,140.0,Lee Montessori PCS,,20017
118,217,Lowell School,private,PK-8,340.0,5.0,Washington,DC,"1640 Kalmia Rd NW, 
Washington, DC  20012",(202) 577-2000,(202) 577-2001,http://www.lowellschool.org,A9101627,38.986084,-77.03897,https://www.greatschools.org/washington-dc/washington/217-Lowell-School/?utm_source=GSAPI&utm_medium=referral,https://www.greatschools.org/washington-dc/washington/217-Lowell-School/?utm_source=GSAPI&utm_medium=referral,https://www.greatschools.org/washington-dc/washington/217-Lowell-School/?utm_source=GSAPI&utm_medium=referral#Reviews,https://www.greatschools.org/washington-dc/washington/217-Lowell-School/?utm_source=GSAPI&utm_medium=referral,,,,,20012
119,31,Ludlow-Taylor Elementary School,public,PK-5,263.0,5.0,Washington,DC,"659 G Street Northeast, 
Washington, DC  20002",(202) 698-3244,(202) 698-3250,http://www.dcps.dc.gov,110003000037,38.898514,-76.9964,https://www.greatschools.org/washington-dc/washington/31-Ludlow-Taylor-Elementary-School/?utm_source=GSAPI&utm_medium=referral,https://www.greatschools.org/washington-dc/washington/31-Ludlow-Taylor-Elementary-School/?utm_source=GSAPI&utm_medium=referral,https://www.greatschools.org/washington-dc/washington/31-Ludlow-Taylor-Elementary-School/?utm_source=GSAPI&utm_medium=referral#Reviews,https://www.greatschools.org/washington-dc/washington/31-Ludlow-Taylor-Elementary-School/?utm_source=GSAPI&utm_medium=referral,8.0,1.0,District Of Columbia Public Schools,1100030.0,20002
120,30,Malcolm X Elementary School @ Green,public,PK-5,220.0,5.0,Washington,DC,"1500 Mississippi Avenue Southeast, 
Washington, DC  20032",(202) 645-3409,(202) 645-7219,http://www.dcps.dc.gov,110003000036,38.841805,-76.9833,https://www.greatschools.org/washington-dc/washington/30-Malcolm-X-Elementary-School-@-Green/?utm_source=GSAPI&utm_medium=referral,https://www.greatschools.org/washington-dc/washington/30-Malcolm-X-Elementary-School-@-Green/?utm_source=GSAPI&utm_medium=referral,https://www.greatschools.org/washington-dc/washington/30-Malcolm-X-Elementary-School-@-Green/?utm_source=GSAPI&utm_medium=referral#Reviews,https://www.greatschools.org/washington-dc/washington/30-Malcolm-X-Elementary-School-@-Green/?utm_source=GSAPI&utm_medium=referral,3.0,1.0,District Of Columbia Public Schools,1100030.0,20032
121,29,Mann Elementary School,public,PK-5,286.0,4.0,Washington,DC,"4430 Newark Street Northwest, 
Washington, DC  20016",(202) 282-0126,(202) 282-0128,http://www.dcps.dc.gov,110003000035,38.9343,-77.08817,https://www.greatschools.org/washington-dc/washington/29-Mann-Elementary-School/?utm_source=GSAPI&utm_medium=referral,https://www.greatschools.org/washington-dc/washington/29-Mann-Elementary-School/?utm_source=GSAPI&utm_medium=referral,https://www.greatschools.org/washington-dc/washington/29-Mann-Elementary-School/?utm_source=GSAPI&utm_medium=referral#Reviews,https://www.greatschools.org/washington-dc/washington/29-Mann-Elementary-School/?utm_source=GSAPI&utm_medium=referral,9.0,1.0,District Of Columbia Public Schools,1100030.0,20016
122,193,Maret School,private,K-12,635.0,4.0,Washington,DC,"3000 Cathedral Ave NW, 
Washington, DC  20008",(202) 939-8800,(202) 939-8845,http://www.maret.org,00253448,38.928223,-77.06042,https://www.greatschools.org/washington-dc/washington/193-Maret-School/?utm_source=GSAPI&utm_medium=referral,https://www.greatschools.org/washington-dc/washington/193-Maret-School/?utm_source=GSAPI&utm_medium=referral,https://www.greatschools.org/washington-dc/washington/193-Maret-School/?utm_source=GSAPI&utm_medium=referral#Reviews,https://www.greatschools.org/washington-dc/washington/193-Maret-School/?utm_source=GSAPI&utm_medium=referral,,,,,20008
123,26,Marie Reed Elementary School,public,PK-5,399.0,5.0,Washington,DC,"4400 Iowa Avenue Northwest, 
Washington, DC  20011",(202) 673-7308,(202) 671-5042,http://www.dcps.dc.gov,110003000032,38.94353,-77.027885,https://www.greatschools.org/washington-dc/washington/26-Marie-Reed-Elementary-School/?utm_source=GSAPI&utm_medium=referral,https://www.greatschools.org/washington-dc/washington/26-Marie-Reed-Elementary-School/?utm_source=GSAPI&utm_medium=referral,https://www.greatschools.org/washington-dc/washington/26-Marie-Reed-Elementary-School/?utm_source=GSAPI&utm_medium=referral#Reviews,https://www.greatschools.org/washington-dc/washington/26-Marie-Reed-Elementary-School/?utm_source=GSAPI&utm_medium=referral,8.0,1.0,District Of Columbia Public Schools,1100030.0,20011
124,565,Mary McLeod Bethune Day Academy PCS,charter,PK-8,366.0,3.0,Washington,DC,"1404 Jackson Street Northeast, 
Washington, DC  20017",(202) 459-4710,(202) 318-7588,http://www.mmbethune.org,110004400275,38.92957,-76.98633,https://www.greatschools.org/washington-dc/washington/565-Mary-McLeod-Bethune-Day-Academy-PCS/?utm_source=GSAPI&utm_medium=referral,https://www.greatschools.org/washington-dc/washington/565-Mary-McLeod-Bethune-Day-Academy-PCS/?utm_source=GSAPI&utm_medium=referral,https://www.greatschools.org/washington-dc/washington/565-Mary-McLeod-Bethune-Day-Academy-PCS/?utm_source=GSAPI&utm_medium=referral#Reviews,https://www.greatschools.org/washington-dc/washington/565-Mary-McLeod-Bethune-Day-Academy-PCS/?utm_source=GSAPI&utm_medium=referral,3.0,93.0,Mary Mcleod Bethune Pcs,1100044.0,20017
125,28,Maury Elementary School,public,PK-5,330.0,5.0,Washington,DC,"1250 Constitution Avenue Northeast, 
Washington, DC  20002",(202) 698-3838,(202) 698-3844,http://www.dcps.dc.gov,110003000034,38.89255,-76.988655,https://www.greatschools.org/washington-dc/washington/28-Maury-Elementary-School/?utm_source=GSAPI&utm_medium=referral,https://www.greatschools.org/washington-dc/washington/28-Maury-Elementary-School/?utm_source=GSAPI&utm_medium=referral,https://www.greatschools.org/washington-dc/washington/28-Maury-Elementary-School/?utm_source=GSAPI&utm_medium=referral#Reviews,https://www.greatschools.org/washington-dc/washington/28-Maury-Elementary-School/?utm_source=GSAPI&utm_medium=referral,9.0,1.0,District Of Columbia Public Schools,1100030.0,20002
126,913,Maya Angelou PCS - Young Adult Learning Center,charter,n/a,,,Washington,DC,"5600 East Capitol Street,  NE, 
Washington, DC  20019",,,www.seeforever.org,,38.88983,-76.92069,https://www.greatschools.org/washington-dc/washington/913-Maya-Angelou-PCS---Young-Adult-Learning-Center/?utm_source=GSAPI&utm_medium=referral,https://www.greatschools.org/washington-dc/washington/913-Maya-Angelou-PCS---Young-Adult-Learning-Center/?utm_source=GSAPI&utm_medium=referral,https://www.greatschools.org/washington-dc/washington/913-Maya-Angelou-PCS---Young-Adult-Learning-Center/?utm_source=GSAPI&utm_medium=referral#Reviews,https://www.greatschools.org/washington-dc/washington/913-Maya-Angelou-PCS---Young-Adult-Learning-Center/?utm_source=GSAPI&utm_medium=referral,,94.0,Maya Angelou Pcs,1100014.0,20019
127,262,Meridian PCS,charter,PK-8,567.0,3.0,Washington,DC,"2120 13th Street Northwest, 
Washington, DC  20009",(202) 387-9830,(202) 238-0036,http://mpcs.learningstation.com/school,110001500229,38.918556,-77.02995,https://www.greatschools.org/washington-dc/washington/262-Meridian-PCS/?utm_source=GSAPI&utm_medium=referral,https://www.greatschools.org/washington-dc/washington/262-Meridian-PCS/?utm_source=GSAPI&utm_medium=referral,https://www.greatschools.org/washington-dc/washington/262-Meridian-PCS/?utm_source=GSAPI&utm_medium=referral#Reviews,https://www.greatschools.org/washington-dc/washington/262-Meridian-PCS/?utm_source=GSAPI&utm_medium=referral,5.0,96.0,Meridian Pcs,1100015.0,20009
128,348,Metropolitan Day School,private,PK-5,65.0,5.0,Washington,DC,"1240 Randolph St NE, 
Washington, DC  20017",(202) 234-3210,(202) 234-3214,http://www.metropolitandayschool.org,A0304039,38.938553,-76.988846,https://www.greatschools.org/washington-dc/washington/348-Metropolitan-Day-School/?utm_source=GSAPI&utm_medium=referral,https://www.greatschools.org/washington-dc/washington/348-Metropolitan-Day-School/?utm_source=GSAPI&utm_medium=referral,https://www.greatschools.org/washington-dc/washington/348-Metropolitan-Day-School/?utm_source=GSAPI&utm_medium=referral#Reviews,https://www.greatschools.org/washington-dc/washington/348-Metropolitan-Day-School/?utm_source=GSAPI&utm_medium=referral,,,,,20017
129,4,Miner Elementary School,public,PK-5,375.0,4.0,Washington,DC,"601 15th Street Northeast, 
Washington, DC  20002",(202) 397-3960,,https://www.minerelementary.org,110003000004,38.897552,-76.98285,https://www.greatschools.org/washington-dc/washington/4-Miner-Elementary-School/?utm_source=GSAPI&utm_medium=referral,https://www.greatschools.org/washington-dc/washington/4-Miner-Elementary-School/?utm_source=GSAPI&utm_medium=referral,https://www.greatschools.org/washington-dc/washington/4-Miner-Elementary-School/?utm_source=GSAPI&utm_medium=referral#Reviews,https://www.greatschools.org/washington-dc/washington/4-Miner-Elementary-School/?utm_source=GSAPI&utm_medium=referral,3.0,1.0,District Of Columbia Public Schools,1100030.0,20002
130,2,Moten Elementary School,public,PK-5,335.0,5.0,Washington,DC,"1565 Morris Road Southeast, 
Washington, DC  20020",(202) 698-1111,(202) 698-1112,http://www.dcps.dc.gov,110003000002,38.85654,-76.98294,https://www.greatschools.org/washington-dc/washington/2-Moten-Elementary-School/?utm_source=GSAPI&utm_medium=referral,https://www.greatschools.org/washington-dc/washington/2-Moten-Elementary-School/?utm_source=GSAPI&utm_medium=referral,https://www.greatschools.org/washington-dc/washington/2-Moten-Elementary-School/?utm_source=GSAPI&utm_medium=referral#Reviews,https://www.greatschools.org/washington-dc/washington/2-Moten-Elementary-School/?utm_source=GSAPI&utm_medium=referral,3.0,1.0,District Of Columbia Public Schools,1100030.0,20020
131,579,Muhammad University of Islam,private,PK-12,53.0,,Washington,DC,"1615 Kenilworth Avenue, NE, 
Washington, DC  20019",(202) 399-2879,(202) 399-2879,,,38.91142,-76.93408,https://www.greatschools.org/washington-dc/washington/579-Muhammad-University-Of-Islam/?utm_source=GSAPI&utm_medium=referral,https://www.greatschools.org/washington-dc/washington/579-Muhammad-University-Of-Islam/?utm_source=GSAPI&utm_medium=referral,https://www.greatschools.org/washington-dc/washington/579-Muhammad-University-Of-Islam/?utm_source=GSAPI&utm_medium=referral#Reviews,https://www.greatschools.org/washington-dc/washington/579-Muhammad-University-Of-Islam/?utm_source=GSAPI&utm_medium=referral,,,,,20019
132,874,Mundo Verde Bilingual PCS,charter,PK-5,237.0,4.0,Washington,DC,"30 P Street Northwest, 
Washington, DC  20001",(202) 750-7060,(202) 885-9972,http://www.mundoverdepcs.org,110008600444,38.9093,-77.0102,https://www.greatschools.org/washington-dc/washington/874-Mundo-Verde-Bilingual-PCS/?utm_source=GSAPI&utm_medium=referral,https://www.greatschools.org/washington-dc/washington/874-Mundo-Verde-Bilingual-PCS/?utm_source=GSAPI&utm_medium=referral,https://www.greatschools.org/washington-dc/washington/874-Mundo-Verde-Bilingual-PCS/?utm_source=GSAPI&utm_medium=referral#Reviews,https://www.greatschools.org/washington-dc/washington/874-Mundo-Verde-Bilingual-PCS/?utm_source=GSAPI&utm_medium=referral,7.0,127.0,Mundo Verde Bilingual Pcs,1100086.0,20001
133,1,Murch Elementary School,public,PK-5,572.0,4.0,Washington,DC,"3373 Van Ness Street Northwest, 
Washington, DC  20008",(202) 282-0130,,http://www.dcps.dc.gov,110003000001,38.943695,-77.06697,https://www.greatschools.org/washington-dc/washington/1-Murch-Elementary-School/?utm_source=GSAPI&utm_medium=referral,https://www.greatschools.org/washington-dc/washington/1-Murch-Elementary-School/?utm_source=GSAPI&utm_medium=referral,https://www.greatschools.org/washington-dc/washington/1-Murch-Elementary-School/?utm_source=GSAPI&utm_medium=referral#Reviews,https://www.greatschools.org/washington-dc/washington/1-Murch-Elementary-School/?utm_source=GSAPI&utm_medium=referral,9.0,1.0,District Of Columbia Public Schools,1100030.0,20008
134,128,Nalle Elementary School,public,PK-5,335.0,2.0,Washington,DC,"219 50th Street Southeast, 
Washington, DC  20019",(202) 671-6280,(202) 645-3196,http://www.dcps.dc.gov,110003000163,38.885696,-76.93127,https://www.greatschools.org/washington-dc/washington/128-Nalle-Elementary-School/?utm_source=GSAPI&utm_medium=referral,https://www.greatschools.org/washington-dc/washington/128-Nalle-Elementary-School/?utm_source=GSAPI&utm_medium=referral,https://www.greatschools.org/washington-dc/washington/128-Nalle-Elementary-School/?utm_source=GSAPI&utm_medium=referral#Reviews,https://www.greatschools.org/washington-dc/washington/128-Nalle-Elementary-School/?utm_source=GSAPI&utm_medium=referral,5.0,1.0,District Of Columbia Public Schools,1100030.0,20019
135,200,Nannie Helen Burroughs School,private,PK-6,50.0,5.0,Washington,DC,"601 50th Street Northeast, 
Washington, DC  20019",(202) 398-5266,(202) 398-5652,http://www.nhburroughs.org,00253823,38.897236,-76.929115,https://www.greatschools.org/washington-dc/washington/200-Nannie-Helen-Burroughs-School/?utm_source=GSAPI&utm_medium=referral,https://www.greatschools.org/washington-dc/washington/200-Nannie-Helen-Burroughs-School/?utm_source=GSAPI&utm_medium=referral,https://www.greatschools.org/washington-dc/washington/200-Nannie-Helen-Burroughs-School/?utm_source=GSAPI&utm_medium=referral#Reviews,https://www.greatschools.org/washington-dc/washington/200-Nannie-Helen-Burroughs-School/?utm_source=GSAPI&utm_medium=referral,,,,,20019
136,221,National Cathedral School,private,4-12,582.0,4.0,Washington,DC,"Mount Saint Alban, 
Washington, DC  20016",(202) 537-6374,(202) 537-2382,,A9300244,38.930668,-77.07053,https://www.greatschools.org/washington-dc/washington/221-National-Cathedral-School/?utm_source=GSAPI&utm_medium=referral,https://www.greatschools.org/washington-dc/washington/221-National-Cathedral-School/?utm_source=GSAPI&utm_medium=referral,https://www.greatschools.org/washington-dc/washington/221-National-Cathedral-School/?utm_source=GSAPI&utm_medium=referral#Reviews,https://www.greatschools.org/washington-dc/washington/221-National-Cathedral-School/?utm_source=GSAPI&utm_medium=referral,,,,,20016
137,311,National Children's Center,private,n/a,40.0,,Washington,DC,"6200 2nd Street Northwest, 
Washington, DC  20011",(202) 722-2319,,,A0101694,38.965435,-77.01451,https://www.greatschools.org/washington-dc/washington/311-National-Children's-Center/?utm_source=GSAPI&utm_medium=referral,https://www.greatschools.org/washington-dc/washington/311-National-Children's-Center/?utm_source=GSAPI&utm_medium=referral,https://www.greatschools.org/washington-dc/washington/311-National-Children's-Center/?utm_source=GSAPI&utm_medium=referral#Reviews,https://www.greatschools.org/washington-dc/washington/311-National-Children's-Center/?utm_source=GSAPI&utm_medium=referral,,,,,20011
138,581,National Children's Center - NW Campus Ages 6-22,private,1-12,25.0,5.0,Washington,DC,"201 Rittenhouse St., NW, 
Washington, DC  20001",(202) 722-2319,,www.nccinc.org,,38.964985,-77.013725,https://www.greatschools.org/washington-dc/washington/581-National-Children's-Center---NW-Campus-Ages-6-22/?utm_source=GSAPI&utm_medium=referral,https://www.greatschools.org/washington-dc/washington/581-National-Children's-Center---NW-Campus-Ages-6-22/?utm_source=GSAPI&utm_medium=referral,https://www.greatschools.org/washington-dc/washington/581-National-Children's-Center---NW-Campus-Ages-6-22/?utm_source=GSAPI&utm_medium=referral#Reviews,https://www.greatschools.org/washington-dc/washington/581-National-Children's-Center---NW-Campus-Ages-6-22/?utm_source=GSAPI&utm_medium=referral,,,,,20001
139,571,National Children's Center - SE Campus Ages 6-22,private,1-12,25.0,2.0,Washington,DC,"3400 Martin Luther King, 
Washington, DC  20032",(202) 561-7280,(202) 561-7284,www.nccinc.org/,A0770704,38.841328,-77.00283,https://www.greatschools.org/washington-dc/washington/571-National-Children's-Center---SE-Campus-Ages-6-22/?utm_source=GSAPI&utm_medium=referral,https://www.greatschools.org/washington-dc/washington/571-National-Children's-Center---SE-Campus-Ages-6-22/?utm_source=GSAPI&utm_medium=referral,https://www.greatschools.org/washington-dc/washington/571-National-Children's-Center---SE-Campus-Ages-6-22/?utm_source=GSAPI&utm_medium=referral#Reviews,https://www.greatschools.org/washington-dc/washington/571-National-Children's-Center---SE-Campus-Ages-6-22/?utm_source=GSAPI&utm_medium=referral,,,,,20032
140,188,National Presbyterian School,private,PK-6,300.0,5.0,Washington,DC,"4121 Nebraska Ave NW, 
Washington, DC  20016",(202) 537-7508,(202) 552-4200,http://www.nps-dc.org,00253324,38.9426,-77.0819,https://www.greatschools.org/washington-dc/washington/188-National-Presbyterian-School/?utm_source=GSAPI&utm_medium=referral,https://www.greatschools.org/washington-dc/washington/188-National-Presbyterian-School/?utm_source=GSAPI&utm_medium=referral,https://www.greatschools.org/washington-dc/washington/188-National-Presbyterian-School/?utm_source=GSAPI&utm_medium=referral#Reviews,https://www.greatschools.org/washington-dc/washington/188-National-Presbyterian-School/?utm_source=GSAPI&utm_medium=referral,,,,,20016
141,358,Nationhouse Watoto School,private,PK-4,16.0,5.0,Washington,DC,"770 Park Road Northwest, 
Washington, DC  20010",(202) 291-5600,,http://www.nationhouse.org,A9101628,38.932552,-77.026405,https://www.greatschools.org/washington-dc/washington/358-Nationhouse-Watoto-School/?utm_source=GSAPI&utm_medium=referral,https://www.greatschools.org/washington-dc/washington/358-Nationhouse-Watoto-School/?utm_source=GSAPI&utm_medium=referral,https://www.greatschools.org/washington-dc/washington/358-Nationhouse-Watoto-School/?utm_source=GSAPI&utm_medium=referral#Reviews,https://www.greatschools.org/washington-dc/washington/358-Nationhouse-Watoto-School/?utm_source=GSAPI&utm_medium=referral,,,,,20010
142,195,Naylor Road School,private,K-8,108.0,4.0,Washington,DC,"2403 Naylor Road Southeast, 
Washington, DC  20020",(202) 584-5114,,,00253539,38.86913,-76.97263,https://www.greatschools.org/washington-dc/washington/195-Naylor-Road-School/?utm_source=GSAPI&utm_medium=referral,https://www.greatschools.org/washington-dc/washington/195-Naylor-Road-School/?utm_source=GSAPI&utm_medium=referral,https://www.greatschools.org/washington-dc/washington/195-Naylor-Road-School/?utm_source=GSAPI&utm_medium=referral#Reviews,https://www.greatschools.org/washington-dc/washington/195-Naylor-Road-School/?utm_source=GSAPI&utm_medium=referral,,,,,20020
143,129,Noyes Education Campus,public,PK-5,192.0,4.0,Washington,DC,"2725 10th Street Northeast, 
Washington, DC  20018",(202) 281-2580,(202) 576-7397,http://www.dcps.dc.gov,110003000164,38.92508,-76.991394,https://www.greatschools.org/washington-dc/washington/129-Noyes-Education-Campus/?utm_source=GSAPI&utm_medium=referral,https://www.greatschools.org/washington-dc/washington/129-Noyes-Education-Campus/?utm_source=GSAPI&utm_medium=referral,https://www.greatschools.org/washington-dc/washington/129-Noyes-Education-Campus/?utm_source=GSAPI&utm_medium=referral#Reviews,https://www.greatschools.org/washington-dc/washington/129-Noyes-Education-Campus/?utm_source=GSAPI&utm_medium=referral,5.0,1.0,District Of Columbia Public Schools,1100030.0,20018
144,127,Orr Elementary School,public,PK-5,421.0,3.0,Washington,DC,"2200 Minnesota Av. SE Washington DC 20020 , 
Washington, DC  20020",(202) 671-6240,(202) 645-3292,www.orrelementary.org/,110003000161,38.871857,-76.974174,https://www.greatschools.org/washington-dc/washington/127-Orr-Elementary-School/?utm_source=GSAPI&utm_medium=referral,https://www.greatschools.org/washington-dc/washington/127-Orr-Elementary-School/?utm_source=GSAPI&utm_medium=referral,https://www.greatschools.org/washington-dc/washington/127-Orr-Elementary-School/?utm_source=GSAPI&utm_medium=referral#Reviews,https://www.greatschools.org/washington-dc/washington/127-Orr-Elementary-School/?utm_source=GSAPI&utm_medium=referral,4.0,1.0,District Of Columbia Public Schools,1100030.0,20020
145,170,Our Lady of Victory School,private,PK-8,226.0,4.0,Washington,DC,"4755 Whitehaven Parkway, 
Washington, DC  20007",(202) 337-1421,(202) 337-2068,www.olvschooldc.net,00252739,38.915936,-77.09451,https://www.greatschools.org/washington-dc/washington/170-Our-Lady-Of-Victory-School/?utm_source=GSAPI&utm_medium=referral,https://www.greatschools.org/washington-dc/washington/170-Our-Lady-Of-Victory-School/?utm_source=GSAPI&utm_medium=referral,https://www.greatschools.org/washington-dc/washington/170-Our-Lady-Of-Victory-School/?utm_source=GSAPI&utm_medium=referral#Reviews,https://www.greatschools.org/washington-dc/washington/170-Our-Lady-Of-Victory-School/?utm_source=GSAPI&utm_medium=referral,,,,,20007
146,189,Owl School,private,PK-8,,5.0,Washington,DC,"1920 G Street Northwest, 
Washington, DC  20006",(202) 828-1001,,http://www.theowlschool.com/services,00253404,38.898197,-77.0447,https://www.greatschools.org/washington-dc/washington/189-Owl-School/?utm_source=GSAPI&utm_medium=referral,https://www.greatschools.org/washington-dc/washington/189-Owl-School/?utm_source=GSAPI&utm_medium=referral,https://www.greatschools.org/washington-dc/washington/189-Owl-School/?utm_source=GSAPI&utm_medium=referral#Reviews,https://www.greatschools.org/washington-dc/washington/189-Owl-School/?utm_source=GSAPI&utm_medium=referral,,,,,20006
147,126,Oyster-Adams Bilingual School,public,PK-8,668.0,3.0,Washington,DC,"2801 Calvert Street Northwest, 
Washington, DC  20008",(202) 671-6130,,http://www.dcps.dc.gov,110003000160,38.923626,-77.05721,https://www.greatschools.org/washington-dc/washington/126-Oyster-Adams-Bilingual-School/?utm_source=GSAPI&utm_medium=referral,https://www.greatschools.org/washington-dc/washington/126-Oyster-Adams-Bilingual-School/?utm_source=GSAPI&utm_medium=referral,https://www.greatschools.org/washington-dc/washington/126-Oyster-Adams-Bilingual-School/?utm_source=GSAPI&utm_medium=referral#Reviews,https://www.greatschools.org/washington-dc/washington/126-Oyster-Adams-Bilingual-School/?utm_source=GSAPI&utm_medium=referral,9.0,1.0,District Of Columbia Public Schools,1100030.0,20008
148,124,Patterson Elementary School,public,PK-5,330.0,3.0,Washington,DC,"4399 South Capitol Terrace Southwest, 
Washington, DC  20032",(202) 939-5280,(202) 645-4705,http://www.dcps.dc.gov,110003000158,38.82679,-77.008316,https://www.greatschools.org/washington-dc/washington/124-Patterson-Elementary-School/?utm_source=GSAPI&utm_medium=referral,https://www.greatschools.org/washington-dc/washington/124-Patterson-Elementary-School/?utm_source=GSAPI&utm_medium=referral,https://www.greatschools.org/washington-dc/washington/124-Patterson-Elementary-School/?utm_source=GSAPI&utm_medium=referral#Reviews,https://www.greatschools.org/washington-dc/washington/124-Patterson-Elementary-School/?utm_source=GSAPI&utm_medium=referral,3.0,1.0,District Of Columbia Public Schools,1100030.0,20032
149,123,Payne Elementary School,public,PK-5,346.0,4.0,Washington,DC,"1445 C Street Southeast, 
Washington, DC  20003",(202) 698-3262,(202) 698-3263,https://paynedc.org,110003000157,38.884502,-76.98456,https://www.greatschools.org/washington-dc/washington/123-Payne-Elementary-School/?utm_source=GSAPI&utm_medium=referral,https://www.greatschools.org/washington-dc/washington/123-Payne-Elementary-School/?utm_source=GSAPI&utm_medium=referral,https://www.greatschools.org/washington-dc/washington/123-Payne-Elementary-School/?utm_source=GSAPI&utm_medium=referral#Reviews,https://www.greatschools.org/washington-dc/washington/123-Payne-Elementary-School/?utm_source=GSAPI&utm_medium=referral,4.0,1.0,District Of Columbia Public Schools,1100030.0,20003
150,258,Perry Street Prep PCS,charter,PK-8,350.0,4.0,Washington,DC,"1800 Perry Street Northeast, 
Washington, DC  20018",(202) 529-4400,(202) 526-2214,www.pspdc.org,110001100225,38.93617,-76.97983,https://www.greatschools.org/washington-dc/washington/258-Perry-Street-Prep-PCS/?utm_source=GSAPI&utm_medium=referral,https://www.greatschools.org/washington-dc/washington/258-Perry-Street-Prep-PCS/?utm_source=GSAPI&utm_medium=referral,https://www.greatschools.org/washington-dc/washington/258-Perry-Street-Prep-PCS/?utm_source=GSAPI&utm_medium=referral#Reviews,https://www.greatschools.org/washington-dc/washington/258-Perry-Street-Prep-PCS/?utm_source=GSAPI&utm_medium=referral,4.0,87.0,Perry Street Preparatory Pcs,1100011.0,20018
151,100,Plummer Elementary School,public,PK-5,263.0,4.0,Washington,DC,"4601 Texas Avenue Southeast, 
Washington, DC  20019",(202) 939-4360,(202) 645-3176,http://www.dcps.dc.gov,110003000126,38.88727,-76.939865,https://www.greatschools.org/washington-dc/washington/100-Plummer-Elementary-School/?utm_source=GSAPI&utm_medium=referral,https://www.greatschools.org/washington-dc/washington/100-Plummer-Elementary-School/?utm_source=GSAPI&utm_medium=referral,https://www.greatschools.org/washington-dc/washington/100-Plummer-Elementary-School/?utm_source=GSAPI&utm_medium=referral#Reviews,https://www.greatschools.org/washington-dc/washington/100-Plummer-Elementary-School/?utm_source=GSAPI&utm_medium=referral,4.0,1.0,District Of Columbia Public Schools,1100030.0,20019
152,99,Powell Elementary School,public,PK-5,391.0,4.0,Washington,DC,"1350 Upshur Street Northwest, 
Washington, DC  20011",(202) 671-6270,(202) 576-7155,http://www.dcps.dc.gov,110003000125,38.94158,-77.031395,https://www.greatschools.org/washington-dc/washington/99-Powell-Elementary-School/?utm_source=GSAPI&utm_medium=referral,https://www.greatschools.org/washington-dc/washington/99-Powell-Elementary-School/?utm_source=GSAPI&utm_medium=referral,https://www.greatschools.org/washington-dc/washington/99-Powell-Elementary-School/?utm_source=GSAPI&utm_medium=referral#Reviews,https://www.greatschools.org/washington-dc/washington/99-Powell-Elementary-School/?utm_source=GSAPI&utm_medium=referral,6.0,1.0,District Of Columbia Public Schools,1100030.0,20011
153,231,Preparatory School of the District of Columbia,private,PK-12,100.0,3.0,Washington,DC,"209 Upshur Street NW, 
Washington, DC  20010",(202) 722-5080,(202) 722-5060,http://thepreparatoryschoolofdc.webs.com/,A9501074,38.942528,-77.01409,https://www.greatschools.org/washington-dc/washington/231-Preparatory-School-Of-The-District-Of-Columbia/?utm_source=GSAPI&utm_medium=referral,https://www.greatschools.org/washington-dc/washington/231-Preparatory-School-Of-The-District-Of-Columbia/?utm_source=GSAPI&utm_medium=referral,https://www.greatschools.org/washington-dc/washington/231-Preparatory-School-Of-The-District-Of-Columbia/?utm_source=GSAPI&utm_medium=referral#Reviews,https://www.greatschools.org/washington-dc/washington/231-Preparatory-School-Of-The-District-Of-Columbia/?utm_source=GSAPI&utm_medium=referral,,,,,20010
154,1014,Psychiatric Inst Of Washington (Sped),private,PK-11,49.0,,Washington,DC,"4228 Wisconsin Avenue Northwest, 
Washington, DC  20016",(202) 885-5720,,,A0900748,38.943893,-77.07807,https://www.greatschools.org/washington-dc/washington/1014-Psychiatric-Inst-Of-Washington-(Sped)/?utm_source=GSAPI&utm_medium=referral,https://www.greatschools.org/washington-dc/washington/1014-Psychiatric-Inst-Of-Washington-(Sped)/?utm_source=GSAPI&utm_medium=referral,https://www.greatschools.org/washington-dc/washington/1014-Psychiatric-Inst-Of-Washington-(Sped)/?utm_source=GSAPI&utm_medium=referral#Reviews,https://www.greatschools.org/washington-dc/washington/1014-Psychiatric-Inst-Of-Washington-(Sped)/?utm_source=GSAPI&utm_medium=referral,,,,,20016
155,24,Randle Highlands Elementary School,public,PK-5,358.0,4.0,Washington,DC,"1650 30th Street Southeast, 
Washington, DC  20020",(202) 729-3250,(202) 645-3911,http://www.dcps.dc.gov,110003000029,38.870144,-76.96389,https://www.greatschools.org/washington-dc/washington/24-Randle-Highlands-Elementary-School/?utm_source=GSAPI&utm_medium=referral,https://www.greatschools.org/washington-dc/washington/24-Randle-Highlands-Elementary-School/?utm_source=GSAPI&utm_medium=referral,https://www.greatschools.org/washington-dc/washington/24-Randle-Highlands-Elementary-School/?utm_source=GSAPI&utm_medium=referral#Reviews,https://www.greatschools.org/washington-dc/washington/24-Randle-Highlands-Elementary-School/?utm_source=GSAPI&utm_medium=referral,5.0,1.0,District Of Columbia Public Schools,1100030.0,20020
156,27,Raymond Education Campus,public,PK-8,451.0,5.0,Washington,DC,"915 Spring Road Northwest, 
Washington, DC  20010",(202) 576-6236,(202) 576-8877,http://www.dcps.dc.gov,110003000033,38.93593,-77.02617,https://www.greatschools.org/washington-dc/washington/27-Raymond-Education-Campus/?utm_source=GSAPI&utm_medium=referral,https://www.greatschools.org/washington-dc/washington/27-Raymond-Education-Campus/?utm_source=GSAPI&utm_medium=referral,https://www.greatschools.org/washington-dc/washington/27-Raymond-Education-Campus/?utm_source=GSAPI&utm_medium=referral#Reviews,https://www.greatschools.org/washington-dc/washington/27-Raymond-Education-Campus/?utm_source=GSAPI&utm_medium=referral,5.0,1.0,District Of Columbia Public Schools,1100030.0,20010
157,295,Residential Schools,public,K-2,,,Washington,DC,"1200 First Street Northeast, 
Washington, DC  20002",(202) 442-4800,,http://www.dcps.dc.gov,110003000265,38.906063,-77.00633,https://www.greatschools.org/washington-dc/washington/295-Residential-Schools/?utm_source=GSAPI&utm_medium=referral,https://www.greatschools.org/washington-dc/washington/295-Residential-Schools/?utm_source=GSAPI&utm_medium=referral,https://www.greatschools.org/washington-dc/washington/295-Residential-Schools/?utm_source=GSAPI&utm_medium=referral#Reviews,https://www.greatschools.org/washington-dc/washington/295-Residential-Schools/?utm_source=GSAPI&utm_medium=referral,,1.0,District Of Columbia Public Schools,1100030.0,20002
158,313,Rhema Christian Center School,private,K-12,30.0,5.0,Washington,DC,"1825 Michigan Avenue Northeast, 
Washington, DC  20018",(202) 529-3921,,,A9101632,38.94474,-76.97847,https://www.greatschools.org/washington-dc/washington/313-Rhema-Christian-Center-School/?utm_source=GSAPI&utm_medium=referral,https://www.greatschools.org/washington-dc/washington/313-Rhema-Christian-Center-School/?utm_source=GSAPI&utm_medium=referral,https://www.greatschools.org/washington-dc/washington/313-Rhema-Christian-Center-School/?utm_source=GSAPI&utm_medium=referral#Reviews,https://www.greatschools.org/washington-dc/washington/313-Rhema-Christian-Center-School/?utm_source=GSAPI&utm_medium=referral,,,,,20018
159,23,River Terrace Elementary School,public,PK-12,139.0,4.0,Washington,DC,"405 Anacostia Avenue Northeast, 
Washington, DC  20019",(202) 442-7111,(202) 724-4589,http://www.dcps.dc.gov,110003000506,38.896336,-76.959625,https://www.greatschools.org/washington-dc/washington/23-River-Terrace-Elementary-School/?utm_source=GSAPI&utm_medium=referral,https://www.greatschools.org/washington-dc/washington/23-River-Terrace-Elementary-School/?utm_source=GSAPI&utm_medium=referral,https://www.greatschools.org/washington-dc/washington/23-River-Terrace-Elementary-School/?utm_source=GSAPI&utm_medium=referral#Reviews,https://www.greatschools.org/washington-dc/washington/23-River-Terrace-Elementary-School/?utm_source=GSAPI&utm_medium=referral,,1.0,District Of Columbia Public Schools,1100030.0,20019
160,1252,Rocketship DC Public Charter School,charter,PK-2,,,Washington,DC,"2335 Raynolds Place Southeast, 
Washington, DC  20020",(202) 750-6402,,http://www.rsed.org/dc,110010600509,38.8556,-76.974174,https://www.greatschools.org/washington-dc/washington/1252-Rocketship-DC-Public-Charter-School/?utm_source=GSAPI&utm_medium=referral,https://www.greatschools.org/washington-dc/washington/1252-Rocketship-DC-Public-Charter-School/?utm_source=GSAPI&utm_medium=referral,https://www.greatschools.org/washington-dc/washington/1252-Rocketship-DC-Public-Charter-School/?utm_source=GSAPI&utm_medium=referral#Reviews,https://www.greatschools.org/washington-dc/washington/1252-Rocketship-DC-Public-Charter-School/?utm_source=GSAPI&utm_medium=referral,,147.0,Rocketship DC PCS,,20020
161,267,Roots PCS,charter,PK-5,120.0,4.0,Washington,DC,"15 Kennedy Street Northwest, 
Washington, DC  20011",(202) 882-8073,(202) 882-8075,http://www.rootspcs.org,110002000234,38.95677,-77.01014,https://www.greatschools.org/washington-dc/washington/267-Roots-PCS/?utm_source=GSAPI&utm_medium=referral,https://www.greatschools.org/washington-dc/washington/267-Roots-PCS/?utm_source=GSAPI&utm_medium=referral,https://www.greatschools.org/washington-dc/washington/267-Roots-PCS/?utm_source=GSAPI&utm_medium=referral#Reviews,https://www.greatschools.org/washington-dc/washington/267-Roots-PCS/?utm_source=GSAPI&utm_medium=referral,,101.0,Roots Pcs,1100020.0,20011
162,22,Ross Elementary School,public,PK-5,154.0,4.0,Washington,DC,"1730 R Street Northwest, 
Washington, DC  20009",(202) 673-7200,,http://www.dcps.dc.gov,110003000027,38.91235,-77.0397,https://www.greatschools.org/washington-dc/washington/22-Ross-Elementary-School/?utm_source=GSAPI&utm_medium=referral,https://www.greatschools.org/washington-dc/washington/22-Ross-Elementary-School/?utm_source=GSAPI&utm_medium=referral,https://www.greatschools.org/washington-dc/washington/22-Ross-Elementary-School/?utm_source=GSAPI&utm_medium=referral#Reviews,https://www.greatschools.org/washington-dc/washington/22-Ross-Elementary-School/?utm_source=GSAPI&utm_medium=referral,10.0,1.0,District Of Columbia Public Schools,1100030.0,20009
163,349,Sacred Heart School,private,PK-8,215.0,4.0,Washington,DC,"1625 Park Rd NW, 
Washington, DC  20010",(202) 265-4828,(202) 265-0595,www.sacredheartschooldc.org,A0304040,38.93217,-77.037796,https://www.greatschools.org/washington-dc/washington/349-Sacred-Heart-School/?utm_source=GSAPI&utm_medium=referral,https://www.greatschools.org/washington-dc/washington/349-Sacred-Heart-School/?utm_source=GSAPI&utm_medium=referral,https://www.greatschools.org/washington-dc/washington/349-Sacred-Heart-School/?utm_source=GSAPI&utm_medium=referral#Reviews,https://www.greatschools.org/washington-dc/washington/349-Sacred-Heart-School/?utm_source=GSAPI&utm_medium=referral,,,,,20010
164,20,Savoy Elementary School,public,PK-5,387.0,,Washington,DC,"2400 Shannon Place Southeast, 
Washington, DC  20020",(202) 939-2000,(202) 535-1415,http://www.dcps.dc.gov,110003000025,38.862537,-76.99338,https://www.greatschools.org/washington-dc/washington/20-Savoy-Elementary-School/?utm_source=GSAPI&utm_medium=referral,https://www.greatschools.org/washington-dc/washington/20-Savoy-Elementary-School/?utm_source=GSAPI&utm_medium=referral,https://www.greatschools.org/washington-dc/washington/20-Savoy-Elementary-School/?utm_source=GSAPI&utm_medium=referral#Reviews,https://www.greatschools.org/washington-dc/washington/20-Savoy-Elementary-School/?utm_source=GSAPI&utm_medium=referral,3.0,1.0,District Of Columbia Public Schools,1100030.0,20020
165,909,School Without Walls @ Francis-Stevens,public,PK-8,409.0,4.0,Washington,DC,"2425 N Street Northwest, 
Washington, DC  20037",(202) 724-4841,(202) 724-3957,http://www.dcps.dc.gov,110003000149,38.90766,-77.05226,https://www.greatschools.org/washington-dc/washington/909-School-Without-Walls-@-Francis-Stevens/?utm_source=GSAPI&utm_medium=referral,https://www.greatschools.org/washington-dc/washington/909-School-Without-Walls-@-Francis-Stevens/?utm_source=GSAPI&utm_medium=referral,https://www.greatschools.org/washington-dc/washington/909-School-Without-Walls-@-Francis-Stevens/?utm_source=GSAPI&utm_medium=referral#Reviews,https://www.greatschools.org/washington-dc/washington/909-School-Without-Walls-@-Francis-Stevens/?utm_source=GSAPI&utm_medium=referral,8.0,1.0,District Of Columbia Public Schools,1100030.0,20037
166,1202,School-Within-School @ Goding,public,PK-5,126.0,,Washington,DC,"920 F Street Northeast, 
Washington, DC  20002",(202) 727-7377,,http://www.dcps.dc.gov,110003000466,38.897556,-76.99316,https://www.greatschools.org/washington-dc/washington/1202-School-Within-School-@-Goding/?utm_source=GSAPI&utm_medium=referral,https://www.greatschools.org/washington-dc/washington/1202-School-Within-School-@-Goding/?utm_source=GSAPI&utm_medium=referral,https://www.greatschools.org/washington-dc/washington/1202-School-Within-School-@-Goding/?utm_source=GSAPI&utm_medium=referral#Reviews,https://www.greatschools.org/washington-dc/washington/1202-School-Within-School-@-Goding/?utm_source=GSAPI&utm_medium=referral,9.0,1.0,District Of Columbia Public Schools,1100030.0,20002
167,19,Seaton Elementary School,public,PK-5,256.0,5.0,Washington,DC,"1503 10th Street Northwest, 
Washington, DC  20001",(202) 673-7215,(202) 673-7216,http://www.dcps.dc.gov,110003000024,38.910706,-77.02509,https://www.greatschools.org/washington-dc/washington/19-Seaton-Elementary-School/?utm_source=GSAPI&utm_medium=referral,https://www.greatschools.org/washington-dc/washington/19-Seaton-Elementary-School/?utm_source=GSAPI&utm_medium=referral,https://www.greatschools.org/washington-dc/washington/19-Seaton-Elementary-School/?utm_source=GSAPI&utm_medium=referral#Reviews,https://www.greatschools.org/washington-dc/washington/19-Seaton-Elementary-School/?utm_source=GSAPI&utm_medium=referral,7.0,1.0,District Of Columbia Public Schools,1100030.0,20001
168,877,Sela Public Charter School,charter,PK-3,125.0,5.0,Washington,DC,"6015 Chillum Place Northeast, 
Washington, DC  20011",(202) 670-7352,(202) 722-2968,http://www.selapcs.org,110008800461,38.96394,-77.007416,https://www.greatschools.org/washington-dc/washington/877-Sela-Public-Charter-School/?utm_source=GSAPI&utm_medium=referral,https://www.greatschools.org/washington-dc/washington/877-Sela-Public-Charter-School/?utm_source=GSAPI&utm_medium=referral,https://www.greatschools.org/washington-dc/washington/877-Sela-Public-Charter-School/?utm_source=GSAPI&utm_medium=referral#Reviews,https://www.greatschools.org/washington-dc/washington/877-Sela-Public-Charter-School/?utm_source=GSAPI&utm_medium=referral,,129.0,Sela Pcs,1100088.0,20011
169,25,Shepherd Elementary School,public,PK-5,314.0,3.0,Washington,DC,"7800 14th Street Northwest, 
Washington, DC  20012",(202) 576-6140,(202) 723-0011,http://www.dcps.dc.gov,110003000030,38.984577,-77.03405,https://www.greatschools.org/washington-dc/washington/25-Shepherd-Elementary-School/?utm_source=GSAPI&utm_medium=referral,https://www.greatschools.org/washington-dc/washington/25-Shepherd-Elementary-School/?utm_source=GSAPI&utm_medium=referral,https://www.greatschools.org/washington-dc/washington/25-Shepherd-Elementary-School/?utm_source=GSAPI&utm_medium=referral#Reviews,https://www.greatschools.org/washington-dc/washington/25-Shepherd-Elementary-School/?utm_source=GSAPI&utm_medium=referral,9.0,1.0,District Of Columbia Public Schools,1100030.0,20012
170,192,Sheridan School,private,K-8,225.0,5.0,Washington,DC,"4400 36th Street NW, 
Washington, DC  20008",(202) 362-7900,(202) 244-9696,http://www.sheridanschool.org/,00253437,38.94674,-77.0705,https://www.greatschools.org/washington-dc/washington/192-Sheridan-School/?utm_source=GSAPI&utm_medium=referral,https://www.greatschools.org/washington-dc/washington/192-Sheridan-School/?utm_source=GSAPI&utm_medium=referral,https://www.greatschools.org/washington-dc/washington/192-Sheridan-School/?utm_source=GSAPI&utm_medium=referral#Reviews,https://www.greatschools.org/washington-dc/washington/192-Sheridan-School/?utm_source=GSAPI&utm_medium=referral,,,,,20008
171,838,Shining Stars Montessori Academy PCS,charter,PK-5,165.0,4.0,Washington,DC,"1240 Randolph St NE, 
Washington, DC  20017",(202) 723-1467,(202) 319-2309,www.shiningstarspcs.org,110008100442,38.938606,-76.98883,https://www.greatschools.org/washington-dc/washington/838-Shining-Stars-Montessori-Academy-PCS/?utm_source=GSAPI&utm_medium=referral,https://www.greatschools.org/washington-dc/washington/838-Shining-Stars-Montessori-Academy-PCS/?utm_source=GSAPI&utm_medium=referral,https://www.greatschools.org/washington-dc/washington/838-Shining-Stars-Montessori-Academy-PCS/?utm_source=GSAPI&utm_medium=referral#Reviews,https://www.greatschools.org/washington-dc/washington/838-Shining-Stars-Montessori-Academy-PCS/?utm_source=GSAPI&utm_medium=referral,,122.0,Shining Stars Montessori Pcs,1100081.0,20017
172,211,Sidwell Friends School,private,PK-12,1109.0,4.0,Washington,DC,"3825 Wisconsin Ave NW, 
Washington, DC  20016",(202) 537-8100,,http://www.sidwell.edu,02032143,38.93877,-77.07462,https://www.greatschools.org/washington-dc/washington/211-Sidwell-Friends-School/?utm_source=GSAPI&utm_medium=referral,https://www.greatschools.org/washington-dc/washington/211-Sidwell-Friends-School/?utm_source=GSAPI&utm_medium=referral,https://www.greatschools.org/washington-dc/washington/211-Sidwell-Friends-School/?utm_source=GSAPI&utm_medium=referral#Reviews,https://www.greatschools.org/washington-dc/washington/211-Sidwell-Friends-School/?utm_source=GSAPI&utm_medium=referral,,,,,20016
173,42,Simon Elementary School,public,PK-5,270.0,3.0,Washington,DC,"401 Mississippi Avenue Southeast, 
Washington, DC  20032",(202) 645-3360,(202) 645-3359,http://www.dcps.dc.gov,110003000054,38.835876,-77.000175,https://www.greatschools.org/washington-dc/washington/42-Simon-Elementary-School/?utm_source=GSAPI&utm_medium=referral,https://www.greatschools.org/washington-dc/washington/42-Simon-Elementary-School/?utm_source=GSAPI&utm_medium=referral,https://www.greatschools.org/washington-dc/washington/42-Simon-Elementary-School/?utm_source=GSAPI&utm_medium=referral#Reviews,https://www.greatschools.org/washington-dc/washington/42-Simon-Elementary-School/?utm_source=GSAPI&utm_medium=referral,1.0,1.0,District Of Columbia Public Schools,1100030.0,20032
174,48,Smothers Elementary School,public,PK-5,282.0,4.0,Washington,DC,"4400 Brooks Street Northeast, 
Washington, DC  20019",(202) 939-3600,,http://www.dcps.dc.gov,110003000064,38.89361,-76.93842,https://www.greatschools.org/washington-dc/washington/48-Smothers-Elementary-School/?utm_source=GSAPI&utm_medium=referral,https://www.greatschools.org/washington-dc/washington/48-Smothers-Elementary-School/?utm_source=GSAPI&utm_medium=referral,https://www.greatschools.org/washington-dc/washington/48-Smothers-Elementary-School/?utm_source=GSAPI&utm_medium=referral#Reviews,https://www.greatschools.org/washington-dc/washington/48-Smothers-Elementary-School/?utm_source=GSAPI&utm_medium=referral,2.0,1.0,District Of Columbia Public Schools,1100030.0,20019
175,1015,St Thomas More Catholic,private,PK-8,165.0,,Washington,DC,"4265 4th Street Southeast, 
Washington, DC  20032",(202) 561-1189,,http://adw.org/school/saint-thomas-more-catholic-academy/,A1100483,38.825726,-77.00036,https://www.greatschools.org/washington-dc/washington/1015-St-Thomas-More-Catholic/?utm_source=GSAPI&utm_medium=referral,https://www.greatschools.org/washington-dc/washington/1015-St-Thomas-More-Catholic/?utm_source=GSAPI&utm_medium=referral,https://www.greatschools.org/washington-dc/washington/1015-St-Thomas-More-Catholic/?utm_source=GSAPI&utm_medium=referral#Reviews,https://www.greatschools.org/washington-dc/washington/1015-St-Thomas-More-Catholic/?utm_source=GSAPI&utm_medium=referral,,,,,20032
176,206,St. Albans School,private,4-12,575.0,4.0,Washington,DC,"Mount St Alban, 
Washington, DC  20016",(202) 537-6435,,,02015988,38.8904,-77.032,https://www.greatschools.org/washington-dc/washington/206-St.-Albans-School/?utm_source=GSAPI&utm_medium=referral,https://www.greatschools.org/washington-dc/washington/206-St.-Albans-School/?utm_source=GSAPI&utm_medium=referral,https://www.greatschools.org/washington-dc/washington/206-St.-Albans-School/?utm_source=GSAPI&utm_medium=referral#Reviews,https://www.greatschools.org/washington-dc/washington/206-St.-Albans-School/?utm_source=GSAPI&utm_medium=referral,,,,,20016
177,572,St. Anthony Catholic School,private,PK-8,225.0,3.0,Washington,DC,"3400 12th Street NE, 
Washington, DC  20017",(202) 526-4657,(202) 832-5567,http://www.stanthonyschooldc.org,A0500919,38.93189,-76.99113,https://www.greatschools.org/washington-dc/washington/572-St.-Anthony-Catholic-School/?utm_source=GSAPI&utm_medium=referral,https://www.greatschools.org/washington-dc/washington/572-St.-Anthony-Catholic-School/?utm_source=GSAPI&utm_medium=referral,https://www.greatschools.org/washington-dc/washington/572-St.-Anthony-Catholic-School/?utm_source=GSAPI&utm_medium=referral#Reviews,https://www.greatschools.org/washington-dc/washington/572-St.-Anthony-Catholic-School/?utm_source=GSAPI&utm_medium=referral,,,,,20017
178,176,St. Augustine School,private,PK-8,197.0,4.0,Washington,DC,"1421 V Street NW, 
Washington, DC  20009",(202) 667-2608,(202) 667-2610,www.staug-dc.org,00252921,38.918163,-77.03338,https://www.greatschools.org/washington-dc/washington/176-St.-Augustine-School/?utm_source=GSAPI&utm_medium=referral,https://www.greatschools.org/washington-dc/washington/176-St.-Augustine-School/?utm_source=GSAPI&utm_medium=referral,https://www.greatschools.org/washington-dc/washington/176-St.-Augustine-School/?utm_source=GSAPI&utm_medium=referral#Reviews,https://www.greatschools.org/washington-dc/washington/176-St.-Augustine-School/?utm_source=GSAPI&utm_medium=referral,,,,,20009
179,558,St. Coletta Special Education PCS,charter,PK-12,250.0,4.0,Washington,DC,"1901 Independence Avenue Southeast, 
Washington, DC  20003",(202) 350-8680,(202) 350-8699,http://www.stcoletta.org,110006400367,38.88691,-76.97673,https://www.greatschools.org/washington-dc/washington/558-St.-Coletta-Special-Education-PCS/?utm_source=GSAPI&utm_medium=referral,https://www.greatschools.org/washington-dc/washington/558-St.-Coletta-Special-Education-PCS/?utm_source=GSAPI&utm_medium=referral,https://www.greatschools.org/washington-dc/washington/558-St.-Coletta-Special-Education-PCS/?utm_source=GSAPI&utm_medium=referral#Reviews,https://www.greatschools.org/washington-dc/washington/558-St.-Coletta-Special-Education-PCS/?utm_source=GSAPI&utm_medium=referral,,104.0,St. Coletta Special Education Pcs,1100064.0,20003
180,205,St. Francis Xavier Academy,private,PK-8,225.0,3.0,Washington,DC,"2700 O St SE, 
Washington, DC  20020",(202) 581-2010,(202) 581-1142,www.catholicacademies.org/schools/st-francis-xavier-academy,01605173,38.873154,-76.968605,https://www.greatschools.org/washington-dc/washington/205-St.-Francis-Xavier-Academy/?utm_source=GSAPI&utm_medium=referral,https://www.greatschools.org/washington-dc/washington/205-St.-Francis-Xavier-Academy/?utm_source=GSAPI&utm_medium=referral,https://www.greatschools.org/washington-dc/washington/205-St.-Francis-Xavier-Academy/?utm_source=GSAPI&utm_medium=referral#Reviews,https://www.greatschools.org/washington-dc/washington/205-St.-Francis-Xavier-Academy/?utm_source=GSAPI&utm_medium=referral,,,,,20020
181,201,St. Patrick's Episcopal Day School,private,PK-8,485.0,5.0,Washington,DC,"4700 Whitehaven Parkway Northwest, 
Washington, DC  20007",(202) 342-2805,,http://www.stpatsdc.org,00253834,38.915928,-77.09121,https://www.greatschools.org/washington-dc/washington/201-St.-Patrick's-Episcopal-Day-School/?utm_source=GSAPI&utm_medium=referral,https://www.greatschools.org/washington-dc/washington/201-St.-Patrick's-Episcopal-Day-School/?utm_source=GSAPI&utm_medium=referral,https://www.greatschools.org/washington-dc/washington/201-St.-Patrick's-Episcopal-Day-School/?utm_source=GSAPI&utm_medium=referral#Reviews,https://www.greatschools.org/washington-dc/washington/201-St.-Patrick's-Episcopal-Day-School/?utm_source=GSAPI&utm_medium=referral,,,,,20007
182,173,St. Peter School,private,PK-8,235.0,4.0,Washington,DC,"422 Third Street SE, 
Washington, DC  20003",(202) 544-1618,,http://www.stpeterschooldc.org,00252819,38.883556,-77.00147,https://www.greatschools.org/washington-dc/washington/173-St.-Peter-School/?utm_source=GSAPI&utm_medium=referral,https://www.greatschools.org/washington-dc/washington/173-St.-Peter-School/?utm_source=GSAPI&utm_medium=referral,https://www.greatschools.org/washington-dc/washington/173-St.-Peter-School/?utm_source=GSAPI&utm_medium=referral#Reviews,https://www.greatschools.org/washington-dc/washington/173-St.-Peter-School/?utm_source=GSAPI&utm_medium=referral,,,,,20003
183,174,St. Thomas More Catholic School,private,PK-8,146.0,4.0,Washington,DC,"4265 4th St SE, 
Washington, DC  20032",(202) 561-1189,(202) 562-2336,www.catholicacademies.org/schools/st-thomas-more-catholic-academy,00252852,38.825726,-77.00036,https://www.greatschools.org/washington-dc/washington/174-St.-Thomas-More-Catholic-School/?utm_source=GSAPI&utm_medium=referral,https://www.greatschools.org/washington-dc/washington/174-St.-Thomas-More-Catholic-School/?utm_source=GSAPI&utm_medium=referral,https://www.greatschools.org/washington-dc/washington/174-St.-Thomas-More-Catholic-School/?utm_source=GSAPI&utm_medium=referral#Reviews,https://www.greatschools.org/washington-dc/washington/174-St.-Thomas-More-Catholic-School/?utm_source=GSAPI&utm_medium=referral,,,,,20032
184,11,Stanton Elementary School,public,PK-5,391.0,4.0,Washington,DC,"2701 Naylor Road Southeast, 
Washington, DC  20020",(202) 671-6180,(202) 645-3264,http://www.dcps.dc.gov,110003000013,38.859295,-76.96858,https://www.greatschools.org/washington-dc/washington/11-Stanton-Elementary-School/?utm_source=GSAPI&utm_medium=referral,https://www.greatschools.org/washington-dc/washington/11-Stanton-Elementary-School/?utm_source=GSAPI&utm_medium=referral,https://www.greatschools.org/washington-dc/washington/11-Stanton-Elementary-School/?utm_source=GSAPI&utm_medium=referral#Reviews,https://www.greatschools.org/washington-dc/washington/11-Stanton-Elementary-School/?utm_source=GSAPI&utm_medium=referral,3.0,1.0,District Of Columbia Public Schools,1100030.0,20020
185,38,Stoddert Elementary School,public,PK-5,368.0,4.0,Washington,DC,"4001 Calvert Street Northwest, 
Washington, DC  20007",(202) 671-6030,(202) 282-0145,http://www.dcps.dc.gov,110003000050,38.92301,-77.079094,https://www.greatschools.org/washington-dc/washington/38-Stoddert-Elementary-School/?utm_source=GSAPI&utm_medium=referral,https://www.greatschools.org/washington-dc/washington/38-Stoddert-Elementary-School/?utm_source=GSAPI&utm_medium=referral,https://www.greatschools.org/washington-dc/washington/38-Stoddert-Elementary-School/?utm_source=GSAPI&utm_medium=referral#Reviews,https://www.greatschools.org/washington-dc/washington/38-Stoddert-Elementary-School/?utm_source=GSAPI&utm_medium=referral,10.0,1.0,District Of Columbia Public Schools,1100030.0,20007
186,10,Takoma Education Campus,public,PK-8,366.0,3.0,Washington,DC,"7010 Piney Branch Road Northwest, 
Washington, DC  20012",(202) 671-6050,(202) 671-5305,http://www.dcps.dc.gov,110003000011,38.975258,-77.02202,https://www.greatschools.org/washington-dc/washington/10-Takoma-Education-Campus/?utm_source=GSAPI&utm_medium=referral,https://www.greatschools.org/washington-dc/washington/10-Takoma-Education-Campus/?utm_source=GSAPI&utm_medium=referral,https://www.greatschools.org/washington-dc/washington/10-Takoma-Education-Campus/?utm_source=GSAPI&utm_medium=referral#Reviews,https://www.greatschools.org/washington-dc/washington/10-Takoma-Education-Campus/?utm_source=GSAPI&utm_medium=referral,5.0,1.0,District Of Columbia Public Schools,1100030.0,20012
187,1238,The Childrens Guild PCS,charter,K-8,,,Washington,DC,"2146 24th Pl NE, 
Washington, DC  20018",(202) 774-5442,,http://tcgdc.org/,110010100499,38.920708,-76.97216,https://www.greatschools.org/washington-dc/washington/1238-The-Childrens-Guild-PCS/?utm_source=GSAPI&utm_medium=referral,https://www.greatschools.org/washington-dc/washington/1238-The-Childrens-Guild-PCS/?utm_source=GSAPI&utm_medium=referral,https://www.greatschools.org/washington-dc/washington/1238-The-Childrens-Guild-PCS/?utm_source=GSAPI&utm_medium=referral#Reviews,https://www.greatschools.org/washington-dc/washington/1238-The-Childrens-Guild-PCS/?utm_source=GSAPI&utm_medium=referral,2.0,137.0,The Childrens Guild PCS,,20018
188,346,The Episcopal Center for Children,private,K-7,50.0,,Washington,DC,"5901 Utah Avenue Northwest, 
Washington, DC  20015",(202) 363-1333,,,A0304036,38.96851,-77.059906,https://www.greatschools.org/washington-dc/washington/346-The-Episcopal-Center-For-Children/?utm_source=GSAPI&utm_medium=referral,https://www.greatschools.org/washington-dc/washington/346-The-Episcopal-Center-For-Children/?utm_source=GSAPI&utm_medium=referral,https://www.greatschools.org/washington-dc/washington/346-The-Episcopal-Center-For-Children/?utm_source=GSAPI&utm_medium=referral#Reviews,https://www.greatschools.org/washington-dc/washington/346-The-Episcopal-Center-For-Children/?utm_source=GSAPI&utm_medium=referral,,,,,20015
189,356,The River School,private,PK-3,230.0,4.0,Washington,DC,"4880 MacArthur Blvd., NW  Washington, DC, 
Washington, DC  20007",(202) 337-3554,(202) 337-3534,http://www.riverschool.net,A0307377,38.917667,-77.09812,https://www.greatschools.org/washington-dc/washington/356-The-River-School/?utm_source=GSAPI&utm_medium=referral,https://www.greatschools.org/washington-dc/washington/356-The-River-School/?utm_source=GSAPI&utm_medium=referral,https://www.greatschools.org/washington-dc/washington/356-The-River-School/?utm_source=GSAPI&utm_medium=referral#Reviews,https://www.greatschools.org/washington-dc/washington/356-The-River-School/?utm_source=GSAPI&utm_medium=referral,,,,,20007
190,37,Thomas Elementary School,public,PK-5,400.0,3.0,Washington,DC,"650 Anacostia Avenue Northeast, 
Washington, DC  20019",(202) 724-4593,(202) 724-5053,http://www.dcps.dc.gov,110003000049,38.901524,-76.95197,https://www.greatschools.org/washington-dc/washington/37-Thomas-Elementary-School/?utm_source=GSAPI&utm_medium=referral,https://www.greatschools.org/washington-dc/washington/37-Thomas-Elementary-School/?utm_source=GSAPI&utm_medium=referral,https://www.greatschools.org/washington-dc/washington/37-Thomas-Elementary-School/?utm_source=GSAPI&utm_medium=referral#Reviews,https://www.greatschools.org/washington-dc/washington/37-Thomas-Elementary-School/?utm_source=GSAPI&utm_medium=referral,3.0,1.0,District Of Columbia Public Schools,1100030.0,20019
191,60,Thomson Elementary School,public,PK-5,300.0,4.0,Washington,DC,"1200 L Street Northwest, 
Washington, DC  20005",(202) 898-4660,(202) 442-8706,http://www.dcps.dc.gov,110003000076,38.903423,-77.02847,https://www.greatschools.org/washington-dc/washington/60-Thomson-Elementary-School/?utm_source=GSAPI&utm_medium=referral,https://www.greatschools.org/washington-dc/washington/60-Thomson-Elementary-School/?utm_source=GSAPI&utm_medium=referral,https://www.greatschools.org/washington-dc/washington/60-Thomson-Elementary-School/?utm_source=GSAPI&utm_medium=referral#Reviews,https://www.greatschools.org/washington-dc/washington/60-Thomson-Elementary-School/?utm_source=GSAPI&utm_medium=referral,8.0,1.0,District Of Columbia Public Schools,1100030.0,20005
192,226,Tots Developmental School,private,PK-3,,5.0,Washington,DC,"1317 Shepherd Street Northwest, 
Washington, DC  20011",(202) 829-7798,,,A9302652,38.94004,-77.03081,https://www.greatschools.org/washington-dc/washington/226-Tots-Developmental-School/?utm_source=GSAPI&utm_medium=referral,https://www.greatschools.org/washington-dc/washington/226-Tots-Developmental-School/?utm_source=GSAPI&utm_medium=referral,https://www.greatschools.org/washington-dc/washington/226-Tots-Developmental-School/?utm_source=GSAPI&utm_medium=referral#Reviews,https://www.greatschools.org/washington-dc/washington/226-Tots-Developmental-School/?utm_source=GSAPI&utm_medium=referral,,,,,20011
193,59,Truesdell Education Campus,public,PK-8,468.0,5.0,Washington,DC,"800 Ingraham Street Northwest, 
Washington, DC  20011",(202) 576-6202,(202) 576-6205,http://www.dcps.dc.gov,110003000075,38.953945,-77.024376,https://www.greatschools.org/washington-dc/washington/59-Truesdell-Education-Campus/?utm_source=GSAPI&utm_medium=referral,https://www.greatschools.org/washington-dc/washington/59-Truesdell-Education-Campus/?utm_source=GSAPI&utm_medium=referral,https://www.greatschools.org/washington-dc/washington/59-Truesdell-Education-Campus/?utm_source=GSAPI&utm_medium=referral#Reviews,https://www.greatschools.org/washington-dc/washington/59-Truesdell-Education-Campus/?utm_source=GSAPI&utm_medium=referral,7.0,1.0,District Of Columbia Public Schools,1100030.0,20011
194,58,Tubman Elementary School,public,PK-5,506.0,3.0,Washington,DC,"3101 13th Street Northwest, 
Washington, DC  20010",(202) 673-7285,(202) 673-7285,http://www.dcps.dc.gov,110003000074,38.92932,-77.02901,https://www.greatschools.org/washington-dc/washington/58-Tubman-Elementary-School/?utm_source=GSAPI&utm_medium=referral,https://www.greatschools.org/washington-dc/washington/58-Tubman-Elementary-School/?utm_source=GSAPI&utm_medium=referral,https://www.greatschools.org/washington-dc/washington/58-Tubman-Elementary-School/?utm_source=GSAPI&utm_medium=referral#Reviews,https://www.greatschools.org/washington-dc/washington/58-Tubman-Elementary-School/?utm_source=GSAPI&utm_medium=referral,5.0,1.0,District Of Columbia Public Schools,1100030.0,20010
195,155,Tuition Grant,public,K-2,,,Washington,DC,"1200 First Street Northeast, 
Washington, DC  20002",(202) 442-4800,,http://www.dcps.dc.gov,110003000203,38.906063,-77.00633,https://www.greatschools.org/washington-dc/washington/155-Tuition-Grant/?utm_source=GSAPI&utm_medium=referral,https://www.greatschools.org/washington-dc/washington/155-Tuition-Grant/?utm_source=GSAPI&utm_medium=referral,https://www.greatschools.org/washington-dc/washington/155-Tuition-Grant/?utm_source=GSAPI&utm_medium=referral#Reviews,https://www.greatschools.org/washington-dc/washington/155-Tuition-Grant/?utm_source=GSAPI&utm_medium=referral,,1.0,District Of Columbia Public Schools,1100030.0,20002
196,57,Turner Elementary School,public,PK-5,339.0,3.0,Washington,DC,"3264 Stanton Road Southeast, 
Washington, DC  20020",(202) 645-3470,(202) 645-3467,http://www.dcps.dc.gov,110003000073,38.847767,-76.980286,https://www.greatschools.org/washington-dc/washington/57-Turner-Elementary-School/?utm_source=GSAPI&utm_medium=referral,https://www.greatschools.org/washington-dc/washington/57-Turner-Elementary-School/?utm_source=GSAPI&utm_medium=referral,https://www.greatschools.org/washington-dc/washington/57-Turner-Elementary-School/?utm_source=GSAPI&utm_medium=referral#Reviews,https://www.greatschools.org/washington-dc/washington/57-Turner-Elementary-School/?utm_source=GSAPI&utm_medium=referral,3.0,1.0,District Of Columbia Public Schools,1100030.0,20020
197,369,Two Rivers PCS,charter,PK-8,516.0,4.0,Washington,DC,"1227 4th Street Northeast, 
Washington, DC  20002",(202) 546-4477,(202) 546-0869,http://www.tworiverspcs.org,110004500279,38.906773,-77.000175,https://www.greatschools.org/washington-dc/washington/369-Two-Rivers-PCS/?utm_source=GSAPI&utm_medium=referral,https://www.greatschools.org/washington-dc/washington/369-Two-Rivers-PCS/?utm_source=GSAPI&utm_medium=referral,https://www.greatschools.org/washington-dc/washington/369-Two-Rivers-PCS/?utm_source=GSAPI&utm_medium=referral#Reviews,https://www.greatschools.org/washington-dc/washington/369-Two-Rivers-PCS/?utm_source=GSAPI&utm_medium=referral,7.0,108.0,Two Rivers Pcs,1100045.0,20002
198,1248,Two Rivers Public Charter Young,charter,PK-2,,,Washington,DC,"820 26th Street Northeast, 
Washington, DC  20002",(202) 388-1360,,http://www.tworiverspcs.org,110004500498,38.9006,-76.97152,https://www.greatschools.org/washington-dc/washington/1248-Two-Rivers-Public-Charter-Young/?utm_source=GSAPI&utm_medium=referral,https://www.greatschools.org/washington-dc/washington/1248-Two-Rivers-Public-Charter-Young/?utm_source=GSAPI&utm_medium=referral,https://www.greatschools.org/washington-dc/washington/1248-Two-Rivers-Public-Charter-Young/?utm_source=GSAPI&utm_medium=referral#Reviews,https://www.greatschools.org/washington-dc/washington/1248-Two-Rivers-Public-Charter-Young/?utm_source=GSAPI&utm_medium=referral,,108.0,Two Rivers Pcs,1100045.0,20002
199,56,Tyler Elementary School,public,PK-5,470.0,3.0,Washington,DC,"1001 G Street Southeast, 
Washington, DC  20003",(202) 939-4810,(202) 698-8064,http://www.dcps.dc.gov,110003000072,38.880848,-76.99234,https://www.greatschools.org/washington-dc/washington/56-Tyler-Elementary-School/?utm_source=GSAPI&utm_medium=referral,https://www.greatschools.org/washington-dc/washington/56-Tyler-Elementary-School/?utm_source=GSAPI&utm_medium=referral,https://www.greatschools.org/washington-dc/washington/56-Tyler-Elementary-School/?utm_source=GSAPI&utm_medium=referral#Reviews,https://www.greatschools.org/washington-dc/washington/56-Tyler-Elementary-School/?utm_source=GSAPI&utm_medium=referral,5.0,1.0,District Of Columbia Public Schools,1100030.0,20003
