,gsId,name,type,gradeRange,enrollment,parentRating,city,state,address,phone,fax,website,ncesId,lat,lon,overviewLink,ratingsLink,reviewsLink,schoolStatsLink,gsRating,districtId,district,districtNCESId,Zip Code
0,394,Academia de la Recta Porta,private,PK-12,72.0,4.0,Washington,DC,"7614 Georgia Ave NW, 
Washington, DC  20012",(202) 726-8737,,,A0300737,38.982582,-77.02679,https://www.greatschools.org/washington-dc/washington/394-Academia-De-La-Recta-Porta/?utm_source=GSAPI&utm_medium=referral,https://www.greatschools.org/washington-dc/washington/394-Academia-De-La-Recta-Porta/?utm_source=GSAPI&utm_medium=referral,https://www.greatschools.org/washington-dc/washington/394-Academia-De-La-Recta-Porta/?utm_source=GSAPI&utm_medium=referral#Reviews,https://www.greatschools.org/washington-dc/washington/394-Academia-De-La-Recta-Porta/?utm_source=GSAPI&utm_medium=referral,,,,,20012
1,246,Academy for Ideal Education - T Street,private,1-12,65.0,4.0,Washington,DC,"62 T st N.E washington, 
Washington, DC  20002",(202) 269-3186,(202) 269-3426,http://www.idealacademy.org/,A9901125,38.91555,-77.00846,https://www.greatschools.org/washington-dc/washington/246-Academy-For-Ideal-Education---T-Street/?utm_source=GSAPI&utm_medium=referral,https://www.greatschools.org/washington-dc/washington/246-Academy-For-Ideal-Education---T-Street/?utm_source=GSAPI&utm_medium=referral,https://www.greatschools.org/washington-dc/washington/246-Academy-For-Ideal-Education---T-Street/?utm_source=GSAPI&utm_medium=referral#Reviews,https://www.greatschools.org/washington-dc/washington/246-Academy-For-Ideal-Education---T-Street/?utm_source=GSAPI&utm_medium=referral,,,,,20002
2,881,Alternative Solutions for Youth,private,n/a,,,Washington,DC,"1301 Lenfant Square, 
Washington, DC  20020",(202) 584-1244,(423) 472-2718,http://dcase.org/Alternative,,38.87393,-76.97009,https://www.greatschools.org/washington-dc/washington/881-Alternative-Solutions-For-Youth/?utm_source=GSAPI&utm_medium=referral,https://www.greatschools.org/washington-dc/washington/881-Alternative-Solutions-For-Youth/?utm_source=GSAPI&utm_medium=referral,https://www.greatschools.org/washington-dc/washington/881-Alternative-Solutions-For-Youth/?utm_source=GSAPI&utm_medium=referral#Reviews,https://www.greatschools.org/washington-dc/washington/881-Alternative-Solutions-For-Youth/?utm_source=GSAPI&utm_medium=referral,,,,,20020
3,66,Anacostia High School,public,9-12,597.0,2.0,Washington,DC,"1601 16th Street Southeast, 
Washington, DC  20020",(202) 698-2155,(202) 698-2188,http://www.dcps.dc.gov,110003000085,38.86994,-76.98285,https://www.greatschools.org/washington-dc/washington/66-Anacostia-High-School/?utm_source=GSAPI&utm_medium=referral,https://www.greatschools.org/washington-dc/washington/66-Anacostia-High-School/?utm_source=GSAPI&utm_medium=referral,https://www.greatschools.org/washington-dc/washington/66-Anacostia-High-School/?utm_source=GSAPI&utm_medium=referral#Reviews,https://www.greatschools.org/washington-dc/washington/66-Anacostia-High-School/?utm_source=GSAPI&utm_medium=referral,1.0,1.0,District Of Columbia Public Schools,1100030.0,20020
4,166,Archbishop Carroll High School,private,9-12,450.0,4.0,Washington,DC,"4300 Harewood Rd NE, 
Washington, DC  20017",(202) 529-0900,(202) 526-8879,http://www.archbishopcarroll.org,00252648,38.94075,-77.00317,https://www.greatschools.org/washington-dc/washington/166-Archbishop-Carroll-High-School/?utm_source=GSAPI&utm_medium=referral,https://www.greatschools.org/washington-dc/washington/166-Archbishop-Carroll-High-School/?utm_source=GSAPI&utm_medium=referral,https://www.greatschools.org/washington-dc/washington/166-Archbishop-Carroll-High-School/?utm_source=GSAPI&utm_medium=referral#Reviews,https://www.greatschools.org/washington-dc/washington/166-Archbishop-Carroll-High-School/?utm_source=GSAPI&utm_medium=referral,,,,,20017
5,847,BASIS DC,charter,5-12,648.0,4.0,Washington,DC,"410 8th Street NW, 
Washington, DC  20004",(202) 804-6390,(202) 393-5438,http://www.basisdc.org,110008300443,38.89523,-77.02331,https://www.greatschools.org/washington-dc/washington/847-BASIS-DC-/?utm_source=GSAPI&utm_medium=referral,https://www.greatschools.org/washington-dc/washington/847-BASIS-DC-/?utm_source=GSAPI&utm_medium=referral,https://www.greatschools.org/washington-dc/washington/847-BASIS-DC-/?utm_source=GSAPI&utm_medium=referral#Reviews,https://www.greatschools.org/washington-dc/washington/847-BASIS-DC-/?utm_source=GSAPI&utm_medium=referral,8.0,124.0,Basis Dc Pcs,1100083.0,20004
6,65,Ballou High School,public,9-12,933.0,3.0,Washington,DC,"3401 4th Street Southeast, 
Washington, DC  20032",(202) 645-3400,(202) 645-3397,http://www.dcps.dc.gov,110003000084,38.839355,-77.00143,https://www.greatschools.org/washington-dc/washington/65-Ballou-High-School/?utm_source=GSAPI&utm_medium=referral,https://www.greatschools.org/washington-dc/washington/65-Ballou-High-School/?utm_source=GSAPI&utm_medium=referral,https://www.greatschools.org/washington-dc/washington/65-Ballou-High-School/?utm_source=GSAPI&utm_medium=referral#Reviews,https://www.greatschools.org/washington-dc/washington/65-Ballou-High-School/?utm_source=GSAPI&utm_medium=referral,1.0,1.0,District Of Columbia Public Schools,1100030.0,20032
7,330,Ballou STAY High School,public,9-12,252.0,5.0,Washington,DC,"3401 4th Street Southeast, 
Washington, DC  20032",(202) 645-3390,(202) 645-3935,http://www.dcps.dc.gov,110003000207,38.839355,-77.00143,https://www.greatschools.org/washington-dc/washington/330-Ballou-STAY-High-School/?utm_source=GSAPI&utm_medium=referral,https://www.greatschools.org/washington-dc/washington/330-Ballou-STAY-High-School/?utm_source=GSAPI&utm_medium=referral,https://www.greatschools.org/washington-dc/washington/330-Ballou-STAY-High-School/?utm_source=GSAPI&utm_medium=referral#Reviews,https://www.greatschools.org/washington-dc/washington/330-Ballou-STAY-High-School/?utm_source=GSAPI&utm_medium=referral,,1.0,District Of Columbia Public Schools,1100030.0,20032
8,120,Benjamin Banneker High School,public,9-12,454.0,4.0,Washington,DC,"800 Euclid Street Northwest, 
Washington, DC  20001",(202) 671-6320,(202) 673-2231,http://www.dcps.dc.gov,110003000153,38.92346,-77.02397,https://www.greatschools.org/washington-dc/washington/120-Benjamin-Banneker-High-School/?utm_source=GSAPI&utm_medium=referral,https://www.greatschools.org/washington-dc/washington/120-Benjamin-Banneker-High-School/?utm_source=GSAPI&utm_medium=referral,https://www.greatschools.org/washington-dc/washington/120-Benjamin-Banneker-High-School/?utm_source=GSAPI&utm_medium=referral#Reviews,https://www.greatschools.org/washington-dc/washington/120-Benjamin-Banneker-High-School/?utm_source=GSAPI&utm_medium=referral,10.0,1.0,District Of Columbia Public Schools,1100030.0,20001
9,1220,Blyth-Templeton Academy,private,9-12,100.0,,Washington,DC,"921 Pennsylvania Ave SE, Office #013, 
Washington, DC  20036",(202) 847-0779,,www.blythtempleton.org,,38.910896,-77.042694,https://www.greatschools.org/washington-dc/washington/1220-Blyth-Templeton-Academy/?utm_source=GSAPI&utm_medium=referral,https://www.greatschools.org/washington-dc/washington/1220-Blyth-Templeton-Academy/?utm_source=GSAPI&utm_medium=referral,https://www.greatschools.org/washington-dc/washington/1220-Blyth-Templeton-Academy/?utm_source=GSAPI&utm_medium=referral#Reviews,https://www.greatschools.org/washington-dc/washington/1220-Blyth-Templeton-Academy/?utm_source=GSAPI&utm_medium=referral,,,,,20036
10,373,British International School of Washington,private,PK-12,501.0,3.0,Washington,DC,"2001 Wisconsin Avenue NW, 
Washington, DC  20007",(202) 829-3700,(202) 829-6522,http://www.nordangliaeducation.com/our-schools/washington,A0500912,38.91671,-77.0681,https://www.greatschools.org/washington-dc/washington/373-British-International-School-Of-Washington/?utm_source=GSAPI&utm_medium=referral,https://www.greatschools.org/washington-dc/washington/373-British-International-School-Of-Washington/?utm_source=GSAPI&utm_medium=referral,https://www.greatschools.org/washington-dc/washington/373-British-International-School-Of-Washington/?utm_source=GSAPI&utm_medium=referral#Reviews,https://www.greatschools.org/washington-dc/washington/373-British-International-School-Of-Washington/?utm_source=GSAPI&utm_medium=referral,,,,,20007
11,882,Building for the Future/Seeds of Tomorrow,private,n/a,,,Washington,DC,"2041 Martin Luther King Jr. Ave, 
Washington, DC  20020",(202) 747-7530,(717) 394-0885,http://empoweringcenter.org/newempoweringcenter,,38.86591,-76.98979,https://www.greatschools.org/washington-dc/washington/882-Building-For-The-Future-Seeds-Of-Tomorrow/?utm_source=GSAPI&utm_medium=referral,https://www.greatschools.org/washington-dc/washington/882-Building-For-The-Future-Seeds-Of-Tomorrow/?utm_source=GSAPI&utm_medium=referral,https://www.greatschools.org/washington-dc/washington/882-Building-For-The-Future-Seeds-Of-Tomorrow/?utm_source=GSAPI&utm_medium=referral#Reviews,https://www.greatschools.org/washington-dc/washington/882-Building-For-The-Future-Seeds-Of-Tomorrow/?utm_source=GSAPI&utm_medium=referral,,,,,20020
12,292,C.H.O.I.C.E. Academy @ Washington Met,public,7-12 & ungraded,,1.0,Washington,DC,"300 Bryant Street NW, 
Washington, DC  20001",(202) 939-4350,,www.dcps.dc.gov/DCPS/CHOICE,110003000418,38.920216,-77.016716,https://www.greatschools.org/washington-dc/washington/292-C.H.O.I.C.E.-Academy-@-Washington-Met/?utm_source=GSAPI&utm_medium=referral,https://www.greatschools.org/washington-dc/washington/292-C.H.O.I.C.E.-Academy-@-Washington-Met/?utm_source=GSAPI&utm_medium=referral,https://www.greatschools.org/washington-dc/washington/292-C.H.O.I.C.E.-Academy-@-Washington-Met/?utm_source=GSAPI&utm_medium=referral#Reviews,https://www.greatschools.org/washington-dc/washington/292-C.H.O.I.C.E.-Academy-@-Washington-Met/?utm_source=GSAPI&utm_medium=referral,,1.0,District Of Columbia Public Schools,1100030.0,20001
13,591,Capital City High School PCS,charter,9-12,340.0,5.0,Washington,DC,"100 Peabody Street Northwest, 
Washington, DC  20011",(202) 808-9800,,http://www.ccpcs.org,110003500475,38.962334,-77.01261,https://www.greatschools.org/washington-dc/washington/591-Capital-City-High-School-PCS/?utm_source=GSAPI&utm_medium=referral,https://www.greatschools.org/washington-dc/washington/591-Capital-City-High-School-PCS/?utm_source=GSAPI&utm_medium=referral,https://www.greatschools.org/washington-dc/washington/591-Capital-City-High-School-PCS/?utm_source=GSAPI&utm_medium=referral#Reviews,https://www.greatschools.org/washington-dc/washington/591-Capital-City-High-School-PCS/?utm_source=GSAPI&utm_medium=referral,7.0,74.0,Capital City Pcs,1100035.0,20011
14,64,Cardozo Education Campus,public,6-12,783.0,4.0,Washington,DC,"1200 Clifton Street Northwest, 
Washington, DC  20009",(202) 673-7385,(202) 673-2232,http://www.dcps.dc.gov,110003000082,38.92195,-77.02826,https://www.greatschools.org/washington-dc/washington/64-Cardozo-Education-Campus/?utm_source=GSAPI&utm_medium=referral,https://www.greatschools.org/washington-dc/washington/64-Cardozo-Education-Campus/?utm_source=GSAPI&utm_medium=referral,https://www.greatschools.org/washington-dc/washington/64-Cardozo-Education-Campus/?utm_source=GSAPI&utm_medium=referral#Reviews,https://www.greatschools.org/washington-dc/washington/64-Cardozo-Education-Campus/?utm_source=GSAPI&utm_medium=referral,3.0,1.0,District Of Columbia Public Schools,1100030.0,20009
15,883,Career Training Program,private,n/a,,,Washington,DC,"700 Monroes St, NE, 
Washington, DC  20017",(202) 526-1400,(202) 526-1405,,,38.932556,-76.995804,https://www.greatschools.org/washington-dc/washington/883-Career-Training-Program/?utm_source=GSAPI&utm_medium=referral,https://www.greatschools.org/washington-dc/washington/883-Career-Training-Program/?utm_source=GSAPI&utm_medium=referral,https://www.greatschools.org/washington-dc/washington/883-Career-Training-Program/?utm_source=GSAPI&utm_medium=referral#Reviews,https://www.greatschools.org/washington-dc/washington/883-Career-Training-Program/?utm_source=GSAPI&utm_medium=referral,,,,,20017
16,323,Carlos Rosario International PCS,charter,n/a,1750.0,5.0,Washington,DC,"1100 Harvard Street, NW, 
Washington, DC  20009",(202) 797-4700,(202) 232-6442,,110000400218,38.926716,-77.02705,https://www.greatschools.org/washington-dc/washington/323-Carlos-Rosario-International-PCS/?utm_source=GSAPI&utm_medium=referral,https://www.greatschools.org/washington-dc/washington/323-Carlos-Rosario-International-PCS/?utm_source=GSAPI&utm_medium=referral,https://www.greatschools.org/washington-dc/washington/323-Carlos-Rosario-International-PCS/?utm_source=GSAPI&utm_medium=referral#Reviews,https://www.greatschools.org/washington-dc/washington/323-Carlos-Rosario-International-PCS/?utm_source=GSAPI&utm_medium=referral,,42.0,Carlos Rosario International Pcs,1100004.0,20009
17,873,Cesar Chavez PCS for Public Policy - Parkside High School,charter,9-12,374.0,1.0,Washington,DC,"3701 Hayes Street Northeast, 
Washington, DC  20019",(202) 398-2230,(202) 547-3449,http://www.chavezschools.org,110000500456,38.90136,-76.9491,https://www.greatschools.org/washington-dc/washington/873-Cesar-Chavez-PCS-For-Public-Policy---Parkside-High-School/?utm_source=GSAPI&utm_medium=referral,https://www.greatschools.org/washington-dc/washington/873-Cesar-Chavez-PCS-For-Public-Policy---Parkside-High-School/?utm_source=GSAPI&utm_medium=referral,https://www.greatschools.org/washington-dc/washington/873-Cesar-Chavez-PCS-For-Public-Policy---Parkside-High-School/?utm_source=GSAPI&utm_medium=referral#Reviews,https://www.greatschools.org/washington-dc/washington/873-Cesar-Chavez-PCS-For-Public-Policy---Parkside-High-School/?utm_source=GSAPI&utm_medium=referral,5.0,75.0,Cesar Chavez Public Pcs,1100005.0,20019
18,252,Cesar Chavez PCS for Public Policy- Capitol Hill,charter,9-12,387.0,4.0,Washington,DC,"709 12th Street Southeast, 
Washington, DC  20003",(202) 547-3424,,http://www.chavezschools.org,110000500219,38.88078,-76.9907,https://www.greatschools.org/washington-dc/washington/252-Cesar-Chavez-PCS-For-Public-Policy--Capitol-Hill/?utm_source=GSAPI&utm_medium=referral,https://www.greatschools.org/washington-dc/washington/252-Cesar-Chavez-PCS-For-Public-Policy--Capitol-Hill/?utm_source=GSAPI&utm_medium=referral,https://www.greatschools.org/washington-dc/washington/252-Cesar-Chavez-PCS-For-Public-Policy--Capitol-Hill/?utm_source=GSAPI&utm_medium=referral#Reviews,https://www.greatschools.org/washington-dc/washington/252-Cesar-Chavez-PCS-For-Public-Policy--Capitol-Hill/?utm_source=GSAPI&utm_medium=referral,2.0,75.0,Cesar Chavez Public Pcs,1100005.0,20003
19,44,Columbia Heights Education Campus,public,6-12,1393.0,4.0,Washington,DC,"3101 16th Street Northwest, 
Washington, DC  20010",(202) 939-7700,,http://www.dcps.dc.gov,110003000396,38.92952,-77.03576,https://www.greatschools.org/washington-dc/washington/44-Columbia-Heights-Education-Campus/?utm_source=GSAPI&utm_medium=referral,https://www.greatschools.org/washington-dc/washington/44-Columbia-Heights-Education-Campus/?utm_source=GSAPI&utm_medium=referral,https://www.greatschools.org/washington-dc/washington/44-Columbia-Heights-Education-Campus/?utm_source=GSAPI&utm_medium=referral#Reviews,https://www.greatschools.org/washington-dc/washington/44-Columbia-Heights-Education-Campus/?utm_source=GSAPI&utm_medium=referral,6.0,1.0,District Of Columbia Public Schools,1100030.0,20010
20,63,Coolidge High School,public,9-12,384.0,4.0,Washington,DC,"6315 5th Street Northwest, 
Washington, DC  20011",(202) 671-6080,(202) 576-3147,http://www.dcps.dc.gov,110003000081,38.967285,-77.01933,https://www.greatschools.org/washington-dc/washington/63-Coolidge-High-School/?utm_source=GSAPI&utm_medium=referral,https://www.greatschools.org/washington-dc/washington/63-Coolidge-High-School/?utm_source=GSAPI&utm_medium=referral,https://www.greatschools.org/washington-dc/washington/63-Coolidge-High-School/?utm_source=GSAPI&utm_medium=referral#Reviews,https://www.greatschools.org/washington-dc/washington/63-Coolidge-High-School/?utm_source=GSAPI&utm_medium=referral,3.0,1.0,District Of Columbia Public Schools,1100030.0,20011
21,245,"Cornerstone Schools of Washington, D.C.",private,PK-12,130.0,4.0,Washington,DC,"3742 Ely Place SE, 
Washington, DC  20019",(202) 575-0027,(202) 575-0669,http://www.cornerstone-schools.org,A9901122,38.882893,-76.94812,"https://www.greatschools.org/washington-dc/washington/245-Cornerstone-Schools-Of-Washington,-D.C./?utm_source=GSAPI&utm_medium=referral","https://www.greatschools.org/washington-dc/washington/245-Cornerstone-Schools-Of-Washington,-D.C./?utm_source=GSAPI&utm_medium=referral","https://www.greatschools.org/washington-dc/washington/245-Cornerstone-Schools-Of-Washington,-D.C./?utm_source=GSAPI&utm_medium=referral#Reviews","https://www.greatschools.org/washington-dc/washington/245-Cornerstone-Schools-Of-Washington,-D.C./?utm_source=GSAPI&utm_medium=referral",,,,,20019
22,13,Duke Ellington School of the Arts,public,9-12,525.0,4.0,Washington,DC,"2501 11th Street Northwest, 
Washington, DC  20001",(202) 282-0123,(202) 337-7847,http://www.dcps.dc.gov,110003000016,38.92296,-77.02667,https://www.greatschools.org/washington-dc/washington/13-Duke-Ellington-School-Of-The-Arts/?utm_source=GSAPI&utm_medium=referral,https://www.greatschools.org/washington-dc/washington/13-Duke-Ellington-School-Of-The-Arts/?utm_source=GSAPI&utm_medium=referral,https://www.greatschools.org/washington-dc/washington/13-Duke-Ellington-School-Of-The-Arts/?utm_source=GSAPI&utm_medium=referral#Reviews,https://www.greatschools.org/washington-dc/washington/13-Duke-Ellington-School-Of-The-Arts/?utm_source=GSAPI&utm_medium=referral,9.0,1.0,District Of Columbia Public Schools,1100030.0,20001
23,62,Dunbar High School,public,9-12,653.0,4.0,Washington,DC,"101 N Street Northwest, 
Washington, DC  20001",(202) 698-3762,(202) 673-2223,http://www.dcps.dc.gov,110003000079,38.907665,-77.012726,https://www.greatschools.org/washington-dc/washington/62-Dunbar-High-School/?utm_source=GSAPI&utm_medium=referral,https://www.greatschools.org/washington-dc/washington/62-Dunbar-High-School/?utm_source=GSAPI&utm_medium=referral,https://www.greatschools.org/washington-dc/washington/62-Dunbar-High-School/?utm_source=GSAPI&utm_medium=referral#Reviews,https://www.greatschools.org/washington-dc/washington/62-Dunbar-High-School/?utm_source=GSAPI&utm_medium=referral,3.0,1.0,District Of Columbia Public Schools,1100030.0,20001
24,202,Dupont Park  Adventist School,private,PK-10,221.0,4.0,Washington,DC,"3942 Alabama Avenue Southeast, 
Washington, DC  20020",(202) 583-8500,,www.dupontparkadventistschool.org,00253914,38.868855,-76.948166,https://www.greatschools.org/washington-dc/washington/202-Dupont-Park--Adventist-School/?utm_source=GSAPI&utm_medium=referral,https://www.greatschools.org/washington-dc/washington/202-Dupont-Park--Adventist-School/?utm_source=GSAPI&utm_medium=referral,https://www.greatschools.org/washington-dc/washington/202-Dupont-Park--Adventist-School/?utm_source=GSAPI&utm_medium=referral#Reviews,https://www.greatschools.org/washington-dc/washington/202-Dupont-Park--Adventist-School/?utm_source=GSAPI&utm_medium=referral,,,,,20020
25,835,"E.L. Haynes PCS - Kansas Avenue (PK-3, High School)",charter,9-12,554.0,5.0,Washington,DC,"4501 Kansas Avenue Northwest, 
Washington, DC  20011",(202) 667-4446,,http://www.elhaynes.org,110004300433,38.94573,-77.0224,"https://www.greatschools.org/washington-dc/washington/835-E.L.-Haynes-PCS---Kansas-Avenue-(PK-3,-High-School)/?utm_source=GSAPI&utm_medium=referral","https://www.greatschools.org/washington-dc/washington/835-E.L.-Haynes-PCS---Kansas-Avenue-(PK-3,-High-School)/?utm_source=GSAPI&utm_medium=referral","https://www.greatschools.org/washington-dc/washington/835-E.L.-Haynes-PCS---Kansas-Avenue-(PK-3,-High-School)/?utm_source=GSAPI&utm_medium=referral#Reviews","https://www.greatschools.org/washington-dc/washington/835-E.L.-Haynes-PCS---Kansas-Avenue-(PK-3,-High-School)/?utm_source=GSAPI&utm_medium=referral",8.0,81.0,E.L. Haynes Pcs,1100043.0,20011
26,61,Eastern High School,public,9-12,967.0,3.0,Washington,DC,"1700 East Capitol Street Northeast, 
Washington, DC  20003",(202) 698-4500,(202) 698-4800,http://www.dcps.dc.gov,110003000078,38.890324,-76.97952,https://www.greatschools.org/washington-dc/washington/61-Eastern-High-School/?utm_source=GSAPI&utm_medium=referral,https://www.greatschools.org/washington-dc/washington/61-Eastern-High-School/?utm_source=GSAPI&utm_medium=referral,https://www.greatschools.org/washington-dc/washington/61-Eastern-High-School/?utm_source=GSAPI&utm_medium=referral#Reviews,https://www.greatschools.org/washington-dc/washington/61-Eastern-High-School/?utm_source=GSAPI&utm_medium=referral,4.0,1.0,District Of Columbia Public Schools,1100030.0,20003
27,191,Edmund Burke School,private,6-12,300.0,4.0,Washington,DC,"4101 Connecticut Avenue NW, 
Washington, DC  20008",(202) 362-8882,(202) 362-1914,,00253426,38.942024,-77.06222,https://www.greatschools.org/washington-dc/washington/191-Edmund-Burke-School/?utm_source=GSAPI&utm_medium=referral,https://www.greatschools.org/washington-dc/washington/191-Edmund-Burke-School/?utm_source=GSAPI&utm_medium=referral,https://www.greatschools.org/washington-dc/washington/191-Edmund-Burke-School/?utm_source=GSAPI&utm_medium=referral#Reviews,https://www.greatschools.org/washington-dc/washington/191-Edmund-Burke-School/?utm_source=GSAPI&utm_medium=referral,,,,,20008
28,197,Emerson Preparatory School,private,9-12,50.0,5.0,Washington,DC,"1816 12th Street, 
Washington, DC  20009",(202) 785-2877,(877) 304-8179,http://www.emersonprep.org,00253674,38.914955,-77.028496,https://www.greatschools.org/washington-dc/washington/197-Emerson-Preparatory-School/?utm_source=GSAPI&utm_medium=referral,https://www.greatschools.org/washington-dc/washington/197-Emerson-Preparatory-School/?utm_source=GSAPI&utm_medium=referral,https://www.greatschools.org/washington-dc/washington/197-Emerson-Preparatory-School/?utm_source=GSAPI&utm_medium=referral#Reviews,https://www.greatschools.org/washington-dc/washington/197-Emerson-Preparatory-School/?utm_source=GSAPI&utm_medium=referral,,,,,20009
29,906,Emery L Fears Boys Academy,private,6-12,4.0,,Washington,DC,"1544 5th Street Northwest, 
Washington, DC  20001",(202) 232-2860,,,A0900742,38.91093,-77.01923,https://www.greatschools.org/washington-dc/washington/906-Emery-L-Fears-Boys-Academy/?utm_source=GSAPI&utm_medium=referral,https://www.greatschools.org/washington-dc/washington/906-Emery-L-Fears-Boys-Academy/?utm_source=GSAPI&utm_medium=referral,https://www.greatschools.org/washington-dc/washington/906-Emery-L-Fears-Boys-Academy/?utm_source=GSAPI&utm_medium=referral#Reviews,https://www.greatschools.org/washington-dc/washington/906-Emery-L-Fears-Boys-Academy/?utm_source=GSAPI&utm_medium=referral,,,,,20001
30,198,Field School,private,6-12,360.0,4.0,Washington,DC,"2301 Foxhall Rd NW, 
Washington, DC  20007",(202) 295-5800,,www.fieldschool.org,00253732,38.92081,-77.08872,https://www.greatschools.org/washington-dc/washington/198-Field-School/?utm_source=GSAPI&utm_medium=referral,https://www.greatschools.org/washington-dc/washington/198-Field-School/?utm_source=GSAPI&utm_medium=referral,https://www.greatschools.org/washington-dc/washington/198-Field-School/?utm_source=GSAPI&utm_medium=referral#Reviews,https://www.greatschools.org/washington-dc/washington/198-Field-School/?utm_source=GSAPI&utm_medium=referral,,,,,20007
31,550,Friendship Collegiate Academy PCS,charter,9-12,810.0,4.0,Washington,DC,"4095 Minnesota Avenue Northeast, 
Washington, DC  20019",(202) 396-5500,(202) 396-8229,http://www.friendshipschools.org,110000800338,38.89746,-76.945854,https://www.greatschools.org/washington-dc/washington/550-Friendship-Collegiate-Academy-PCS/?utm_source=GSAPI&utm_medium=referral,https://www.greatschools.org/washington-dc/washington/550-Friendship-Collegiate-Academy-PCS/?utm_source=GSAPI&utm_medium=referral,https://www.greatschools.org/washington-dc/washington/550-Friendship-Collegiate-Academy-PCS/?utm_source=GSAPI&utm_medium=referral#Reviews,https://www.greatschools.org/washington-dc/washington/550-Friendship-Collegiate-Academy-PCS/?utm_source=GSAPI&utm_medium=referral,5.0,82.0,Friendship Pcs,1100008.0,20019
32,1246,Friendship PCS Technology Preparatory Academy High School,charter,9-12,,,Washington,DC,"620 Milwaukee Place Southeast, 
Washington, DC  20032",(202) 552-5700,,http://www.friendshipschools.org,110000800496,38.84828,-76.99765,https://www.greatschools.org/washington-dc/washington/1246-Friendship-PCS-Technology-Preparatory-Academy-High-School/?utm_source=GSAPI&utm_medium=referral,https://www.greatschools.org/washington-dc/washington/1246-Friendship-PCS-Technology-Preparatory-Academy-High-School/?utm_source=GSAPI&utm_medium=referral,https://www.greatschools.org/washington-dc/washington/1246-Friendship-PCS-Technology-Preparatory-Academy-High-School/?utm_source=GSAPI&utm_medium=referral#Reviews,https://www.greatschools.org/washington-dc/washington/1246-Friendship-PCS-Technology-Preparatory-Academy-High-School/?utm_source=GSAPI&utm_medium=referral,4.0,82.0,Friendship Pcs,1100008.0,20032
33,1245,Fusion Academy Washington D.C.,private,6-12,55.0,,Washington,DC,"3007 Tilden St. NW, Suite N100, 
Washington, DC  20008",(202) 244-0639,,https://www.fusionacademy.com/fusion-campus-location/washington-dc/welcome,,38.94137,-77.0635,https://www.greatschools.org/washington-dc/washington/1245-Fusion-Academy-Washington-D.C./?utm_source=GSAPI&utm_medium=referral,https://www.greatschools.org/washington-dc/washington/1245-Fusion-Academy-Washington-D.C./?utm_source=GSAPI&utm_medium=referral,https://www.greatschools.org/washington-dc/washington/1245-Fusion-Academy-Washington-D.C./?utm_source=GSAPI&utm_medium=referral#Reviews,https://www.greatschools.org/washington-dc/washington/1245-Fusion-Academy-Washington-D.C./?utm_source=GSAPI&utm_medium=referral,,,,,20008
34,828,Georgetown Day School - Upper School,private,9-12,500.0,5.0,Washington,DC,"4200 Davenport Street NW, Washington, DC 20009, 
Washington, DC  20016",(202) 274-3200,(202) 274-3211,www.gds.org,,38.952457,-77.082535,https://www.greatschools.org/washington-dc/washington/828-Georgetown-Day-School---Upper-School/?utm_source=GSAPI&utm_medium=referral,https://www.greatschools.org/washington-dc/washington/828-Georgetown-Day-School---Upper-School/?utm_source=GSAPI&utm_medium=referral,https://www.greatschools.org/washington-dc/washington/828-Georgetown-Day-School---Upper-School/?utm_source=GSAPI&utm_medium=referral#Reviews,https://www.greatschools.org/washington-dc/washington/828-Georgetown-Day-School---Upper-School/?utm_source=GSAPI&utm_medium=referral,,,,,20016
35,167,Georgetown Visitation Preparatory School,private,9-12,490.0,4.0,Washington,DC,"1524 35th St NW, 
Washington, DC  20007",(202) 337-3350,(202) 342-5733,http://www.visi.org,00252659,38.90948,-77.06925,https://www.greatschools.org/washington-dc/washington/167-Georgetown-Visitation-Preparatory-School/?utm_source=GSAPI&utm_medium=referral,https://www.greatschools.org/washington-dc/washington/167-Georgetown-Visitation-Preparatory-School/?utm_source=GSAPI&utm_medium=referral,https://www.greatschools.org/washington-dc/washington/167-Georgetown-Visitation-Preparatory-School/?utm_source=GSAPI&utm_medium=referral#Reviews,https://www.greatschools.org/washington-dc/washington/167-Georgetown-Visitation-Preparatory-School/?utm_source=GSAPI&utm_medium=referral,,,,,20007
36,168,Gonzaga College High School,private,9-12,965.0,5.0,Washington,DC,"19 Eye Street NW, 
Washington, DC  20001",(202) 336-7100,(202) 336-7164,http://www.gonzaga.org,00252681,38.9013,-77.0267,https://www.greatschools.org/washington-dc/washington/168-Gonzaga-College-High-School/?utm_source=GSAPI&utm_medium=referral,https://www.greatschools.org/washington-dc/washington/168-Gonzaga-College-High-School/?utm_source=GSAPI&utm_medium=referral,https://www.greatschools.org/washington-dc/washington/168-Gonzaga-College-High-School/?utm_source=GSAPI&utm_medium=referral#Reviews,https://www.greatschools.org/washington-dc/washington/168-Gonzaga-College-High-School/?utm_source=GSAPI&utm_medium=referral,,,,,20001
37,1251,Goodwill Excel Center Public Charter School,charter,9-12,,,Washington,DC,"1776 G Street Northwest, 
Washington, DC  20006",(202) 839-3650,,http://www.goodwillexcelcenter.org/,110010500508,38.89788,-77.0412,https://www.greatschools.org/washington-dc/washington/1251-Goodwill-Excel-Center-Public-Charter-School/?utm_source=GSAPI&utm_medium=referral,https://www.greatschools.org/washington-dc/washington/1251-Goodwill-Excel-Center-Public-Charter-School/?utm_source=GSAPI&utm_medium=referral,https://www.greatschools.org/washington-dc/washington/1251-Goodwill-Excel-Center-Public-Charter-School/?utm_source=GSAPI&utm_medium=referral#Reviews,https://www.greatschools.org/washington-dc/washington/1251-Goodwill-Excel-Center-Public-Charter-School/?utm_source=GSAPI&utm_medium=referral,,146.0,Goodwill Excel Center PCS,,20006
38,43,H.D. Woodson High School,public,9-12,660.0,3.0,Washington,DC,"540 55th Street Northeast, 
Washington, DC  20019",(202) 939-2030,(202) 388-3489,http://www.dcps.dc.gov,110003000055,38.896843,-76.922714,https://www.greatschools.org/washington-dc/washington/43-H.D.-Woodson-High-School/?utm_source=GSAPI&utm_medium=referral,https://www.greatschools.org/washington-dc/washington/43-H.D.-Woodson-High-School/?utm_source=GSAPI&utm_medium=referral,https://www.greatschools.org/washington-dc/washington/43-H.D.-Woodson-High-School/?utm_source=GSAPI&utm_medium=referral#Reviews,https://www.greatschools.org/washington-dc/washington/43-H.D.-Woodson-High-School/?utm_source=GSAPI&utm_medium=referral,3.0,1.0,District Of Columbia Public Schools,1100030.0,20019
39,576,High Road Middle School of Washington,private,n/a,31.0,,Washington,DC,"1530 First Street, SW, 
Washington, DC  20001",(202) 479-0089,(202) 479-4709,,,38.910564,-77.012436,https://www.greatschools.org/washington-dc/washington/576-High-Road-Middle-School-Of-Washington/?utm_source=GSAPI&utm_medium=referral,https://www.greatschools.org/washington-dc/washington/576-High-Road-Middle-School-Of-Washington/?utm_source=GSAPI&utm_medium=referral,https://www.greatschools.org/washington-dc/washington/576-High-Road-Middle-School-Of-Washington/?utm_source=GSAPI&utm_medium=referral#Reviews,https://www.greatschools.org/washington-dc/washington/576-High-Road-Middle-School-Of-Washington/?utm_source=GSAPI&utm_medium=referral,,,,,20001
40,884,"High Road Upper Academy of Washington, DC",private,9-12 & ungraded,60.0,,Washington,DC,"711-A Edgewood Street, N.E., 
Washington, DC  20017",(202) 529-7677,(202) 529-7678,,,38.92494,-76.995285,"https://www.greatschools.org/washington-dc/washington/884-High-Road-Upper-Academy-Of-Washington,-DC/?utm_source=GSAPI&utm_medium=referral","https://www.greatschools.org/washington-dc/washington/884-High-Road-Upper-Academy-Of-Washington,-DC/?utm_source=GSAPI&utm_medium=referral","https://www.greatschools.org/washington-dc/washington/884-High-Road-Upper-Academy-Of-Washington,-DC/?utm_source=GSAPI&utm_medium=referral#Reviews","https://www.greatschools.org/washington-dc/washington/884-High-Road-Upper-Academy-Of-Washington,-DC/?utm_source=GSAPI&utm_medium=referral",,,,,20017
41,577,"High Road Upper School of Washington, DC",private,9-12 & ungraded,50.0,,Washington,DC,"711-B Edgewood Street NE, 
Washington, DC  20017",(202) 635-7171,(202) 635-7172,,,38.925365,-76.99546,"https://www.greatschools.org/washington-dc/washington/577-High-Road-Upper-School-Of-Washington,-DC/?utm_source=GSAPI&utm_medium=referral","https://www.greatschools.org/washington-dc/washington/577-High-Road-Upper-School-Of-Washington,-DC/?utm_source=GSAPI&utm_medium=referral","https://www.greatschools.org/washington-dc/washington/577-High-Road-Upper-School-Of-Washington,-DC/?utm_source=GSAPI&utm_medium=referral#Reviews","https://www.greatschools.org/washington-dc/washington/577-High-Road-Upper-School-Of-Washington,-DC/?utm_source=GSAPI&utm_medium=referral",,,,,20017
42,260,IDEA - Integrated Design & Electronic Academy PCS,charter,9-12,326.0,4.0,Washington,DC,"1027 45th Street NE, 
Washington, DC  20019",(202) 399-4750,(202) 399-4783,www.ideapcs.org,110001300227,38.904064,-76.937126,https://www.greatschools.org/washington-dc/washington/260-IDEA---Integrated-Design-&-Electronic-Academy-PCS/?utm_source=GSAPI&utm_medium=referral,https://www.greatschools.org/washington-dc/washington/260-IDEA---Integrated-Design-&-Electronic-Academy-PCS/?utm_source=GSAPI&utm_medium=referral,https://www.greatschools.org/washington-dc/washington/260-IDEA---Integrated-Design-&-Electronic-Academy-PCS/?utm_source=GSAPI&utm_medium=referral#Reviews,https://www.greatschools.org/washington-dc/washington/260-IDEA---Integrated-Design-&-Electronic-Academy-PCS/?utm_source=GSAPI&utm_medium=referral,4.0,88.0,Integrated Design Electronics Academy Idea,1100013.0,20019
43,1223,IQRA Prep Academy,private,K-12,160.0,,Washington,DC,"1050 Connecticut Ave NW, 
Washington, DC  20035",(202) 659-4772,(202) 446-0893,www.iqraprepacademy.com,,38.903385,-77.04083,https://www.greatschools.org/washington-dc/washington/1223-IQRA-Prep-Academy/?utm_source=GSAPI&utm_medium=referral,https://www.greatschools.org/washington-dc/washington/1223-IQRA-Prep-Academy/?utm_source=GSAPI&utm_medium=referral,https://www.greatschools.org/washington-dc/washington/1223-IQRA-Prep-Academy/?utm_source=GSAPI&utm_medium=referral#Reviews,https://www.greatschools.org/washington-dc/washington/1223-IQRA-Prep-Academy/?utm_source=GSAPI&utm_medium=referral,,,,,20035
44,608,KIPP DC PCS: College Preparatory,charter,9-12,590.0,4.0,Washington,DC,"1405 Brentwood Parkway Northeast, 
Washington, DC  20002",(202) 678-2527,(202) 678-0082,http://www.kippdc.org,110003100421,38.909615,-76.99357,https://www.greatschools.org/washington-dc/washington/608-KIPP-DC-PCS:-College-Preparatory/?utm_source=GSAPI&utm_medium=referral,https://www.greatschools.org/washington-dc/washington/608-KIPP-DC-PCS:-College-Preparatory/?utm_source=GSAPI&utm_medium=referral,https://www.greatschools.org/washington-dc/washington/608-KIPP-DC-PCS:-College-Preparatory/?utm_source=GSAPI&utm_medium=referral#Reviews,https://www.greatschools.org/washington-dc/washington/608-KIPP-DC-PCS:-College-Preparatory/?utm_source=GSAPI&utm_medium=referral,7.0,91.0,KIPP DC,1100031.0,20002
45,393,Kennedy School,private,n/a,45.0,,Washington,DC,"801 Buchanan Street Northeast, 
Washington, DC  20017",(202) 281-2700,,,A0500914,38.945595,-76.99362,https://www.greatschools.org/washington-dc/washington/393-Kennedy-School/?utm_source=GSAPI&utm_medium=referral,https://www.greatschools.org/washington-dc/washington/393-Kennedy-School/?utm_source=GSAPI&utm_medium=referral,https://www.greatschools.org/washington-dc/washington/393-Kennedy-School/?utm_source=GSAPI&utm_medium=referral#Reviews,https://www.greatschools.org/washington-dc/washington/393-Kennedy-School/?utm_source=GSAPI&utm_medium=referral,,,,,20017
46,303,Kingsbury Day School,private,PK-12,100.0,4.0,Washington,DC,"5000 14th Street NW, 
Washington, DC  20011",(202) 722-5555,(202) 722-5531,www.kingsbury.org,A9101623,38.950836,-77.03472,https://www.greatschools.org/washington-dc/washington/303-Kingsbury-Day-School/?utm_source=GSAPI&utm_medium=referral,https://www.greatschools.org/washington-dc/washington/303-Kingsbury-Day-School/?utm_source=GSAPI&utm_medium=referral,https://www.greatschools.org/washington-dc/washington/303-Kingsbury-Day-School/?utm_source=GSAPI&utm_medium=referral#Reviews,https://www.greatschools.org/washington-dc/washington/303-Kingsbury-Day-School/?utm_source=GSAPI&utm_medium=referral,,,,,20011
47,1236,Kingsman Academy PCS,charter,6-12,,,Washington,DC,"1375 E Street Northeast, 
Washington, DC  20002",(202) 547-1028,,http://www.kingsmanacademy.org,110009900502,38.895782,-76.98636,https://www.greatschools.org/washington-dc/washington/1236-Kingsman-Academy-PCS/?utm_source=GSAPI&utm_medium=referral,https://www.greatschools.org/washington-dc/washington/1236-Kingsman-Academy-PCS/?utm_source=GSAPI&utm_medium=referral,https://www.greatschools.org/washington-dc/washington/1236-Kingsman-Academy-PCS/?utm_source=GSAPI&utm_medium=referral#Reviews,https://www.greatschools.org/washington-dc/washington/1236-Kingsman-Academy-PCS/?utm_source=GSAPI&utm_medium=referral,,136.0,Kingsman Academy PCS,,20002
48,229,Kirov Academy of Ballet,private,7-12,85.0,4.0,Washington,DC,"4301 Harewood Rd NE, 
Washington, DC  20017",(202) 832-1087,,http://www.kirovacademydc.org,A9501063,38.942307,-77.00653,https://www.greatschools.org/washington-dc/washington/229-Kirov-Academy-Of-Ballet/?utm_source=GSAPI&utm_medium=referral,https://www.greatschools.org/washington-dc/washington/229-Kirov-Academy-Of-Ballet/?utm_source=GSAPI&utm_medium=referral,https://www.greatschools.org/washington-dc/washington/229-Kirov-Academy-Of-Ballet/?utm_source=GSAPI&utm_medium=referral#Reviews,https://www.greatschools.org/washington-dc/washington/229-Kirov-Academy-Of-Ballet/?utm_source=GSAPI&utm_medium=referral,,,,,20017
49,352,Kuumba Learning Center,private,PK-10,120.0,4.0,Washington,DC,"3328 Martin Luther King Junior Avenue Southeast Washington DC 20032, 
Washington, DC  20032",(202) 563-5971,(202) 563-3363,www.kuumbaprep.org,A0307372,38.842052,-77.00259,https://www.greatschools.org/washington-dc/washington/352-Kuumba-Learning-Center/?utm_source=GSAPI&utm_medium=referral,https://www.greatschools.org/washington-dc/washington/352-Kuumba-Learning-Center/?utm_source=GSAPI&utm_medium=referral,https://www.greatschools.org/washington-dc/washington/352-Kuumba-Learning-Center/?utm_source=GSAPI&utm_medium=referral#Reviews,https://www.greatschools.org/washington-dc/washington/352-Kuumba-Learning-Center/?utm_source=GSAPI&utm_medium=referral,,,,,20032
50,855,LAYC Career Academy PCS,charter,9-12 & ungraded,183.0,5.0,Washington,DC,"3047 15th Street, NW, 
Washington, DC  20009",(202) 319-2228,(202) 319-2250,www.laycca.org/,110005900457,38.92863,-77.0361,https://www.greatschools.org/washington-dc/washington/855-LAYC-Career-Academy-PCS/?utm_source=GSAPI&utm_medium=referral,https://www.greatschools.org/washington-dc/washington/855-LAYC-Career-Academy-PCS/?utm_source=GSAPI&utm_medium=referral,https://www.greatschools.org/washington-dc/washington/855-LAYC-Career-Academy-PCS/?utm_source=GSAPI&utm_medium=referral#Reviews,https://www.greatschools.org/washington-dc/washington/855-LAYC-Career-Academy-PCS/?utm_source=GSAPI&utm_medium=referral,,59.0,Youth Build Pcs Layc,1100059.0,20009
51,322,Lab School of Washington - Reservoir Campus,private,1-12,355.0,4.0,Washington,DC,"4759 Reservoir Road NW, 
Washington, DC  20007",(202) 965-6600,,,02016176,38.914944,-77.09271,https://www.greatschools.org/washington-dc/washington/322-Lab-School-Of-Washington---Reservoir-Campus/?utm_source=GSAPI&utm_medium=referral,https://www.greatschools.org/washington-dc/washington/322-Lab-School-Of-Washington---Reservoir-Campus/?utm_source=GSAPI&utm_medium=referral,https://www.greatschools.org/washington-dc/washington/322-Lab-School-Of-Washington---Reservoir-Campus/?utm_source=GSAPI&utm_medium=referral#Reviews,https://www.greatschools.org/washington-dc/washington/322-Lab-School-Of-Washington---Reservoir-Campus/?utm_source=GSAPI&utm_medium=referral,,,,,20007
52,152,Luke C. Moore High School,public,9-12,297.0,5.0,Washington,DC,"1001 Monroe Street Northeast, 
Washington, DC  20017",(202) 281-3600,(202) 526-5022,http://www.dcps.dc.gov,110003000198,38.93176,-76.992294,https://www.greatschools.org/washington-dc/washington/152-Luke-C.-Moore-High-School/?utm_source=GSAPI&utm_medium=referral,https://www.greatschools.org/washington-dc/washington/152-Luke-C.-Moore-High-School/?utm_source=GSAPI&utm_medium=referral,https://www.greatschools.org/washington-dc/washington/152-Luke-C.-Moore-High-School/?utm_source=GSAPI&utm_medium=referral#Reviews,https://www.greatschools.org/washington-dc/washington/152-Luke-C.-Moore-High-School/?utm_source=GSAPI&utm_medium=referral,,1.0,District Of Columbia Public Schools,1100030.0,20017
53,193,Maret School,private,K-12,635.0,4.0,Washington,DC,"3000 Cathedral Ave NW, 
Washington, DC  20008",(202) 939-8800,(202) 939-8845,http://www.maret.org,00253448,38.928223,-77.06042,https://www.greatschools.org/washington-dc/washington/193-Maret-School/?utm_source=GSAPI&utm_medium=referral,https://www.greatschools.org/washington-dc/washington/193-Maret-School/?utm_source=GSAPI&utm_medium=referral,https://www.greatschools.org/washington-dc/washington/193-Maret-School/?utm_source=GSAPI&utm_medium=referral#Reviews,https://www.greatschools.org/washington-dc/washington/193-Maret-School/?utm_source=GSAPI&utm_medium=referral,,,,,20008
54,567,Maya Angelou PCS - Evans High School,charter,9-12,225.0,4.0,Washington,DC,"5600 East Capitol Street Northeast, 
Washington, DC  20019",(202) 379-4335,(202) 506-5749,http://www.seeforever.org,110001400391,38.890373,-76.92028,https://www.greatschools.org/washington-dc/washington/567-Maya-Angelou-PCS---Evans-High-School/?utm_source=GSAPI&utm_medium=referral,https://www.greatschools.org/washington-dc/washington/567-Maya-Angelou-PCS---Evans-High-School/?utm_source=GSAPI&utm_medium=referral,https://www.greatschools.org/washington-dc/washington/567-Maya-Angelou-PCS---Evans-High-School/?utm_source=GSAPI&utm_medium=referral#Reviews,https://www.greatschools.org/washington-dc/washington/567-Maya-Angelou-PCS---Evans-High-School/?utm_source=GSAPI&utm_medium=referral,,94.0,Maya Angelou Pcs,1100014.0,20019
55,913,Maya Angelou PCS - Young Adult Learning Center,charter,n/a,,,Washington,DC,"5600 East Capitol Street,  NE, 
Washington, DC  20019",,,www.seeforever.org,,38.88983,-76.92069,https://www.greatschools.org/washington-dc/washington/913-Maya-Angelou-PCS---Young-Adult-Learning-Center/?utm_source=GSAPI&utm_medium=referral,https://www.greatschools.org/washington-dc/washington/913-Maya-Angelou-PCS---Young-Adult-Learning-Center/?utm_source=GSAPI&utm_medium=referral,https://www.greatschools.org/washington-dc/washington/913-Maya-Angelou-PCS---Young-Adult-Learning-Center/?utm_source=GSAPI&utm_medium=referral#Reviews,https://www.greatschools.org/washington-dc/washington/913-Maya-Angelou-PCS---Young-Adult-Learning-Center/?utm_source=GSAPI&utm_medium=referral,,94.0,Maya Angelou Pcs,1100014.0,20019
56,365,McKinley Technology High School,public,9-12,656.0,4.0,Washington,DC,"151 T Street Northeast, 
Washington, DC  20002",(202) 281-3950,(202) 576-6279,http://www.dcps.dc.gov,110003000267,38.914562,-77.00489,https://www.greatschools.org/washington-dc/washington/365-McKinley-Technology-High-School/?utm_source=GSAPI&utm_medium=referral,https://www.greatschools.org/washington-dc/washington/365-McKinley-Technology-High-School/?utm_source=GSAPI&utm_medium=referral,https://www.greatschools.org/washington-dc/washington/365-McKinley-Technology-High-School/?utm_source=GSAPI&utm_medium=referral#Reviews,https://www.greatschools.org/washington-dc/washington/365-McKinley-Technology-High-School/?utm_source=GSAPI&utm_medium=referral,9.0,1.0,District Of Columbia Public Schools,1100030.0,20002
57,237,Model Secondary School for The Deaf,private,9-12,150.0,5.0,Washington,DC,"800 Florida Ave NE, 
Washington, DC  20002",(202) 651-5031,(202) 651-5109,www.gallaudet.edu/mssd.htm,A9700911,38.9053,-76.99616,https://www.greatschools.org/washington-dc/washington/237-Model-Secondary-School-For-The-Deaf/?utm_source=GSAPI&utm_medium=referral,https://www.greatschools.org/washington-dc/washington/237-Model-Secondary-School-For-The-Deaf/?utm_source=GSAPI&utm_medium=referral,https://www.greatschools.org/washington-dc/washington/237-Model-Secondary-School-For-The-Deaf/?utm_source=GSAPI&utm_medium=referral#Reviews,https://www.greatschools.org/washington-dc/washington/237-Model-Secondary-School-For-The-Deaf/?utm_source=GSAPI&utm_medium=referral,,,,,20002
58,583,Monroe School,private,9-12,36.0,1.0,Washington,DC,"603 50th Street, NE, 
Washington, DC  20019",(202) 399-8350,(202) 399-8353,www.monroeschool.net/,,38.897842,-76.92982,https://www.greatschools.org/washington-dc/washington/583-Monroe-School/?utm_source=GSAPI&utm_medium=referral,https://www.greatschools.org/washington-dc/washington/583-Monroe-School/?utm_source=GSAPI&utm_medium=referral,https://www.greatschools.org/washington-dc/washington/583-Monroe-School/?utm_source=GSAPI&utm_medium=referral#Reviews,https://www.greatschools.org/washington-dc/washington/583-Monroe-School/?utm_source=GSAPI&utm_medium=referral,,,,,20019
59,221,National Cathedral School,private,4-12,582.0,4.0,Washington,DC,"Mount Saint Alban, 
Washington, DC  20016",(202) 537-6374,(202) 537-2382,,A9300244,38.930668,-77.07053,https://www.greatschools.org/washington-dc/washington/221-National-Cathedral-School/?utm_source=GSAPI&utm_medium=referral,https://www.greatschools.org/washington-dc/washington/221-National-Cathedral-School/?utm_source=GSAPI&utm_medium=referral,https://www.greatschools.org/washington-dc/washington/221-National-Cathedral-School/?utm_source=GSAPI&utm_medium=referral#Reviews,https://www.greatschools.org/washington-dc/washington/221-National-Cathedral-School/?utm_source=GSAPI&utm_medium=referral,,,,,20016
60,311,National Children's Center,private,n/a,40.0,,Washington,DC,"6200 2nd Street Northwest, 
Washington, DC  20011",(202) 722-2319,,,A0101694,38.965435,-77.01451,https://www.greatschools.org/washington-dc/washington/311-National-Children's-Center/?utm_source=GSAPI&utm_medium=referral,https://www.greatschools.org/washington-dc/washington/311-National-Children's-Center/?utm_source=GSAPI&utm_medium=referral,https://www.greatschools.org/washington-dc/washington/311-National-Children's-Center/?utm_source=GSAPI&utm_medium=referral#Reviews,https://www.greatschools.org/washington-dc/washington/311-National-Children's-Center/?utm_source=GSAPI&utm_medium=referral,,,,,20011
61,581,National Children's Center - NW Campus Ages 6-22,private,1-12,25.0,5.0,Washington,DC,"201 Rittenhouse St., NW, 
Washington, DC  20001",(202) 722-2319,,www.nccinc.org,,38.964985,-77.013725,https://www.greatschools.org/washington-dc/washington/581-National-Children's-Center---NW-Campus-Ages-6-22/?utm_source=GSAPI&utm_medium=referral,https://www.greatschools.org/washington-dc/washington/581-National-Children's-Center---NW-Campus-Ages-6-22/?utm_source=GSAPI&utm_medium=referral,https://www.greatschools.org/washington-dc/washington/581-National-Children's-Center---NW-Campus-Ages-6-22/?utm_source=GSAPI&utm_medium=referral#Reviews,https://www.greatschools.org/washington-dc/washington/581-National-Children's-Center---NW-Campus-Ages-6-22/?utm_source=GSAPI&utm_medium=referral,,,,,20001
62,571,National Children's Center - SE Campus Ages 6-22,private,1-12,25.0,2.0,Washington,DC,"3400 Martin Luther King, 
Washington, DC  20032",(202) 561-7280,(202) 561-7284,www.nccinc.org/,A0770704,38.841328,-77.00283,https://www.greatschools.org/washington-dc/washington/571-National-Children's-Center---SE-Campus-Ages-6-22/?utm_source=GSAPI&utm_medium=referral,https://www.greatschools.org/washington-dc/washington/571-National-Children's-Center---SE-Campus-Ages-6-22/?utm_source=GSAPI&utm_medium=referral,https://www.greatschools.org/washington-dc/washington/571-National-Children's-Center---SE-Campus-Ages-6-22/?utm_source=GSAPI&utm_medium=referral#Reviews,https://www.greatschools.org/washington-dc/washington/571-National-Children's-Center---SE-Campus-Ages-6-22/?utm_source=GSAPI&utm_medium=referral,,,,,20032
63,614,National Collegiate PCS,charter,9-12,280.0,4.0,Washington,DC,"4600 Livingston Road Southeast, 
Washington, DC  20032",(202) 832-7737,(202) 832-7736,http://www.nationalprepdc.org,110007900424,38.824024,-77.003006,https://www.greatschools.org/washington-dc/washington/614-National-Collegiate-PCS/?utm_source=GSAPI&utm_medium=referral,https://www.greatschools.org/washington-dc/washington/614-National-Collegiate-PCS/?utm_source=GSAPI&utm_medium=referral,https://www.greatschools.org/washington-dc/washington/614-National-Collegiate-PCS/?utm_source=GSAPI&utm_medium=referral#Reviews,https://www.greatschools.org/washington-dc/washington/614-National-Collegiate-PCS/?utm_source=GSAPI&utm_medium=referral,3.0,117.0,National Collegiate Prep,1100079.0,20032
64,224,Parkmont School,private,6-12,65.0,4.0,Washington,DC,"4842 16th Street NW, 
Washington, DC  20011",(202) 726-0740,(202) 726-0748,http://www.parkmont.org,A9302646,38.949852,-77.03681,https://www.greatschools.org/washington-dc/washington/224-Parkmont-School/?utm_source=GSAPI&utm_medium=referral,https://www.greatschools.org/washington-dc/washington/224-Parkmont-School/?utm_source=GSAPI&utm_medium=referral,https://www.greatschools.org/washington-dc/washington/224-Parkmont-School/?utm_source=GSAPI&utm_medium=referral#Reviews,https://www.greatschools.org/washington-dc/washington/224-Parkmont-School/?utm_source=GSAPI&utm_medium=referral,,,,,20011
65,1208,Paul Public Charter School - International High School,charter,9-12,,,Washington,DC,"5800 8th Street Northwest, 
Washington, DC  20011",(202) 291-7499,,http://www.paulcharter.org,110003900477,38.96142,-77.02487,https://www.greatschools.org/washington-dc/washington/1208-Paul-Public-Charter-School---International-High-School/?utm_source=GSAPI&utm_medium=referral,https://www.greatschools.org/washington-dc/washington/1208-Paul-Public-Charter-School---International-High-School/?utm_source=GSAPI&utm_medium=referral,https://www.greatschools.org/washington-dc/washington/1208-Paul-Public-Charter-School---International-High-School/?utm_source=GSAPI&utm_medium=referral#Reviews,https://www.greatschools.org/washington-dc/washington/1208-Paul-Public-Charter-School---International-High-School/?utm_source=GSAPI&utm_medium=referral,6.0,99.0,Paul Public Charter School,1100039.0,20011
66,371,"Phelps Architecture, Construction, and Engineering High School",public,9-12,306.0,5.0,Washington,DC,"704 26th Street Northeast, 
Washington, DC  20002",(202) 729-4360,(202) 442-8438,http://www.dcps.dc.gov,110003000407,38.902058,-76.97211,"https://www.greatschools.org/washington-dc/washington/371-Phelps-Architecture,-Construction,-And-Engineering-High-School/?utm_source=GSAPI&utm_medium=referral","https://www.greatschools.org/washington-dc/washington/371-Phelps-Architecture,-Construction,-And-Engineering-High-School/?utm_source=GSAPI&utm_medium=referral","https://www.greatschools.org/washington-dc/washington/371-Phelps-Architecture,-Construction,-And-Engineering-High-School/?utm_source=GSAPI&utm_medium=referral#Reviews","https://www.greatschools.org/washington-dc/washington/371-Phelps-Architecture,-Construction,-And-Engineering-High-School/?utm_source=GSAPI&utm_medium=referral",7.0,1.0,District Of Columbia Public Schools,1100030.0,20002
67,231,Preparatory School of the District of Columbia,private,PK-12,100.0,3.0,Washington,DC,"209 Upshur Street NW, 
Washington, DC  20010",(202) 722-5080,(202) 722-5060,http://thepreparatoryschoolofdc.webs.com/,A9501074,38.942528,-77.01409,https://www.greatschools.org/washington-dc/washington/231-Preparatory-School-Of-The-District-Of-Columbia/?utm_source=GSAPI&utm_medium=referral,https://www.greatschools.org/washington-dc/washington/231-Preparatory-School-Of-The-District-Of-Columbia/?utm_source=GSAPI&utm_medium=referral,https://www.greatschools.org/washington-dc/washington/231-Preparatory-School-Of-The-District-Of-Columbia/?utm_source=GSAPI&utm_medium=referral#Reviews,https://www.greatschools.org/washington-dc/washington/231-Preparatory-School-Of-The-District-Of-Columbia/?utm_source=GSAPI&utm_medium=referral,,,,,20010
68,1014,Psychiatric Inst Of Washington (Sped),private,PK-11,49.0,,Washington,DC,"4228 Wisconsin Avenue Northwest, 
Washington, DC  20016",(202) 885-5720,,,A0900748,38.943893,-77.07807,https://www.greatschools.org/washington-dc/washington/1014-Psychiatric-Inst-Of-Washington-(Sped)/?utm_source=GSAPI&utm_medium=referral,https://www.greatschools.org/washington-dc/washington/1014-Psychiatric-Inst-Of-Washington-(Sped)/?utm_source=GSAPI&utm_medium=referral,https://www.greatschools.org/washington-dc/washington/1014-Psychiatric-Inst-Of-Washington-(Sped)/?utm_source=GSAPI&utm_medium=referral#Reviews,https://www.greatschools.org/washington-dc/washington/1014-Psychiatric-Inst-Of-Washington-(Sped)/?utm_source=GSAPI&utm_medium=referral,,,,,20016
69,313,Rhema Christian Center School,private,K-12,30.0,5.0,Washington,DC,"1825 Michigan Avenue Northeast, 
Washington, DC  20018",(202) 529-3921,,,A9101632,38.94474,-76.97847,https://www.greatschools.org/washington-dc/washington/313-Rhema-Christian-Center-School/?utm_source=GSAPI&utm_medium=referral,https://www.greatschools.org/washington-dc/washington/313-Rhema-Christian-Center-School/?utm_source=GSAPI&utm_medium=referral,https://www.greatschools.org/washington-dc/washington/313-Rhema-Christian-Center-School/?utm_source=GSAPI&utm_medium=referral#Reviews,https://www.greatschools.org/washington-dc/washington/313-Rhema-Christian-Center-School/?utm_source=GSAPI&utm_medium=referral,,,,,20018
70,837,Richard Wright PCS,charter,8-12,284.0,4.0,Washington,DC,"770 M Street Southeast, 
Washington, DC  20003",(202) 388-1011,(202) 388-5197,http://www.richardwrightpcs.org,110008200441,38.87693,-76.99527,https://www.greatschools.org/washington-dc/washington/837-Richard-Wright-PCS/?utm_source=GSAPI&utm_medium=referral,https://www.greatschools.org/washington-dc/washington/837-Richard-Wright-PCS/?utm_source=GSAPI&utm_medium=referral,https://www.greatschools.org/washington-dc/washington/837-Richard-Wright-PCS/?utm_source=GSAPI&utm_medium=referral#Reviews,https://www.greatschools.org/washington-dc/washington/837-Richard-Wright-PCS/?utm_source=GSAPI&utm_medium=referral,6.0,123.0,Richard Wright Pcs For Journalism And Media Arts Pcs,1100082.0,20003
71,23,River Terrace Elementary School,public,PK-12,139.0,4.0,Washington,DC,"405 Anacostia Avenue Northeast, 
Washington, DC  20019",(202) 442-7111,(202) 724-4589,http://www.dcps.dc.gov,110003000506,38.896336,-76.959625,https://www.greatschools.org/washington-dc/washington/23-River-Terrace-Elementary-School/?utm_source=GSAPI&utm_medium=referral,https://www.greatschools.org/washington-dc/washington/23-River-Terrace-Elementary-School/?utm_source=GSAPI&utm_medium=referral,https://www.greatschools.org/washington-dc/washington/23-River-Terrace-Elementary-School/?utm_source=GSAPI&utm_medium=referral#Reviews,https://www.greatschools.org/washington-dc/washington/23-River-Terrace-Elementary-School/?utm_source=GSAPI&utm_medium=referral,,1.0,District Of Columbia Public Schools,1100030.0,20019
72,1247,Ron Brown College Preparatory High School,public,9,,,Washington,DC,"4800 Meade Street Northeast, 
Washington, DC  20019",(202) 729-4343,,http://www.dcps.dc.gov,110003000512,38.906796,-76.93269,https://www.greatschools.org/washington-dc/washington/1247-Ron-Brown-College-Preparatory-High-School/?utm_source=GSAPI&utm_medium=referral,https://www.greatschools.org/washington-dc/washington/1247-Ron-Brown-College-Preparatory-High-School/?utm_source=GSAPI&utm_medium=referral,https://www.greatschools.org/washington-dc/washington/1247-Ron-Brown-College-Preparatory-High-School/?utm_source=GSAPI&utm_medium=referral#Reviews,https://www.greatschools.org/washington-dc/washington/1247-Ron-Brown-College-Preparatory-High-School/?utm_source=GSAPI&utm_medium=referral,,1.0,District Of Columbia Public Schools,1100030.0,20019
73,8,Roosevelt High School @ MacFarland,public,9-12,482.0,3.0,Washington,DC,"4301 13th Street Northwest, 
Washington, DC  20011",(202) 576-6130,(202) 541-6449,http://www.dcps.dc.gov,110003000008,38.943478,-77.02793,https://www.greatschools.org/washington-dc/washington/8-Roosevelt-High-School-@-MacFarland/?utm_source=GSAPI&utm_medium=referral,https://www.greatschools.org/washington-dc/washington/8-Roosevelt-High-School-@-MacFarland/?utm_source=GSAPI&utm_medium=referral,https://www.greatschools.org/washington-dc/washington/8-Roosevelt-High-School-@-MacFarland/?utm_source=GSAPI&utm_medium=referral#Reviews,https://www.greatschools.org/washington-dc/washington/8-Roosevelt-High-School-@-MacFarland/?utm_source=GSAPI&utm_medium=referral,3.0,1.0,District Of Columbia Public Schools,1100030.0,20011
74,336,Roosevelt STAY High School @ MacFarland,public,9-12,232.0,5.0,Washington,DC,"4301 13th Street Northwest, 
Washington, DC  20011",(202) 576-8399,(202) 576-8478,http://www.dcps.dc.gov,110003000264,38.943478,-77.02793,https://www.greatschools.org/washington-dc/washington/336-Roosevelt-STAY-High-School-@-MacFarland/?utm_source=GSAPI&utm_medium=referral,https://www.greatschools.org/washington-dc/washington/336-Roosevelt-STAY-High-School-@-MacFarland/?utm_source=GSAPI&utm_medium=referral,https://www.greatschools.org/washington-dc/washington/336-Roosevelt-STAY-High-School-@-MacFarland/?utm_source=GSAPI&utm_medium=referral#Reviews,https://www.greatschools.org/washington-dc/washington/336-Roosevelt-STAY-High-School-@-MacFarland/?utm_source=GSAPI&utm_medium=referral,,1.0,District Of Columbia Public Schools,1100030.0,20011
75,269,SEED PCS,charter,6-12,352.0,5.0,Washington,DC,"4300 C Street Southeast, 
Washington, DC  20019",(202) 248-7773,(202) 249-1919,http://www.seedschooldc.org,110002200236,38.8869,-76.946434,https://www.greatschools.org/washington-dc/washington/269-SEED-PCS/?utm_source=GSAPI&utm_medium=referral,https://www.greatschools.org/washington-dc/washington/269-SEED-PCS/?utm_source=GSAPI&utm_medium=referral,https://www.greatschools.org/washington-dc/washington/269-SEED-PCS/?utm_source=GSAPI&utm_medium=referral#Reviews,https://www.greatschools.org/washington-dc/washington/269-SEED-PCS/?utm_source=GSAPI&utm_medium=referral,5.0,23.0,Seed Pcs,1100022.0,20019
76,103,School Without Walls High School,public,9-12,589.0,4.0,Washington,DC,"2130 G Street Northwest, 
Washington, DC  20037",(202) 645-9690,(202) 724-8536,http://www.dcps.dc.gov,110003000131,38.898087,-77.047905,https://www.greatschools.org/washington-dc/washington/103-School-Without-Walls-High-School/?utm_source=GSAPI&utm_medium=referral,https://www.greatschools.org/washington-dc/washington/103-School-Without-Walls-High-School/?utm_source=GSAPI&utm_medium=referral,https://www.greatschools.org/washington-dc/washington/103-School-Without-Walls-High-School/?utm_source=GSAPI&utm_medium=referral#Reviews,https://www.greatschools.org/washington-dc/washington/103-School-Without-Walls-High-School/?utm_source=GSAPI&utm_medium=referral,10.0,1.0,District Of Columbia Public Schools,1100030.0,20037
77,211,Sidwell Friends School,private,PK-12,1109.0,4.0,Washington,DC,"3825 Wisconsin Ave NW, 
Washington, DC  20016",(202) 537-8100,,http://www.sidwell.edu,02032143,38.93877,-77.07462,https://www.greatschools.org/washington-dc/washington/211-Sidwell-Friends-School/?utm_source=GSAPI&utm_medium=referral,https://www.greatschools.org/washington-dc/washington/211-Sidwell-Friends-School/?utm_source=GSAPI&utm_medium=referral,https://www.greatschools.org/washington-dc/washington/211-Sidwell-Friends-School/?utm_source=GSAPI&utm_medium=referral#Reviews,https://www.greatschools.org/washington-dc/washington/211-Sidwell-Friends-School/?utm_source=GSAPI&utm_medium=referral,,,,,20016
78,878,Somerset Prep DC PCS,charter,6-11,240.0,5.0,Washington,DC,"3301 Wheeler Road Southeast, 
Washington, DC  20032",(202) 562-9170,,http://www.somersetdc.com/,110008900462,38.8416,-76.99428,https://www.greatschools.org/washington-dc/washington/878-Somerset-Prep-DC-PCS/?utm_source=GSAPI&utm_medium=referral,https://www.greatschools.org/washington-dc/washington/878-Somerset-Prep-DC-PCS/?utm_source=GSAPI&utm_medium=referral,https://www.greatschools.org/washington-dc/washington/878-Somerset-Prep-DC-PCS/?utm_source=GSAPI&utm_medium=referral#Reviews,https://www.greatschools.org/washington-dc/washington/878-Somerset-Prep-DC-PCS/?utm_source=GSAPI&utm_medium=referral,4.0,130.0,Somerset Pcs,1100089.0,20032
79,206,St. Albans School,private,4-12,575.0,4.0,Washington,DC,"Mount St Alban, 
Washington, DC  20016",(202) 537-6435,,,02015988,38.8904,-77.032,https://www.greatschools.org/washington-dc/washington/206-St.-Albans-School/?utm_source=GSAPI&utm_medium=referral,https://www.greatschools.org/washington-dc/washington/206-St.-Albans-School/?utm_source=GSAPI&utm_medium=referral,https://www.greatschools.org/washington-dc/washington/206-St.-Albans-School/?utm_source=GSAPI&utm_medium=referral#Reviews,https://www.greatschools.org/washington-dc/washington/206-St.-Albans-School/?utm_source=GSAPI&utm_medium=referral,,,,,20016
80,172,St. Anselm's Abbey School,private,6-12,220.0,4.0,Washington,DC,"4501 S Dakota Ave NE, 
Washington, DC  20017",(202) 269-2350,(202) 269-2373,http://www.saintanselms.org,00252772,38.946823,-76.985306,https://www.greatschools.org/washington-dc/washington/172-St.-Anselm's-Abbey-School/?utm_source=GSAPI&utm_medium=referral,https://www.greatschools.org/washington-dc/washington/172-St.-Anselm's-Abbey-School/?utm_source=GSAPI&utm_medium=referral,https://www.greatschools.org/washington-dc/washington/172-St.-Anselm's-Abbey-School/?utm_source=GSAPI&utm_medium=referral#Reviews,https://www.greatschools.org/washington-dc/washington/172-St.-Anselm's-Abbey-School/?utm_source=GSAPI&utm_medium=referral,,,,,20017
81,558,St. Coletta Special Education PCS,charter,PK-12,250.0,4.0,Washington,DC,"1901 Independence Avenue Southeast, 
Washington, DC  20003",(202) 350-8680,(202) 350-8699,http://www.stcoletta.org,110006400367,38.88691,-76.97673,https://www.greatschools.org/washington-dc/washington/558-St.-Coletta-Special-Education-PCS/?utm_source=GSAPI&utm_medium=referral,https://www.greatschools.org/washington-dc/washington/558-St.-Coletta-Special-Education-PCS/?utm_source=GSAPI&utm_medium=referral,https://www.greatschools.org/washington-dc/washington/558-St.-Coletta-Special-Education-PCS/?utm_source=GSAPI&utm_medium=referral#Reviews,https://www.greatschools.org/washington-dc/washington/558-St.-Coletta-Special-Education-PCS/?utm_source=GSAPI&utm_medium=referral,,104.0,St. Coletta Special Education Pcs,1100064.0,20003
82,182,St. John's College High School,private,9-12,1060.0,4.0,Washington,DC,"2607 Military Rd NW, 
Washington, DC  20015",(202) 363-2316,(202) 686-5162,,00253062,38.96361,-77.05537,https://www.greatschools.org/washington-dc/washington/182-St.-John's-College-High-School/?utm_source=GSAPI&utm_medium=referral,https://www.greatschools.org/washington-dc/washington/182-St.-John's-College-High-School/?utm_source=GSAPI&utm_medium=referral,https://www.greatschools.org/washington-dc/washington/182-St.-John's-College-High-School/?utm_source=GSAPI&utm_medium=referral#Reviews,https://www.greatschools.org/washington-dc/washington/182-St.-John's-College-High-School/?utm_source=GSAPI&utm_medium=referral,,,,,20015
83,264,The Next Step/El Proximo Paso PCS,charter,10-12 & ungraded,250.0,5.0,Washington,DC,"3047 15th Street, NW, 
Washington, DC  20009",(202) 319-2249,(202) 234-0001,www.nextsteppcs.org,110001700231,38.92846,-77.035805,https://www.greatschools.org/washington-dc/washington/264-The-Next-Step-El-Proximo-Paso-PCS/?utm_source=GSAPI&utm_medium=referral,https://www.greatschools.org/washington-dc/washington/264-The-Next-Step-El-Proximo-Paso-PCS/?utm_source=GSAPI&utm_medium=referral,https://www.greatschools.org/washington-dc/washington/264-The-Next-Step-El-Proximo-Paso-PCS/?utm_source=GSAPI&utm_medium=referral#Reviews,https://www.greatschools.org/washington-dc/washington/264-The-Next-Step-El-Proximo-Paso-PCS/?utm_source=GSAPI&utm_medium=referral,,18.0,The Next Step Pcs,1100017.0,20009
84,1016,The School For Ethics And Global Leadership,private,11,21.0,,Washington,DC,"1528 18th Street Northwest, 
Washington, DC  20036",(202) 466-7345,,,A1100484,38.9105,-77.04193,https://www.greatschools.org/washington-dc/washington/1016-The-School-For-Ethics-And-Global-Leadership/?utm_source=GSAPI&utm_medium=referral,https://www.greatschools.org/washington-dc/washington/1016-The-School-For-Ethics-And-Global-Leadership/?utm_source=GSAPI&utm_medium=referral,https://www.greatschools.org/washington-dc/washington/1016-The-School-For-Ethics-And-Global-Leadership/?utm_source=GSAPI&utm_medium=referral#Reviews,https://www.greatschools.org/washington-dc/washington/1016-The-School-For-Ethics-And-Global-Leadership/?utm_source=GSAPI&utm_medium=referral,,,,,20036
85,300,Thurgood Marshall Academy PCS,charter,9-12,387.0,5.0,Washington,DC,"2427 Martin Luther King Junior Avenue Southeast, 
Washington, DC  20020",(202) 563-6862,(202) 563-6946,http://www.thurgoodmarshallacademy.org,110003400249,38.862385,-76.99378,https://www.greatschools.org/washington-dc/washington/300-Thurgood-Marshall-Academy-PCS/?utm_source=GSAPI&utm_medium=referral,https://www.greatschools.org/washington-dc/washington/300-Thurgood-Marshall-Academy-PCS/?utm_source=GSAPI&utm_medium=referral,https://www.greatschools.org/washington-dc/washington/300-Thurgood-Marshall-Academy-PCS/?utm_source=GSAPI&utm_medium=referral#Reviews,https://www.greatschools.org/washington-dc/washington/300-Thurgood-Marshall-Academy-PCS/?utm_source=GSAPI&utm_medium=referral,7.0,106.0,Thurgood Marshall Academy Pcs,1100034.0,20020
86,240,Washington International School - Tregaron Campus,private,6-12,457.0,5.0,Washington,DC,"3100 Macomb St NW, 
Washington, DC  20008",(202) 243-1800,,http://www.wis.edu,X0253211,38.93351,-77.06097,https://www.greatschools.org/washington-dc/washington/240-Washington-International-School---Tregaron-Campus/?utm_source=GSAPI&utm_medium=referral,https://www.greatschools.org/washington-dc/washington/240-Washington-International-School---Tregaron-Campus/?utm_source=GSAPI&utm_medium=referral,https://www.greatschools.org/washington-dc/washington/240-Washington-International-School---Tregaron-Campus/?utm_source=GSAPI&utm_medium=referral#Reviews,https://www.greatschools.org/washington-dc/washington/240-Washington-International-School---Tregaron-Campus/?utm_source=GSAPI&utm_medium=referral,,,,,20008
87,616,Washington Latin PCS - Upper School,charter,9-12,321.0,5.0,Washington,DC,"5200 2nd Street Northwest, 
Washington, DC  20011",(202) 223-1111,(202) 541-1591,http://www.latinpcs.org,110001900423,38.954052,-77.01394,https://www.greatschools.org/washington-dc/washington/616-Washington-Latin-PCS---Upper-School/?utm_source=GSAPI&utm_medium=referral,https://www.greatschools.org/washington-dc/washington/616-Washington-Latin-PCS---Upper-School/?utm_source=GSAPI&utm_medium=referral,https://www.greatschools.org/washington-dc/washington/616-Washington-Latin-PCS---Upper-School/?utm_source=GSAPI&utm_medium=referral#Reviews,https://www.greatschools.org/washington-dc/washington/616-Washington-Latin-PCS---Upper-School/?utm_source=GSAPI&utm_medium=referral,9.0,109.0,Washington Latin Pcs,1100019.0,20011
88,1249,Washington Leadership Academy Public Charter School,charter,9,,,Washington,DC,"3015 4th Street Northeast, 
Washington, DC  20017",(240) 580-3371,,http://www.washingtonleadershipacademy.org/,110010300510,38.928024,-76.99876,https://www.greatschools.org/washington-dc/washington/1249-Washington-Leadership-Academy-Public-Charter-School/?utm_source=GSAPI&utm_medium=referral,https://www.greatschools.org/washington-dc/washington/1249-Washington-Leadership-Academy-Public-Charter-School/?utm_source=GSAPI&utm_medium=referral,https://www.greatschools.org/washington-dc/washington/1249-Washington-Leadership-Academy-Public-Charter-School/?utm_source=GSAPI&utm_medium=referral#Reviews,https://www.greatschools.org/washington-dc/washington/1249-Washington-Leadership-Academy-Public-Charter-School/?utm_source=GSAPI&utm_medium=referral,,144.0,Washington Leadership Academy PCS,,20017
89,273,Washington Math Science and Technology PCS,charter,9-12,310.0,3.0,Washington,DC,"1920 Bladensburg Road Northeast, 
Washington, DC  20002",(202) 636-8011,(202) 636-3495,http://www.wmstpchs.net,110002600240,38.916348,-76.973755,https://www.greatschools.org/washington-dc/washington/273-Washington-Math-Science-And-Technology-PCS/?utm_source=GSAPI&utm_medium=referral,https://www.greatschools.org/washington-dc/washington/273-Washington-Math-Science-And-Technology-PCS/?utm_source=GSAPI&utm_medium=referral,https://www.greatschools.org/washington-dc/washington/273-Washington-Math-Science-And-Technology-PCS/?utm_source=GSAPI&utm_medium=referral#Reviews,https://www.greatschools.org/washington-dc/washington/273-Washington-Math-Science-And-Technology-PCS/?utm_source=GSAPI&utm_medium=referral,5.0,110.0,Washington Math Science Pcs,1100026.0,20002
90,621,Washington Metropolitan High School,public,9-12,150.0,,Washington,DC,"300 Bryant Street Northwest, 
Washington, DC  20001",(202) 939-3610,(202) 698-3443,http://www.dcps.dc.gov,110003000397,38.920185,-77.01664,https://www.greatschools.org/washington-dc/washington/621-Washington-Metropolitan-High-School/?utm_source=GSAPI&utm_medium=referral,https://www.greatschools.org/washington-dc/washington/621-Washington-Metropolitan-High-School/?utm_source=GSAPI&utm_medium=referral,https://www.greatschools.org/washington-dc/washington/621-Washington-Metropolitan-High-School/?utm_source=GSAPI&utm_medium=referral#Reviews,https://www.greatschools.org/washington-dc/washington/621-Washington-Metropolitan-High-School/?utm_source=GSAPI&utm_medium=referral,,1.0,District Of Columbia Public Schools,1100030.0,20001
91,105,Wilson High School,public,9-12,1791.0,3.0,Washington,DC,"3950 Chesapeake Street Northwest, 
Washington, DC  20016",(202) 282-0120,(202) 282-0077,http://www.dcps.dc.gov,110003000133,38.950413,-77.07605,https://www.greatschools.org/washington-dc/washington/105-Wilson-High-School/?utm_source=GSAPI&utm_medium=referral,https://www.greatschools.org/washington-dc/washington/105-Wilson-High-School/?utm_source=GSAPI&utm_medium=referral,https://www.greatschools.org/washington-dc/washington/105-Wilson-High-School/?utm_source=GSAPI&utm_medium=referral#Reviews,https://www.greatschools.org/washington-dc/washington/105-Wilson-High-School/?utm_source=GSAPI&utm_medium=referral,8.0,1.0,District Of Columbia Public Schools,1100030.0,20016
92,384,YouthBuild PCS,charter,n/a,115.0,,Washington,DC,"3014 14th Street, NW, 
Washington, DC  20009",(202) 319-0141,(202) 518-0618,www.youthbuildpcs.org,110005900309,38.927998,-77.03255,https://www.greatschools.org/washington-dc/washington/384-YouthBuild-PCS/?utm_source=GSAPI&utm_medium=referral,https://www.greatschools.org/washington-dc/washington/384-YouthBuild-PCS/?utm_source=GSAPI&utm_medium=referral,https://www.greatschools.org/washington-dc/washington/384-YouthBuild-PCS/?utm_source=GSAPI&utm_medium=referral#Reviews,https://www.greatschools.org/washington-dc/washington/384-YouthBuild-PCS/?utm_source=GSAPI&utm_medium=referral,,59.0,Youth Build Pcs Layc,1100059.0,20009
