,gsId,name,type,gradeRange,enrollment,parentRating,city,state,address,phone,fax,website,ncesId,lat,lon,overviewLink,ratingsLink,reviewsLink,schoolStatsLink,gsRating,districtId,district,districtNCESId,Zip Code
0,394,Academia de la Recta Porta,private,PK-12,72.0,4.0,Washington,DC,"7614 Georgia Ave NW, 
Washington, DC  20012",(202) 726-8737,,,A0300737,38.982582,-77.02679,https://www.greatschools.org/washington-dc/washington/394-Academia-De-La-Recta-Porta/?utm_source=GSAPI&utm_medium=referral,https://www.greatschools.org/washington-dc/washington/394-Academia-De-La-Recta-Porta/?utm_source=GSAPI&utm_medium=referral,https://www.greatschools.org/washington-dc/washington/394-Academia-De-La-Recta-Porta/?utm_source=GSAPI&utm_medium=referral#Reviews,https://www.greatschools.org/washington-dc/washington/394-Academia-De-La-Recta-Porta/?utm_source=GSAPI&utm_medium=referral,,,,,20012
1,246,Academy for Ideal Education - T Street,private,1-12,65.0,4.0,Washington,DC,"62 T st N.E washington, 
Washington, DC  20002",(202) 269-3186,(202) 269-3426,http://www.idealacademy.org/,A9901125,38.91555,-77.00846,https://www.greatschools.org/washington-dc/washington/246-Academy-For-Ideal-Education---T-Street/?utm_source=GSAPI&utm_medium=referral,https://www.greatschools.org/washington-dc/washington/246-Academy-For-Ideal-Education---T-Street/?utm_source=GSAPI&utm_medium=referral,https://www.greatschools.org/washington-dc/washington/246-Academy-For-Ideal-Education---T-Street/?utm_source=GSAPI&utm_medium=referral#Reviews,https://www.greatschools.org/washington-dc/washington/246-Academy-For-Ideal-Education---T-Street/?utm_source=GSAPI&utm_medium=referral,,,,,20002
2,587,Achievement Preparatory Academy PCS,charter,4-8,383.0,4.0,Washington,DC,"908 Wahler Place Southeast, 
Washington, DC  20032",(202) 562-1214,(202) 562-1219,http://www.aprepacademy.org,110007200405,38.83435,-76.99234,https://www.greatschools.org/washington-dc/washington/587-Achievement-Preparatory-Academy-PCS/?utm_source=GSAPI&utm_medium=referral,https://www.greatschools.org/washington-dc/washington/587-Achievement-Preparatory-Academy-PCS/?utm_source=GSAPI&utm_medium=referral,https://www.greatschools.org/washington-dc/washington/587-Achievement-Preparatory-Academy-PCS/?utm_source=GSAPI&utm_medium=referral#Reviews,https://www.greatschools.org/washington-dc/washington/587-Achievement-Preparatory-Academy-PCS/?utm_source=GSAPI&utm_medium=referral,4.0,113.0,Achievement Preparatory Academy Pcs,1100072.0,20032
3,881,Alternative Solutions for Youth,private,n/a,,,Washington,DC,"1301 Lenfant Square, 
Washington, DC  20020",(202) 584-1244,(423) 472-2718,http://dcase.org/Alternative,,38.87393,-76.97009,https://www.greatschools.org/washington-dc/washington/881-Alternative-Solutions-For-Youth/?utm_source=GSAPI&utm_medium=referral,https://www.greatschools.org/washington-dc/washington/881-Alternative-Solutions-For-Youth/?utm_source=GSAPI&utm_medium=referral,https://www.greatschools.org/washington-dc/washington/881-Alternative-Solutions-For-Youth/?utm_source=GSAPI&utm_medium=referral#Reviews,https://www.greatschools.org/washington-dc/washington/881-Alternative-Solutions-For-Youth/?utm_source=GSAPI&utm_medium=referral,,,,,20020
4,164,Annunciation Catholic School,private,PK-8,140.0,4.0,Washington,DC,"3825 Klingle Pl, 
Washington, DC  20016",(202) 362-1408,,http://www.annunciationschool.net,00252626,38.929733,-77.0753,https://www.greatschools.org/washington-dc/washington/164-Annunciation-Catholic-School/?utm_source=GSAPI&utm_medium=referral,https://www.greatschools.org/washington-dc/washington/164-Annunciation-Catholic-School/?utm_source=GSAPI&utm_medium=referral,https://www.greatschools.org/washington-dc/washington/164-Annunciation-Catholic-School/?utm_source=GSAPI&utm_medium=referral#Reviews,https://www.greatschools.org/washington-dc/washington/164-Annunciation-Catholic-School/?utm_source=GSAPI&utm_medium=referral,,,,,20016
5,847,BASIS DC,charter,5-12,648.0,4.0,Washington,DC,"410 8th Street NW, 
Washington, DC  20004",(202) 804-6390,(202) 393-5438,http://www.basisdc.org,110008300443,38.89523,-77.02331,https://www.greatschools.org/washington-dc/washington/847-BASIS-DC-/?utm_source=GSAPI&utm_medium=referral,https://www.greatschools.org/washington-dc/washington/847-BASIS-DC-/?utm_source=GSAPI&utm_medium=referral,https://www.greatschools.org/washington-dc/washington/847-BASIS-DC-/?utm_source=GSAPI&utm_medium=referral#Reviews,https://www.greatschools.org/washington-dc/washington/847-BASIS-DC-/?utm_source=GSAPI&utm_medium=referral,8.0,124.0,Basis Dc Pcs,1100083.0,20004
6,181,Blessed Sacrament Elementary School,private,K-8,535.0,4.0,Washington,DC,"5841 Chevy Chase Pkwy NW, 
Washington, DC  20015",(202) 966-6682,(202) 966-4938,www.bsstoday.org,00253029,38.967937,-77.075226,https://www.greatschools.org/washington-dc/washington/181-Blessed-Sacrament-Elementary-School/?utm_source=GSAPI&utm_medium=referral,https://www.greatschools.org/washington-dc/washington/181-Blessed-Sacrament-Elementary-School/?utm_source=GSAPI&utm_medium=referral,https://www.greatschools.org/washington-dc/washington/181-Blessed-Sacrament-Elementary-School/?utm_source=GSAPI&utm_medium=referral#Reviews,https://www.greatschools.org/washington-dc/washington/181-Blessed-Sacrament-Elementary-School/?utm_source=GSAPI&utm_medium=referral,,,,,20015
7,209,Bridges Early Childhood Academy,private,PK-8,180.0,4.0,Washington,DC,"6123 Georgia Avenue Northwest, 
Washington, DC  20011",(202) 829-1901,(202) 829-2429,www.bridgespcs.org,02016154,38.96445,-77.02734,https://www.greatschools.org/washington-dc/washington/209-Bridges-Early-Childhood-Academy/?utm_source=GSAPI&utm_medium=referral,https://www.greatschools.org/washington-dc/washington/209-Bridges-Early-Childhood-Academy/?utm_source=GSAPI&utm_medium=referral,https://www.greatschools.org/washington-dc/washington/209-Bridges-Early-Childhood-Academy/?utm_source=GSAPI&utm_medium=referral#Reviews,https://www.greatschools.org/washington-dc/washington/209-Bridges-Early-Childhood-Academy/?utm_source=GSAPI&utm_medium=referral,,,,,20011
8,88,Brightwood Education Campus,public,PK-8,573.0,2.0,Washington,DC,"1300 Nicholson Street Northwest, 
Washington, DC  20011",(202) 722-5670,(202) 576-6168,http://www.dcps.dc.gov,110003000112,38.960712,-77.03016,https://www.greatschools.org/washington-dc/washington/88-Brightwood-Education-Campus/?utm_source=GSAPI&utm_medium=referral,https://www.greatschools.org/washington-dc/washington/88-Brightwood-Education-Campus/?utm_source=GSAPI&utm_medium=referral,https://www.greatschools.org/washington-dc/washington/88-Brightwood-Education-Campus/?utm_source=GSAPI&utm_medium=referral#Reviews,https://www.greatschools.org/washington-dc/washington/88-Brightwood-Education-Campus/?utm_source=GSAPI&utm_medium=referral,6.0,1.0,District Of Columbia Public Schools,1100030.0,20011
9,373,British International School of Washington,private,PK-12,501.0,3.0,Washington,DC,"2001 Wisconsin Avenue NW, 
Washington, DC  20007",(202) 829-3700,(202) 829-6522,http://www.nordangliaeducation.com/our-schools/washington,A0500912,38.91671,-77.0681,https://www.greatschools.org/washington-dc/washington/373-British-International-School-Of-Washington/?utm_source=GSAPI&utm_medium=referral,https://www.greatschools.org/washington-dc/washington/373-British-International-School-Of-Washington/?utm_source=GSAPI&utm_medium=referral,https://www.greatschools.org/washington-dc/washington/373-British-International-School-Of-Washington/?utm_source=GSAPI&utm_medium=referral#Reviews,https://www.greatschools.org/washington-dc/washington/373-British-International-School-Of-Washington/?utm_source=GSAPI&utm_medium=referral,,,,,20007
10,1234,Brookland MS,public,6-8,,,Washington,DC,"1150 Michigan Avenue Northeast, 
Washington, DC  20017",(202) 759-1999,,http://www.dcps.dc.gov,110003000494,38.938694,-76.99122,https://www.greatschools.org/washington-dc/washington/1234-Brookland-MS/?utm_source=GSAPI&utm_medium=referral,https://www.greatschools.org/washington-dc/washington/1234-Brookland-MS/?utm_source=GSAPI&utm_medium=referral,https://www.greatschools.org/washington-dc/washington/1234-Brookland-MS/?utm_source=GSAPI&utm_medium=referral#Reviews,https://www.greatschools.org/washington-dc/washington/1234-Brookland-MS/?utm_source=GSAPI&utm_medium=referral,3.0,1.0,District Of Columbia Public Schools,1100030.0,20017
11,333,Browne Education Campus,public,PK-8,364.0,5.0,Washington,DC,"850 26th Street Northeast, 
Washington, DC  20002",(202) 671-6210,(202) 724-1530,http://www.dcps.dc.gov,110003000152,38.903183,-76.97088,https://www.greatschools.org/washington-dc/washington/333-Browne-Education-Campus/?utm_source=GSAPI&utm_medium=referral,https://www.greatschools.org/washington-dc/washington/333-Browne-Education-Campus/?utm_source=GSAPI&utm_medium=referral,https://www.greatschools.org/washington-dc/washington/333-Browne-Education-Campus/?utm_source=GSAPI&utm_medium=referral#Reviews,https://www.greatschools.org/washington-dc/washington/333-Browne-Education-Campus/?utm_source=GSAPI&utm_medium=referral,5.0,1.0,District Of Columbia Public Schools,1100030.0,20002
12,882,Building for the Future/Seeds of Tomorrow,private,n/a,,,Washington,DC,"2041 Martin Luther King Jr. Ave, 
Washington, DC  20020",(202) 747-7530,(717) 394-0885,http://empoweringcenter.org/newempoweringcenter,,38.86591,-76.98979,https://www.greatschools.org/washington-dc/washington/882-Building-For-The-Future-Seeds-Of-Tomorrow/?utm_source=GSAPI&utm_medium=referral,https://www.greatschools.org/washington-dc/washington/882-Building-For-The-Future-Seeds-Of-Tomorrow/?utm_source=GSAPI&utm_medium=referral,https://www.greatschools.org/washington-dc/washington/882-Building-For-The-Future-Seeds-Of-Tomorrow/?utm_source=GSAPI&utm_medium=referral#Reviews,https://www.greatschools.org/washington-dc/washington/882-Building-For-The-Future-Seeds-Of-Tomorrow/?utm_source=GSAPI&utm_medium=referral,,,,,20020
13,292,C.H.O.I.C.E. Academy @ Washington Met,public,7-12 & ungraded,,1.0,Washington,DC,"300 Bryant Street NW, 
Washington, DC  20001",(202) 939-4350,,www.dcps.dc.gov/DCPS/CHOICE,110003000418,38.920216,-77.016716,https://www.greatschools.org/washington-dc/washington/292-C.H.O.I.C.E.-Academy-@-Washington-Met/?utm_source=GSAPI&utm_medium=referral,https://www.greatschools.org/washington-dc/washington/292-C.H.O.I.C.E.-Academy-@-Washington-Met/?utm_source=GSAPI&utm_medium=referral,https://www.greatschools.org/washington-dc/washington/292-C.H.O.I.C.E.-Academy-@-Washington-Met/?utm_source=GSAPI&utm_medium=referral#Reviews,https://www.greatschools.org/washington-dc/washington/292-C.H.O.I.C.E.-Academy-@-Washington-Met/?utm_source=GSAPI&utm_medium=referral,,1.0,District Of Columbia Public Schools,1100030.0,20001
14,239,Calvary Christian Academy,private,PK-8,202.0,4.0,Washington,DC,"806 Rhode Island Ave NE, 
Washington, DC  20018",(202) 526-5176,(202) 526-2672,http://www.calvarychristianacad.org,K9301156,38.92223,-76.99422,https://www.greatschools.org/washington-dc/washington/239-Calvary-Christian-Academy/?utm_source=GSAPI&utm_medium=referral,https://www.greatschools.org/washington-dc/washington/239-Calvary-Christian-Academy/?utm_source=GSAPI&utm_medium=referral,https://www.greatschools.org/washington-dc/washington/239-Calvary-Christian-Academy/?utm_source=GSAPI&utm_medium=referral#Reviews,https://www.greatschools.org/washington-dc/washington/239-Calvary-Christian-Academy/?utm_source=GSAPI&utm_medium=referral,,,,,20018
15,861,Capital City PCS - Middle School,charter,5-8,339.0,4.0,Washington,DC,"100 Peabody Street Northwest, 
Washington, DC  20011",(202) 808-9800,(202) 733-1812,http://www.ccpcs.org,110003500464,38.962334,-77.01261,https://www.greatschools.org/washington-dc/washington/861-Capital-City-PCS---Middle-School/?utm_source=GSAPI&utm_medium=referral,https://www.greatschools.org/washington-dc/washington/861-Capital-City-PCS---Middle-School/?utm_source=GSAPI&utm_medium=referral,https://www.greatschools.org/washington-dc/washington/861-Capital-City-PCS---Middle-School/?utm_source=GSAPI&utm_medium=referral#Reviews,https://www.greatschools.org/washington-dc/washington/861-Capital-City-PCS---Middle-School/?utm_source=GSAPI&utm_medium=referral,7.0,74.0,Capital City Pcs,1100035.0,20011
16,190,Capitol Hill Day School,private,PK-8,225.0,5.0,Washington,DC,"210 South Carolina Ave SE, 
Washington, DC  20003",(202) 547-2244,(202) 543-4597,http://www.chds.org,00253415,38.88226,-77.00312,https://www.greatschools.org/washington-dc/washington/190-Capitol-Hill-Day-School/?utm_source=GSAPI&utm_medium=referral,https://www.greatschools.org/washington-dc/washington/190-Capitol-Hill-Day-School/?utm_source=GSAPI&utm_medium=referral,https://www.greatschools.org/washington-dc/washington/190-Capitol-Hill-Day-School/?utm_source=GSAPI&utm_medium=referral#Reviews,https://www.greatschools.org/washington-dc/washington/190-Capitol-Hill-Day-School/?utm_source=GSAPI&utm_medium=referral,,,,,20003
17,840,Capitol Hill Montessori @ Logan,public,PK-8,224.0,4.0,Washington,DC,"215 G Street Northeast, 
Washington, DC  20002",(202) 698-4467,(202) 698-4533,http://www.dcps.dc.gov,110003000446,38.898502,-77.00257,https://www.greatschools.org/washington-dc/washington/840-Capitol-Hill-Montessori-@-Logan/?utm_source=GSAPI&utm_medium=referral,https://www.greatschools.org/washington-dc/washington/840-Capitol-Hill-Montessori-@-Logan/?utm_source=GSAPI&utm_medium=referral,https://www.greatschools.org/washington-dc/washington/840-Capitol-Hill-Montessori-@-Logan/?utm_source=GSAPI&utm_medium=referral#Reviews,https://www.greatschools.org/washington-dc/washington/840-Capitol-Hill-Montessori-@-Logan/?utm_source=GSAPI&utm_medium=referral,8.0,1.0,District Of Columbia Public Schools,1100030.0,20002
18,64,Cardozo Education Campus,public,6-12,783.0,4.0,Washington,DC,"1200 Clifton Street Northwest, 
Washington, DC  20009",(202) 673-7385,(202) 673-2232,http://www.dcps.dc.gov,110003000082,38.92195,-77.02826,https://www.greatschools.org/washington-dc/washington/64-Cardozo-Education-Campus/?utm_source=GSAPI&utm_medium=referral,https://www.greatschools.org/washington-dc/washington/64-Cardozo-Education-Campus/?utm_source=GSAPI&utm_medium=referral,https://www.greatschools.org/washington-dc/washington/64-Cardozo-Education-Campus/?utm_source=GSAPI&utm_medium=referral#Reviews,https://www.greatschools.org/washington-dc/washington/64-Cardozo-Education-Campus/?utm_source=GSAPI&utm_medium=referral,3.0,1.0,District Of Columbia Public Schools,1100030.0,20009
19,883,Career Training Program,private,n/a,,,Washington,DC,"700 Monroes St, NE, 
Washington, DC  20017",(202) 526-1400,(202) 526-1405,,,38.932556,-76.995804,https://www.greatschools.org/washington-dc/washington/883-Career-Training-Program/?utm_source=GSAPI&utm_medium=referral,https://www.greatschools.org/washington-dc/washington/883-Career-Training-Program/?utm_source=GSAPI&utm_medium=referral,https://www.greatschools.org/washington-dc/washington/883-Career-Training-Program/?utm_source=GSAPI&utm_medium=referral#Reviews,https://www.greatschools.org/washington-dc/washington/883-Career-Training-Program/?utm_source=GSAPI&utm_medium=referral,,,,,20017
20,323,Carlos Rosario International PCS,charter,n/a,1750.0,5.0,Washington,DC,"1100 Harvard Street, NW, 
Washington, DC  20009",(202) 797-4700,(202) 232-6442,,110000400218,38.926716,-77.02705,https://www.greatschools.org/washington-dc/washington/323-Carlos-Rosario-International-PCS/?utm_source=GSAPI&utm_medium=referral,https://www.greatschools.org/washington-dc/washington/323-Carlos-Rosario-International-PCS/?utm_source=GSAPI&utm_medium=referral,https://www.greatschools.org/washington-dc/washington/323-Carlos-Rosario-International-PCS/?utm_source=GSAPI&utm_medium=referral#Reviews,https://www.greatschools.org/washington-dc/washington/323-Carlos-Rosario-International-PCS/?utm_source=GSAPI&utm_medium=referral,,42.0,Carlos Rosario International Pcs,1100004.0,20009
21,593,Center City PCS - Brightwood,charter,PK-8,238.0,3.0,Washington,DC,"6008 Georgia Avenue Northwest, 
Washington, DC  20011",(202) 723-3322,(202) 291-0219,http://www.centercitypcs.org,110007300400,38.963215,-77.02839,https://www.greatschools.org/washington-dc/washington/593-Center-City-PCS---Brightwood/?utm_source=GSAPI&utm_medium=referral,https://www.greatschools.org/washington-dc/washington/593-Center-City-PCS---Brightwood/?utm_source=GSAPI&utm_medium=referral,https://www.greatschools.org/washington-dc/washington/593-Center-City-PCS---Brightwood/?utm_source=GSAPI&utm_medium=referral#Reviews,https://www.greatschools.org/washington-dc/washington/593-Center-City-PCS---Brightwood/?utm_source=GSAPI&utm_medium=referral,7.0,114.0,Center City Pcs,1100073.0,20011
22,594,Center City PCS - Capitol Hill,charter,PK-8,230.0,2.0,Washington,DC,"1503 East Capitol Street Southeast, 
Washington, DC  20003",(202) 547-7556,(202) 547-5686,http://www.centercitypcs.org,110007300393,38.889454,-76.98325,https://www.greatschools.org/washington-dc/washington/594-Center-City-PCS---Capitol-Hill/?utm_source=GSAPI&utm_medium=referral,https://www.greatschools.org/washington-dc/washington/594-Center-City-PCS---Capitol-Hill/?utm_source=GSAPI&utm_medium=referral,https://www.greatschools.org/washington-dc/washington/594-Center-City-PCS---Capitol-Hill/?utm_source=GSAPI&utm_medium=referral#Reviews,https://www.greatschools.org/washington-dc/washington/594-Center-City-PCS---Capitol-Hill/?utm_source=GSAPI&utm_medium=referral,,114.0,Center City Pcs,1100073.0,20003
23,595,Center City PCS - Congress Heights,charter,PK-8,254.0,4.0,Washington,DC,"220 Highview Place Southeast, 
Washington, DC  20032",(202) 562-7070,(202) 574-5829,http://www.centercitypcs.org,110007300412,38.841515,-77.00458,https://www.greatschools.org/washington-dc/washington/595-Center-City-PCS---Congress-Heights/?utm_source=GSAPI&utm_medium=referral,https://www.greatschools.org/washington-dc/washington/595-Center-City-PCS---Congress-Heights/?utm_source=GSAPI&utm_medium=referral,https://www.greatschools.org/washington-dc/washington/595-Center-City-PCS---Congress-Heights/?utm_source=GSAPI&utm_medium=referral#Reviews,https://www.greatschools.org/washington-dc/washington/595-Center-City-PCS---Congress-Heights/?utm_source=GSAPI&utm_medium=referral,6.0,114.0,Center City Pcs,1100073.0,20032
24,596,Center City PCS - Petworth,charter,PK-8,235.0,4.0,Washington,DC,"510 Webster Street Northwest, 
Washington, DC  20011",(202) 726-9212,(202) 726-3378,http://www.centercitypcs.org,110007300395,38.943764,-77.02087,https://www.greatschools.org/washington-dc/washington/596-Center-City-PCS---Petworth/?utm_source=GSAPI&utm_medium=referral,https://www.greatschools.org/washington-dc/washington/596-Center-City-PCS---Petworth/?utm_source=GSAPI&utm_medium=referral,https://www.greatschools.org/washington-dc/washington/596-Center-City-PCS---Petworth/?utm_source=GSAPI&utm_medium=referral#Reviews,https://www.greatschools.org/washington-dc/washington/596-Center-City-PCS---Petworth/?utm_source=GSAPI&utm_medium=referral,6.0,114.0,Center City Pcs,1100073.0,20011
25,597,Center City PCS - Shaw,charter,PK-8,218.0,3.0,Washington,DC,"711 N Street Northwest, 
Washington, DC  20001",(202) 234-1093,(202) 462-6875,http://www.centercitypcs.org,110007300404,38.907524,-77.022484,https://www.greatschools.org/washington-dc/washington/597-Center-City-PCS---Shaw/?utm_source=GSAPI&utm_medium=referral,https://www.greatschools.org/washington-dc/washington/597-Center-City-PCS---Shaw/?utm_source=GSAPI&utm_medium=referral,https://www.greatschools.org/washington-dc/washington/597-Center-City-PCS---Shaw/?utm_source=GSAPI&utm_medium=referral#Reviews,https://www.greatschools.org/washington-dc/washington/597-Center-City-PCS---Shaw/?utm_source=GSAPI&utm_medium=referral,8.0,114.0,Center City Pcs,1100073.0,20001
26,598,Center City PCS - Trinidad,charter,PK-8,230.0,4.0,Washington,DC,"1217 West Virginia Avenue Northeast, 
Washington, DC  20002",(202) 397-1614,(202) 398-4832,http://www.centercitypcs.org,110007300403,38.90532,-76.99122,https://www.greatschools.org/washington-dc/washington/598-Center-City-PCS---Trinidad/?utm_source=GSAPI&utm_medium=referral,https://www.greatschools.org/washington-dc/washington/598-Center-City-PCS---Trinidad/?utm_source=GSAPI&utm_medium=referral,https://www.greatschools.org/washington-dc/washington/598-Center-City-PCS---Trinidad/?utm_source=GSAPI&utm_medium=referral#Reviews,https://www.greatschools.org/washington-dc/washington/598-Center-City-PCS---Trinidad/?utm_source=GSAPI&utm_medium=referral,,114.0,Center City Pcs,1100073.0,20002
27,566,Cesar Chavez PCS for Public Policy - Chavez Prep Middle School,charter,6-9,357.0,,Washington,DC,"770 Kenyon Street Northwest, 
Washington, DC  20010",(202) 723-3975,(202) 723-3976,http://www.chavezschools.org,110000500377,38.92961,-77.02554,https://www.greatschools.org/washington-dc/washington/566-Cesar-Chavez-PCS-For-Public-Policy---Chavez-Prep-Middle-School/?utm_source=GSAPI&utm_medium=referral,https://www.greatschools.org/washington-dc/washington/566-Cesar-Chavez-PCS-For-Public-Policy---Chavez-Prep-Middle-School/?utm_source=GSAPI&utm_medium=referral,https://www.greatschools.org/washington-dc/washington/566-Cesar-Chavez-PCS-For-Public-Policy---Chavez-Prep-Middle-School/?utm_source=GSAPI&utm_medium=referral#Reviews,https://www.greatschools.org/washington-dc/washington/566-Cesar-Chavez-PCS-For-Public-Policy---Chavez-Prep-Middle-School/?utm_source=GSAPI&utm_medium=referral,4.0,75.0,Cesar Chavez Public Pcs,1100005.0,20010
28,592,Cesar Chavez PCS for Public Policy- Parkside MiddleSchool,charter,6-8,302.0,2.0,Washington,DC,"3701 Hayes Street Northeast, 
Washington, DC  20019",(202) 398-2230,(202) 398-2535,http://www.chavezschools.org,110000500328,38.90136,-76.9491,https://www.greatschools.org/washington-dc/washington/592-Cesar-Chavez-PCS-For-Public-Policy--Parkside-MiddleSchool/?utm_source=GSAPI&utm_medium=referral,https://www.greatschools.org/washington-dc/washington/592-Cesar-Chavez-PCS-For-Public-Policy--Parkside-MiddleSchool/?utm_source=GSAPI&utm_medium=referral,https://www.greatschools.org/washington-dc/washington/592-Cesar-Chavez-PCS-For-Public-Policy--Parkside-MiddleSchool/?utm_source=GSAPI&utm_medium=referral#Reviews,https://www.greatschools.org/washington-dc/washington/592-Cesar-Chavez-PCS-For-Public-Policy--Parkside-MiddleSchool/?utm_source=GSAPI&utm_medium=referral,3.0,75.0,Cesar Chavez Public Pcs,1100005.0,20019
29,44,Columbia Heights Education Campus,public,6-12,1393.0,4.0,Washington,DC,"3101 16th Street Northwest, 
Washington, DC  20010",(202) 939-7700,,http://www.dcps.dc.gov,110003000396,38.92952,-77.03576,https://www.greatschools.org/washington-dc/washington/44-Columbia-Heights-Education-Campus/?utm_source=GSAPI&utm_medium=referral,https://www.greatschools.org/washington-dc/washington/44-Columbia-Heights-Education-Campus/?utm_source=GSAPI&utm_medium=referral,https://www.greatschools.org/washington-dc/washington/44-Columbia-Heights-Education-Campus/?utm_source=GSAPI&utm_medium=referral#Reviews,https://www.greatschools.org/washington-dc/washington/44-Columbia-Heights-Education-Campus/?utm_source=GSAPI&utm_medium=referral,6.0,1.0,District Of Columbia Public Schools,1100030.0,20010
30,245,"Cornerstone Schools of Washington, D.C.",private,PK-12,130.0,4.0,Washington,DC,"3742 Ely Place SE, 
Washington, DC  20019",(202) 575-0027,(202) 575-0669,http://www.cornerstone-schools.org,A9901122,38.882893,-76.94812,"https://www.greatschools.org/washington-dc/washington/245-Cornerstone-Schools-Of-Washington,-D.C./?utm_source=GSAPI&utm_medium=referral","https://www.greatschools.org/washington-dc/washington/245-Cornerstone-Schools-Of-Washington,-D.C./?utm_source=GSAPI&utm_medium=referral","https://www.greatschools.org/washington-dc/washington/245-Cornerstone-Schools-Of-Washington,-D.C./?utm_source=GSAPI&utm_medium=referral#Reviews","https://www.greatschools.org/washington-dc/washington/245-Cornerstone-Schools-Of-Washington,-D.C./?utm_source=GSAPI&utm_medium=referral",,,,,20019
31,902,D C Preparatory Benning Middle Campus,charter,4-7,220.0,5.0,Washington,DC,"100 41st Street Northeast, 
Washington, DC  20019",(202) 396-3780,,http://www.dcprep.org/,110004800474,38.890778,-76.944954,https://www.greatschools.org/washington-dc/washington/902-D-C-Preparatory-Benning-Middle-Campus/?utm_source=GSAPI&utm_medium=referral,https://www.greatschools.org/washington-dc/washington/902-D-C-Preparatory-Benning-Middle-Campus/?utm_source=GSAPI&utm_medium=referral,https://www.greatschools.org/washington-dc/washington/902-D-C-Preparatory-Benning-Middle-Campus/?utm_source=GSAPI&utm_medium=referral#Reviews,https://www.greatschools.org/washington-dc/washington/902-D-C-Preparatory-Benning-Middle-Campus/?utm_source=GSAPI&utm_medium=referral,7.0,80.0,D.C. Preparatory Academy Pcs,1100048.0,20019
32,601,DC Prep - Edgewood Middle Campus,charter,4-8,300.0,5.0,Washington,DC,"701 Edgewood Street NE, 
Washington, DC  20017",(202) 832-5700,(202) 832-5701,http://www.dcprep.org/,110004800277,38.924778,-76.99599,https://www.greatschools.org/washington-dc/washington/601-DC-Prep---Edgewood-Middle-Campus/?utm_source=GSAPI&utm_medium=referral,https://www.greatschools.org/washington-dc/washington/601-DC-Prep---Edgewood-Middle-Campus/?utm_source=GSAPI&utm_medium=referral,https://www.greatschools.org/washington-dc/washington/601-DC-Prep---Edgewood-Middle-Campus/?utm_source=GSAPI&utm_medium=referral#Reviews,https://www.greatschools.org/washington-dc/washington/601-DC-Prep---Edgewood-Middle-Campus/?utm_source=GSAPI&utm_medium=referral,8.0,80.0,D.C. Preparatory Academy Pcs,1100048.0,20017
33,849,DC Scholars PCS,charter,PK-7,183.0,,Washington,DC,"5601 East Capitol Street Southeast, 
Washington, DC  20019",(202) 559-6138,(202) 618-9396,http://www.dcscholars.org,110008500438,38.889347,-76.921,https://www.greatschools.org/washington-dc/washington/849-DC-Scholars-PCS/?utm_source=GSAPI&utm_medium=referral,https://www.greatschools.org/washington-dc/washington/849-DC-Scholars-PCS/?utm_source=GSAPI&utm_medium=referral,https://www.greatschools.org/washington-dc/washington/849-DC-Scholars-PCS/?utm_source=GSAPI&utm_medium=referral#Reviews,https://www.greatschools.org/washington-dc/washington/849-DC-Scholars-PCS/?utm_source=GSAPI&utm_medium=referral,5.0,126.0,Dc Scholars Pcs,1100085.0,20019
34,108,Deal Middle School,public,6-8,1341.0,4.0,Washington,DC,"3815 Fort Drive Northwest, 
Washington, DC  20016",(202) 939-2010,,http://www.dcps.dc.gov,110003000138,38.953495,-77.07446,https://www.greatschools.org/washington-dc/washington/108-Deal-Middle-School/?utm_source=GSAPI&utm_medium=referral,https://www.greatschools.org/washington-dc/washington/108-Deal-Middle-School/?utm_source=GSAPI&utm_medium=referral,https://www.greatschools.org/washington-dc/washington/108-Deal-Middle-School/?utm_source=GSAPI&utm_medium=referral#Reviews,https://www.greatschools.org/washington-dc/washington/108-Deal-Middle-School/?utm_source=GSAPI&utm_medium=referral,9.0,1.0,District Of Columbia Public Schools,1100030.0,20016
35,1226,Democracy Prep PCS-Congress Heights,charter,PK-7,620.0,,Washington,DC,"3100 Martin Luther King Junior Avenue Southeast, 
Washington, DC  20032",(202) 561-0860,,http://www.democracyprep.org/,110009500485,38.8435,-76.998146,https://www.greatschools.org/washington-dc/washington/1226-Democracy-Prep-PCS-Congress-Heights/?utm_source=GSAPI&utm_medium=referral,https://www.greatschools.org/washington-dc/washington/1226-Democracy-Prep-PCS-Congress-Heights/?utm_source=GSAPI&utm_medium=referral,https://www.greatschools.org/washington-dc/washington/1226-Democracy-Prep-PCS-Congress-Heights/?utm_source=GSAPI&utm_medium=referral#Reviews,https://www.greatschools.org/washington-dc/washington/1226-Democracy-Prep-PCS-Congress-Heights/?utm_source=GSAPI&utm_medium=referral,3.0,132.0,Democracy Prep PCS-Congress Heights,,20032
36,910,District of Columbia International School,charter,6-9,200.0,,Washington,DC,"3220 16th Street Northwest, 
Washington, DC  20010",(202) 808-9033,,http://www.dcinternationalschool.org,110009700492,38.93128,-77.03679,https://www.greatschools.org/washington-dc/washington/910-District-Of-Columbia-International-School/?utm_source=GSAPI&utm_medium=referral,https://www.greatschools.org/washington-dc/washington/910-District-Of-Columbia-International-School/?utm_source=GSAPI&utm_medium=referral,https://www.greatschools.org/washington-dc/washington/910-District-Of-Columbia-International-School/?utm_source=GSAPI&utm_medium=referral#Reviews,https://www.greatschools.org/washington-dc/washington/910-District-Of-Columbia-International-School/?utm_source=GSAPI&utm_medium=referral,9.0,133.0,District of Columbia International School,,20010
37,202,Dupont Park  Adventist School,private,PK-10,221.0,4.0,Washington,DC,"3942 Alabama Avenue Southeast, 
Washington, DC  20020",(202) 583-8500,,www.dupontparkadventistschool.org,00253914,38.868855,-76.948166,https://www.greatschools.org/washington-dc/washington/202-Dupont-Park--Adventist-School/?utm_source=GSAPI&utm_medium=referral,https://www.greatschools.org/washington-dc/washington/202-Dupont-Park--Adventist-School/?utm_source=GSAPI&utm_medium=referral,https://www.greatschools.org/washington-dc/washington/202-Dupont-Park--Adventist-School/?utm_source=GSAPI&utm_medium=referral#Reviews,https://www.greatschools.org/washington-dc/washington/202-Dupont-Park--Adventist-School/?utm_source=GSAPI&utm_medium=referral,,,,,20020
38,367,E.L. Haynes PCS - Georgia Avenue,charter,5-8,373.0,5.0,Washington,DC,"3600 Georgia Avenue Northwest, 
Washington, DC  20010",(202) 667-4446,(202) 667-8811,http://www.elhaynes.org,110004300274,38.93441,-77.02433,https://www.greatschools.org/washington-dc/washington/367-E.L.-Haynes-PCS---Georgia-Avenue/?utm_source=GSAPI&utm_medium=referral,https://www.greatschools.org/washington-dc/washington/367-E.L.-Haynes-PCS---Georgia-Avenue/?utm_source=GSAPI&utm_medium=referral,https://www.greatschools.org/washington-dc/washington/367-E.L.-Haynes-PCS---Georgia-Avenue/?utm_source=GSAPI&utm_medium=referral#Reviews,https://www.greatschools.org/washington-dc/washington/367-E.L.-Haynes-PCS---Georgia-Avenue/?utm_source=GSAPI&utm_medium=referral,5.0,81.0,E.L. Haynes Pcs,1100043.0,20010
39,191,Edmund Burke School,private,6-12,300.0,4.0,Washington,DC,"4101 Connecticut Avenue NW, 
Washington, DC  20008",(202) 362-8882,(202) 362-1914,,00253426,38.942024,-77.06222,https://www.greatschools.org/washington-dc/washington/191-Edmund-Burke-School/?utm_source=GSAPI&utm_medium=referral,https://www.greatschools.org/washington-dc/washington/191-Edmund-Burke-School/?utm_source=GSAPI&utm_medium=referral,https://www.greatschools.org/washington-dc/washington/191-Edmund-Burke-School/?utm_source=GSAPI&utm_medium=referral#Reviews,https://www.greatschools.org/washington-dc/washington/191-Edmund-Burke-School/?utm_source=GSAPI&utm_medium=referral,,,,,20008
40,118,Eliot-Hine Middle School,public,6-8,209.0,4.0,Washington,DC,"1830 Constitution Avenue Northeast, 
Washington, DC  20002",(202) 939-5380,(202) 673-8063,http://www.dcps.dc.gov,110003000151,38.892345,-76.978966,https://www.greatschools.org/washington-dc/washington/118-Eliot-Hine-Middle-School/?utm_source=GSAPI&utm_medium=referral,https://www.greatschools.org/washington-dc/washington/118-Eliot-Hine-Middle-School/?utm_source=GSAPI&utm_medium=referral,https://www.greatschools.org/washington-dc/washington/118-Eliot-Hine-Middle-School/?utm_source=GSAPI&utm_medium=referral#Reviews,https://www.greatschools.org/washington-dc/washington/118-Eliot-Hine-Middle-School/?utm_source=GSAPI&utm_medium=referral,3.0,1.0,District Of Columbia Public Schools,1100030.0,20002
41,906,Emery L Fears Boys Academy,private,6-12,4.0,,Washington,DC,"1544 5th Street Northwest, 
Washington, DC  20001",(202) 232-2860,,,A0900742,38.91093,-77.01923,https://www.greatschools.org/washington-dc/washington/906-Emery-L-Fears-Boys-Academy/?utm_source=GSAPI&utm_medium=referral,https://www.greatschools.org/washington-dc/washington/906-Emery-L-Fears-Boys-Academy/?utm_source=GSAPI&utm_medium=referral,https://www.greatschools.org/washington-dc/washington/906-Emery-L-Fears-Boys-Academy/?utm_source=GSAPI&utm_medium=referral#Reviews,https://www.greatschools.org/washington-dc/washington/906-Emery-L-Fears-Boys-Academy/?utm_source=GSAPI&utm_medium=referral,,,,,20001
42,602,Excel Academy PCS,charter,PK-8,630.0,4.0,Washington,DC,"2501 Martin Luther King Junior Avenue Southeast, 
Washington, DC  20020",(202) 373-0097,(202) 373-0477,http://excelpubliccharterschool.org,110007600408,38.859917,-76.9954,https://www.greatschools.org/washington-dc/washington/602-Excel-Academy-PCS/?utm_source=GSAPI&utm_medium=referral,https://www.greatschools.org/washington-dc/washington/602-Excel-Academy-PCS/?utm_source=GSAPI&utm_medium=referral,https://www.greatschools.org/washington-dc/washington/602-Excel-Academy-PCS/?utm_source=GSAPI&utm_medium=referral#Reviews,https://www.greatschools.org/washington-dc/washington/602-Excel-Academy-PCS/?utm_source=GSAPI&utm_medium=referral,4.0,120.0,Excel Academy Pcs,1100076.0,20020
43,198,Field School,private,6-12,360.0,4.0,Washington,DC,"2301 Foxhall Rd NW, 
Washington, DC  20007",(202) 295-5800,,www.fieldschool.org,00253732,38.92081,-77.08872,https://www.greatschools.org/washington-dc/washington/198-Field-School/?utm_source=GSAPI&utm_medium=referral,https://www.greatschools.org/washington-dc/washington/198-Field-School/?utm_source=GSAPI&utm_medium=referral,https://www.greatschools.org/washington-dc/washington/198-Field-School/?utm_source=GSAPI&utm_medium=referral#Reviews,https://www.greatschools.org/washington-dc/washington/198-Field-School/?utm_source=GSAPI&utm_medium=referral,,,,,20007
44,1210,Friendship PCS Blow-Pierce Middle,charter,4-8,,,Washington,DC,"725 19th Street Northeast, 
Washington, DC  20002",(202) 572-1070,,http://www.friendshipschools.org,110000800478,38.8979,-76.97658,https://www.greatschools.org/washington-dc/washington/1210-Friendship-PCS-Blow-Pierce-Middle/?utm_source=GSAPI&utm_medium=referral,https://www.greatschools.org/washington-dc/washington/1210-Friendship-PCS-Blow-Pierce-Middle/?utm_source=GSAPI&utm_medium=referral,https://www.greatschools.org/washington-dc/washington/1210-Friendship-PCS-Blow-Pierce-Middle/?utm_source=GSAPI&utm_medium=referral#Reviews,https://www.greatschools.org/washington-dc/washington/1210-Friendship-PCS-Blow-Pierce-Middle/?utm_source=GSAPI&utm_medium=referral,6.0,82.0,Friendship Pcs,1100008.0,20002
45,1212,Friendship PCS Chamberlain Middle,charter,4-8,,,Washington,DC,"1345 Potomac Avenue Southeast, 
Washington, DC  20003",(202) 547-5800,,http://www.friendshipschools.org,110000800483,38.879528,-76.9868,https://www.greatschools.org/washington-dc/washington/1212-Friendship-PCS-Chamberlain-Middle/?utm_source=GSAPI&utm_medium=referral,https://www.greatschools.org/washington-dc/washington/1212-Friendship-PCS-Chamberlain-Middle/?utm_source=GSAPI&utm_medium=referral,https://www.greatschools.org/washington-dc/washington/1212-Friendship-PCS-Chamberlain-Middle/?utm_source=GSAPI&utm_medium=referral#Reviews,https://www.greatschools.org/washington-dc/washington/1212-Friendship-PCS-Chamberlain-Middle/?utm_source=GSAPI&utm_medium=referral,7.0,82.0,Friendship Pcs,1100008.0,20003
46,562,Friendship PCS Online,charter,K-8,132.0,5.0,Washington,DC,"1351 Nicholson Street Northwest, 
Washington, DC  20011",(202) 281-1700,,http://www.friendshipschools.org,110000800495,38.960472,-77.03159,https://www.greatschools.org/washington-dc/washington/562-Friendship-PCS-Online/?utm_source=GSAPI&utm_medium=referral,https://www.greatschools.org/washington-dc/washington/562-Friendship-PCS-Online/?utm_source=GSAPI&utm_medium=referral,https://www.greatschools.org/washington-dc/washington/562-Friendship-PCS-Online/?utm_source=GSAPI&utm_medium=referral#Reviews,https://www.greatschools.org/washington-dc/washington/562-Friendship-PCS-Online/?utm_source=GSAPI&utm_medium=referral,,82.0,Friendship Pcs,1100008.0,20011
47,1214,Friendship PCS Woodridge Middle,charter,4-8,,,Washington,DC,"2959 Carlton Avenue Northeast, 
Washington, DC  20018",(202) 635-6500,,http://www.friendshipschools.org,110000800481,38.929688,-76.96664,https://www.greatschools.org/washington-dc/washington/1214-Friendship-PCS-Woodridge-Middle/?utm_source=GSAPI&utm_medium=referral,https://www.greatschools.org/washington-dc/washington/1214-Friendship-PCS-Woodridge-Middle/?utm_source=GSAPI&utm_medium=referral,https://www.greatschools.org/washington-dc/washington/1214-Friendship-PCS-Woodridge-Middle/?utm_source=GSAPI&utm_medium=referral#Reviews,https://www.greatschools.org/washington-dc/washington/1214-Friendship-PCS-Woodridge-Middle/?utm_source=GSAPI&utm_medium=referral,5.0,82.0,Friendship Pcs,1100008.0,20018
48,825,Friendship Technology Preparatory Academy PCS,charter,6-8,543.0,4.0,Washington,DC,"620 Milwaukee Place Southeast, 
Washington, DC  20032",(202) 552-5700,(202) 562-1817,http://www.friendshipschools.org,110000800422,38.84828,-76.99765,https://www.greatschools.org/washington-dc/washington/825-Friendship-Technology-Preparatory-Academy-PCS/?utm_source=GSAPI&utm_medium=referral,https://www.greatschools.org/washington-dc/washington/825-Friendship-Technology-Preparatory-Academy-PCS/?utm_source=GSAPI&utm_medium=referral,https://www.greatschools.org/washington-dc/washington/825-Friendship-Technology-Preparatory-Academy-PCS/?utm_source=GSAPI&utm_medium=referral#Reviews,https://www.greatschools.org/washington-dc/washington/825-Friendship-Technology-Preparatory-Academy-PCS/?utm_source=GSAPI&utm_medium=referral,4.0,82.0,Friendship Pcs,1100008.0,20032
49,1245,Fusion Academy Washington D.C.,private,6-12,55.0,,Washington,DC,"3007 Tilden St. NW, Suite N100, 
Washington, DC  20008",(202) 244-0639,,https://www.fusionacademy.com/fusion-campus-location/washington-dc/welcome,,38.94137,-77.0635,https://www.greatschools.org/washington-dc/washington/1245-Fusion-Academy-Washington-D.C./?utm_source=GSAPI&utm_medium=referral,https://www.greatschools.org/washington-dc/washington/1245-Fusion-Academy-Washington-D.C./?utm_source=GSAPI&utm_medium=referral,https://www.greatschools.org/washington-dc/washington/1245-Fusion-Academy-Washington-D.C./?utm_source=GSAPI&utm_medium=referral#Reviews,https://www.greatschools.org/washington-dc/washington/1245-Fusion-Academy-Washington-D.C./?utm_source=GSAPI&utm_medium=referral,,,,,20008
50,248,Georgetown Day School - Lower/Middle School,private,PK-8,550.0,4.0,Washington,DC,"4530 MacArthur Blvd, NW, Washington, DC, 
Washington, DC  20007",(202) 295-6200,(202) 295-6151,http://www.gds.org,Y9101619,38.907974,-77.08619,https://www.greatschools.org/washington-dc/washington/248-Georgetown-Day-School---Lower-Middle-School/?utm_source=GSAPI&utm_medium=referral,https://www.greatschools.org/washington-dc/washington/248-Georgetown-Day-School---Lower-Middle-School/?utm_source=GSAPI&utm_medium=referral,https://www.greatschools.org/washington-dc/washington/248-Georgetown-Day-School---Lower-Middle-School/?utm_source=GSAPI&utm_medium=referral#Reviews,https://www.greatschools.org/washington-dc/washington/248-Georgetown-Day-School---Lower-Middle-School/?utm_source=GSAPI&utm_medium=referral,,,,,20007
51,146,Hardy Middle School,public,6-8,412.0,4.0,Washington,DC,"1819 35th Street Northwest, 
Washington, DC  20007",(202) 729-4350,(202) 576-9443,http://www.dcps.dc.gov,110003000186,38.915436,-77.06823,https://www.greatschools.org/washington-dc/washington/146-Hardy-Middle-School/?utm_source=GSAPI&utm_medium=referral,https://www.greatschools.org/washington-dc/washington/146-Hardy-Middle-School/?utm_source=GSAPI&utm_medium=referral,https://www.greatschools.org/washington-dc/washington/146-Hardy-Middle-School/?utm_source=GSAPI&utm_medium=referral#Reviews,https://www.greatschools.org/washington-dc/washington/146-Hardy-Middle-School/?utm_source=GSAPI&utm_medium=referral,8.0,1.0,District Of Columbia Public Schools,1100030.0,20007
52,106,Hart Middle School,public,6-8,381.0,4.0,Washington,DC,"601 Mississippi Avenue Southeast, 
Washington, DC  20032",(202) 671-6426,(202) 645-3426,http://www.dcps.dc.gov,110003000135,38.837444,-76.99734,https://www.greatschools.org/washington-dc/washington/106-Hart-Middle-School/?utm_source=GSAPI&utm_medium=referral,https://www.greatschools.org/washington-dc/washington/106-Hart-Middle-School/?utm_source=GSAPI&utm_medium=referral,https://www.greatschools.org/washington-dc/washington/106-Hart-Middle-School/?utm_source=GSAPI&utm_medium=referral#Reviews,https://www.greatschools.org/washington-dc/washington/106-Hart-Middle-School/?utm_source=GSAPI&utm_medium=referral,2.0,1.0,District Of Columbia Public Schools,1100030.0,20032
53,576,High Road Middle School of Washington,private,n/a,31.0,,Washington,DC,"1530 First Street, SW, 
Washington, DC  20001",(202) 479-0089,(202) 479-4709,,,38.910564,-77.012436,https://www.greatschools.org/washington-dc/washington/576-High-Road-Middle-School-Of-Washington/?utm_source=GSAPI&utm_medium=referral,https://www.greatschools.org/washington-dc/washington/576-High-Road-Middle-School-Of-Washington/?utm_source=GSAPI&utm_medium=referral,https://www.greatschools.org/washington-dc/washington/576-High-Road-Middle-School-Of-Washington/?utm_source=GSAPI&utm_medium=referral#Reviews,https://www.greatschools.org/washington-dc/washington/576-High-Road-Middle-School-Of-Washington/?utm_source=GSAPI&utm_medium=referral,,,,,20001
54,347,"High Road Primary School of Washington, DC",private,7-8,16.0,,Washington,DC,"1530 First Street SW , 
Washington, DC  20011",(202) 479-0089,,,A0304038,38.87121,-77.01171,"https://www.greatschools.org/washington-dc/washington/347-High-Road-Primary-School-Of-Washington,-DC/?utm_source=GSAPI&utm_medium=referral","https://www.greatschools.org/washington-dc/washington/347-High-Road-Primary-School-Of-Washington,-DC/?utm_source=GSAPI&utm_medium=referral","https://www.greatschools.org/washington-dc/washington/347-High-Road-Primary-School-Of-Washington,-DC/?utm_source=GSAPI&utm_medium=referral#Reviews","https://www.greatschools.org/washington-dc/washington/347-High-Road-Primary-School-Of-Washington,-DC/?utm_source=GSAPI&utm_medium=referral",,,,,20011
55,169,Holy Trinity Catholic School,private,PK-8,320.0,5.0,Washington,DC,"1325 36th St, 
Washington, DC  20007",(202) 337-2339,(202) 337-0368,www.htsdc.org,00252717,38.907433,-77.06995,https://www.greatschools.org/washington-dc/washington/169-Holy-Trinity-Catholic-School/?utm_source=GSAPI&utm_medium=referral,https://www.greatschools.org/washington-dc/washington/169-Holy-Trinity-Catholic-School/?utm_source=GSAPI&utm_medium=referral,https://www.greatschools.org/washington-dc/washington/169-Holy-Trinity-Catholic-School/?utm_source=GSAPI&utm_medium=referral#Reviews,https://www.greatschools.org/washington-dc/washington/169-Holy-Trinity-Catholic-School/?utm_source=GSAPI&utm_medium=referral,,,,,20007
56,603,Hope Community PCS - Tolson,charter,PK-8,432.0,3.0,Washington,DC,"2917 8th Street Northeast, 
Washington, DC  20017",(202) 832-7370,(202) 832-7644,http://www.hopecommunitycs.org,110005100386,38.927048,-76.99464,https://www.greatschools.org/washington-dc/washington/603-Hope-Community-PCS---Tolson/?utm_source=GSAPI&utm_medium=referral,https://www.greatschools.org/washington-dc/washington/603-Hope-Community-PCS---Tolson/?utm_source=GSAPI&utm_medium=referral,https://www.greatschools.org/washington-dc/washington/603-Hope-Community-PCS---Tolson/?utm_source=GSAPI&utm_medium=referral#Reviews,https://www.greatschools.org/washington-dc/washington/603-Hope-Community-PCS---Tolson/?utm_source=GSAPI&utm_medium=referral,4.0,83.0,Hope Community Academy Pcs,1100051.0,20017
57,383,Howard University Middle School PCS,charter,6-8,266.0,2.0,Washington,DC,"405 Howard Place Northwest, 
Washington, DC  20059",(202) 806-7725,,http://www.howard.edu/ms2,110005800308,38.92285,-77.018875,https://www.greatschools.org/washington-dc/washington/383-Howard-University-Middle-School-PCS/?utm_source=GSAPI&utm_medium=referral,https://www.greatschools.org/washington-dc/washington/383-Howard-University-Middle-School-PCS/?utm_source=GSAPI&utm_medium=referral,https://www.greatschools.org/washington-dc/washington/383-Howard-University-Middle-School-PCS/?utm_source=GSAPI&utm_medium=referral#Reviews,https://www.greatschools.org/washington-dc/washington/383-Howard-University-Middle-School-PCS/?utm_source=GSAPI&utm_medium=referral,6.0,86.0,Howard University Middle School Of Math And Science,1100058.0,20059
58,1223,IQRA Prep Academy,private,K-12,160.0,,Washington,DC,"1050 Connecticut Ave NW, 
Washington, DC  20035",(202) 659-4772,(202) 446-0893,www.iqraprepacademy.com,,38.903385,-77.04083,https://www.greatschools.org/washington-dc/washington/1223-IQRA-Prep-Academy/?utm_source=GSAPI&utm_medium=referral,https://www.greatschools.org/washington-dc/washington/1223-IQRA-Prep-Academy/?utm_source=GSAPI&utm_medium=referral,https://www.greatschools.org/washington-dc/washington/1223-IQRA-Prep-Academy/?utm_source=GSAPI&utm_medium=referral#Reviews,https://www.greatschools.org/washington-dc/washington/1223-IQRA-Prep-Academy/?utm_source=GSAPI&utm_medium=referral,,,,,20035
59,259,Ideal Academy PCS,charter,PK-8,280.0,3.0,Washington,DC,"6130 North Capitol Street Northwest, 
Washington, DC  20011",(202) 729-6660,(202) 729-6677,http://www.iapcs.com,110001200401,38.965076,-77.01008,https://www.greatschools.org/washington-dc/washington/259-Ideal-Academy-PCS/?utm_source=GSAPI&utm_medium=referral,https://www.greatschools.org/washington-dc/washington/259-Ideal-Academy-PCS/?utm_source=GSAPI&utm_medium=referral,https://www.greatschools.org/washington-dc/washington/259-Ideal-Academy-PCS/?utm_source=GSAPI&utm_medium=referral#Reviews,https://www.greatschools.org/washington-dc/washington/259-Ideal-Academy-PCS/?utm_source=GSAPI&utm_medium=referral,3.0,89.0,Ideal Academy Pcs,1100012.0,20011
60,839,Inspired Teaching Demonstration PCS,charter,PK-8,470.0,4.0,Washington,DC,"200 Douglas Street NE, 
Washington, DC  20002",(202) 248-6825,(202) 248-6939,www.inspiredteachingschool.org,110008000437,38.923676,-77.002785,https://www.greatschools.org/washington-dc/washington/839-Inspired-Teaching-Demonstration-PCS/?utm_source=GSAPI&utm_medium=referral,https://www.greatschools.org/washington-dc/washington/839-Inspired-Teaching-Demonstration-PCS/?utm_source=GSAPI&utm_medium=referral,https://www.greatschools.org/washington-dc/washington/839-Inspired-Teaching-Demonstration-PCS/?utm_source=GSAPI&utm_medium=referral#Reviews,https://www.greatschools.org/washington-dc/washington/839-Inspired-Teaching-Demonstration-PCS/?utm_source=GSAPI&utm_medium=referral,8.0,121.0,Inspired Teaching Demonstration Pcs,1100080.0,20002
61,853,Jefferson Middle School Academy,public,6-8,89.0,5.0,Washington,DC,"801 7th Street Southwest, 
Washington, DC  20024",(202) 729-3270,(202) 724-2459,http://www.dcps.dc.gov,110003000453,38.879883,-77.022934,https://www.greatschools.org/washington-dc/washington/853-Jefferson-Middle-School-Academy/?utm_source=GSAPI&utm_medium=referral,https://www.greatschools.org/washington-dc/washington/853-Jefferson-Middle-School-Academy/?utm_source=GSAPI&utm_medium=referral,https://www.greatschools.org/washington-dc/washington/853-Jefferson-Middle-School-Academy/?utm_source=GSAPI&utm_medium=referral#Reviews,https://www.greatschools.org/washington-dc/washington/853-Jefferson-Middle-School-Academy/?utm_source=GSAPI&utm_medium=referral,6.0,1.0,District Of Columbia Public Schools,1100030.0,20024
62,112,Johnson Middle School,public,6-8,291.0,1.0,Washington,DC,"1400 Bruce Place Southeast, 
Washington, DC  20020",(202) 939-3140,(202) 645-5882,http://www.dcps.dc.gov,110003000144,38.85086,-76.98384,https://www.greatschools.org/washington-dc/washington/112-Johnson-Middle-School/?utm_source=GSAPI&utm_medium=referral,https://www.greatschools.org/washington-dc/washington/112-Johnson-Middle-School/?utm_source=GSAPI&utm_medium=referral,https://www.greatschools.org/washington-dc/washington/112-Johnson-Middle-School/?utm_source=GSAPI&utm_medium=referral#Reviews,https://www.greatschools.org/washington-dc/washington/112-Johnson-Middle-School/?utm_source=GSAPI&utm_medium=referral,2.0,1.0,District Of Columbia Public Schools,1100030.0,20020
63,564,KIPP DC  WILL Academy - PCS,charter,5-8,327.0,5.0,Washington,DC,"421 P Street Northwest, 
Washington, DC  20001",(202) 328-9455,,http://www.kippdc.org,110003100376,38.909943,-77.01813,https://www.greatschools.org/washington-dc/washington/564-KIPP-DC--WILL-Academy---PCS/?utm_source=GSAPI&utm_medium=referral,https://www.greatschools.org/washington-dc/washington/564-KIPP-DC--WILL-Academy---PCS/?utm_source=GSAPI&utm_medium=referral,https://www.greatschools.org/washington-dc/washington/564-KIPP-DC--WILL-Academy---PCS/?utm_source=GSAPI&utm_medium=referral#Reviews,https://www.greatschools.org/washington-dc/washington/564-KIPP-DC--WILL-Academy---PCS/?utm_source=GSAPI&utm_medium=referral,5.0,91.0,KIPP DC,1100031.0,20001
64,359,KIPP DC AIM Academy - PCS,charter,5-8,365.0,4.0,Washington,DC,"2600 Douglass Road Southeast, 
Washington, DC  20020",(202) 678-5477,(202) 678-4383,http://www.kippdc.org,110003100381,38.856335,-76.98864,https://www.greatschools.org/washington-dc/washington/359-KIPP-DC-AIM-Academy---PCS/?utm_source=GSAPI&utm_medium=referral,https://www.greatschools.org/washington-dc/washington/359-KIPP-DC-AIM-Academy---PCS/?utm_source=GSAPI&utm_medium=referral,https://www.greatschools.org/washington-dc/washington/359-KIPP-DC-AIM-Academy---PCS/?utm_source=GSAPI&utm_medium=referral#Reviews,https://www.greatschools.org/washington-dc/washington/359-KIPP-DC-AIM-Academy---PCS/?utm_source=GSAPI&utm_medium=referral,7.0,91.0,KIPP DC,1100031.0,20020
65,610,KIPP DC KEY Academy - PCS,charter,5-8,327.0,3.0,Washington,DC,"4801 Benning Road Southeast, 
Washington, DC  20019",(202) 582-5477,,http://www.kippdc.org,110003100246,38.88251,-76.934326,https://www.greatschools.org/washington-dc/washington/610-KIPP-DC-KEY-Academy---PCS/?utm_source=GSAPI&utm_medium=referral,https://www.greatschools.org/washington-dc/washington/610-KIPP-DC-KEY-Academy---PCS/?utm_source=GSAPI&utm_medium=referral,https://www.greatschools.org/washington-dc/washington/610-KIPP-DC-KEY-Academy---PCS/?utm_source=GSAPI&utm_medium=referral#Reviews,https://www.greatschools.org/washington-dc/washington/610-KIPP-DC-KEY-Academy---PCS/?utm_source=GSAPI&utm_medium=referral,7.0,91.0,KIPP DC,1100031.0,20019
66,1228,KIPP DC Northeast Academy PCS,charter,5-8,327.0,,Washington,DC,"1375 Mount Olivet Road Northeast, 
Washington, DC  20002",(202) 398-5477,,http://www.kippdc.org,110003100487,38.907833,-76.98078,https://www.greatschools.org/washington-dc/washington/1228-KIPP-DC-Northeast-Academy-PCS/?utm_source=GSAPI&utm_medium=referral,https://www.greatschools.org/washington-dc/washington/1228-KIPP-DC-Northeast-Academy-PCS/?utm_source=GSAPI&utm_medium=referral,https://www.greatschools.org/washington-dc/washington/1228-KIPP-DC-Northeast-Academy-PCS/?utm_source=GSAPI&utm_medium=referral#Reviews,https://www.greatschools.org/washington-dc/washington/1228-KIPP-DC-Northeast-Academy-PCS/?utm_source=GSAPI&utm_medium=referral,7.0,91.0,KIPP DC,1100031.0,20002
67,1239,KIPP DC Valor Academy PCS,charter,5-7,,,Washington,DC,"5300 Blaine Street Northeast, 
Washington, DC  20019",(202) 397-5477,,http://www.kippdc.org,110003100486,38.892258,-76.9247,https://www.greatschools.org/washington-dc/washington/1239-KIPP-DC-Valor-Academy-PCS/?utm_source=GSAPI&utm_medium=referral,https://www.greatschools.org/washington-dc/washington/1239-KIPP-DC-Valor-Academy-PCS/?utm_source=GSAPI&utm_medium=referral,https://www.greatschools.org/washington-dc/washington/1239-KIPP-DC-Valor-Academy-PCS/?utm_source=GSAPI&utm_medium=referral#Reviews,https://www.greatschools.org/washington-dc/washington/1239-KIPP-DC-Valor-Academy-PCS/?utm_source=GSAPI&utm_medium=referral,5.0,91.0,KIPP DC,1100031.0,20019
68,366,Kelly Miller Middle School,public,6-8,450.0,3.0,Washington,DC,"301 49th Street Northeast, 
Washington, DC  20019",(202) 388-6870,(202) 727-8330,http://www.dcps.dc.gov,110003000272,38.8935,-76.93217,https://www.greatschools.org/washington-dc/washington/366-Kelly-Miller-Middle-School/?utm_source=GSAPI&utm_medium=referral,https://www.greatschools.org/washington-dc/washington/366-Kelly-Miller-Middle-School/?utm_source=GSAPI&utm_medium=referral,https://www.greatschools.org/washington-dc/washington/366-Kelly-Miller-Middle-School/?utm_source=GSAPI&utm_medium=referral#Reviews,https://www.greatschools.org/washington-dc/washington/366-Kelly-Miller-Middle-School/?utm_source=GSAPI&utm_medium=referral,4.0,1.0,District Of Columbia Public Schools,1100030.0,20019
69,357,Kendall Demonstration Elementary School,private,PK-8,94.0,3.0,Washington,DC,"800 Florida Ave NE, 
Washington, DC  20002",(202) 651-5397,,www.gallaudet.edu,A9101622,38.9053,-76.99616,https://www.greatschools.org/washington-dc/washington/357-Kendall-Demonstration-Elementary-School/?utm_source=GSAPI&utm_medium=referral,https://www.greatschools.org/washington-dc/washington/357-Kendall-Demonstration-Elementary-School/?utm_source=GSAPI&utm_medium=referral,https://www.greatschools.org/washington-dc/washington/357-Kendall-Demonstration-Elementary-School/?utm_source=GSAPI&utm_medium=referral#Reviews,https://www.greatschools.org/washington-dc/washington/357-Kendall-Demonstration-Elementary-School/?utm_source=GSAPI&utm_medium=referral,,,,,20002
70,393,Kennedy School,private,n/a,45.0,,Washington,DC,"801 Buchanan Street Northeast, 
Washington, DC  20017",(202) 281-2700,,,A0500914,38.945595,-76.99362,https://www.greatschools.org/washington-dc/washington/393-Kennedy-School/?utm_source=GSAPI&utm_medium=referral,https://www.greatschools.org/washington-dc/washington/393-Kennedy-School/?utm_source=GSAPI&utm_medium=referral,https://www.greatschools.org/washington-dc/washington/393-Kennedy-School/?utm_source=GSAPI&utm_medium=referral#Reviews,https://www.greatschools.org/washington-dc/washington/393-Kennedy-School/?utm_source=GSAPI&utm_medium=referral,,,,,20017
71,303,Kingsbury Day School,private,PK-12,100.0,4.0,Washington,DC,"5000 14th Street NW, 
Washington, DC  20011",(202) 722-5555,(202) 722-5531,www.kingsbury.org,A9101623,38.950836,-77.03472,https://www.greatschools.org/washington-dc/washington/303-Kingsbury-Day-School/?utm_source=GSAPI&utm_medium=referral,https://www.greatschools.org/washington-dc/washington/303-Kingsbury-Day-School/?utm_source=GSAPI&utm_medium=referral,https://www.greatschools.org/washington-dc/washington/303-Kingsbury-Day-School/?utm_source=GSAPI&utm_medium=referral#Reviews,https://www.greatschools.org/washington-dc/washington/303-Kingsbury-Day-School/?utm_source=GSAPI&utm_medium=referral,,,,,20011
72,1236,Kingsman Academy PCS,charter,6-12,,,Washington,DC,"1375 E Street Northeast, 
Washington, DC  20002",(202) 547-1028,,http://www.kingsmanacademy.org,110009900502,38.895782,-76.98636,https://www.greatschools.org/washington-dc/washington/1236-Kingsman-Academy-PCS/?utm_source=GSAPI&utm_medium=referral,https://www.greatschools.org/washington-dc/washington/1236-Kingsman-Academy-PCS/?utm_source=GSAPI&utm_medium=referral,https://www.greatschools.org/washington-dc/washington/1236-Kingsman-Academy-PCS/?utm_source=GSAPI&utm_medium=referral#Reviews,https://www.greatschools.org/washington-dc/washington/1236-Kingsman-Academy-PCS/?utm_source=GSAPI&utm_medium=referral,,136.0,Kingsman Academy PCS,,20002
73,229,Kirov Academy of Ballet,private,7-12,85.0,4.0,Washington,DC,"4301 Harewood Rd NE, 
Washington, DC  20017",(202) 832-1087,,http://www.kirovacademydc.org,A9501063,38.942307,-77.00653,https://www.greatschools.org/washington-dc/washington/229-Kirov-Academy-Of-Ballet/?utm_source=GSAPI&utm_medium=referral,https://www.greatschools.org/washington-dc/washington/229-Kirov-Academy-Of-Ballet/?utm_source=GSAPI&utm_medium=referral,https://www.greatschools.org/washington-dc/washington/229-Kirov-Academy-Of-Ballet/?utm_source=GSAPI&utm_medium=referral#Reviews,https://www.greatschools.org/washington-dc/washington/229-Kirov-Academy-Of-Ballet/?utm_source=GSAPI&utm_medium=referral,,,,,20017
74,111,Kramer Middle School,public,6-8,247.0,2.0,Washington,DC,"1700 Q Street Southeast, 
Washington, DC  20020",(202) 939-3150,,http://www.dcps.dc.gov,110003000143,38.87117,-76.98024,https://www.greatschools.org/washington-dc/washington/111-Kramer-Middle-School/?utm_source=GSAPI&utm_medium=referral,https://www.greatschools.org/washington-dc/washington/111-Kramer-Middle-School/?utm_source=GSAPI&utm_medium=referral,https://www.greatschools.org/washington-dc/washington/111-Kramer-Middle-School/?utm_source=GSAPI&utm_medium=referral#Reviews,https://www.greatschools.org/washington-dc/washington/111-Kramer-Middle-School/?utm_source=GSAPI&utm_medium=referral,1.0,1.0,District Of Columbia Public Schools,1100030.0,20020
75,352,Kuumba Learning Center,private,PK-10,120.0,4.0,Washington,DC,"3328 Martin Luther King Junior Avenue Southeast Washington DC 20032, 
Washington, DC  20032",(202) 563-5971,(202) 563-3363,www.kuumbaprep.org,A0307372,38.842052,-77.00259,https://www.greatschools.org/washington-dc/washington/352-Kuumba-Learning-Center/?utm_source=GSAPI&utm_medium=referral,https://www.greatschools.org/washington-dc/washington/352-Kuumba-Learning-Center/?utm_source=GSAPI&utm_medium=referral,https://www.greatschools.org/washington-dc/washington/352-Kuumba-Learning-Center/?utm_source=GSAPI&utm_medium=referral#Reviews,https://www.greatschools.org/washington-dc/washington/352-Kuumba-Learning-Center/?utm_source=GSAPI&utm_medium=referral,,,,,20032
76,322,Lab School of Washington - Reservoir Campus,private,1-12,355.0,4.0,Washington,DC,"4759 Reservoir Road NW, 
Washington, DC  20007",(202) 965-6600,,,02016176,38.914944,-77.09271,https://www.greatschools.org/washington-dc/washington/322-Lab-School-Of-Washington---Reservoir-Campus/?utm_source=GSAPI&utm_medium=referral,https://www.greatschools.org/washington-dc/washington/322-Lab-School-Of-Washington---Reservoir-Campus/?utm_source=GSAPI&utm_medium=referral,https://www.greatschools.org/washington-dc/washington/322-Lab-School-Of-Washington---Reservoir-Campus/?utm_source=GSAPI&utm_medium=referral#Reviews,https://www.greatschools.org/washington-dc/washington/322-Lab-School-Of-Washington---Reservoir-Campus/?utm_source=GSAPI&utm_medium=referral,,,,,20007
77,33,Lasalle Backus Education Campus,public,PK-8,288.0,1.0,Washington,DC,"501 Riggs Road Northeast, 
Washington, DC  20011",(202) 671-6340,(202) 541-3859,http://www.dcps.dc.gov,110003000042,38.959915,-76.99981,https://www.greatschools.org/washington-dc/washington/33-Lasalle-Backus-Education-Campus/?utm_source=GSAPI&utm_medium=referral,https://www.greatschools.org/washington-dc/washington/33-Lasalle-Backus-Education-Campus/?utm_source=GSAPI&utm_medium=referral,https://www.greatschools.org/washington-dc/washington/33-Lasalle-Backus-Education-Campus/?utm_source=GSAPI&utm_medium=referral#Reviews,https://www.greatschools.org/washington-dc/washington/33-Lasalle-Backus-Education-Campus/?utm_source=GSAPI&utm_medium=referral,5.0,1.0,District Of Columbia Public Schools,1100030.0,20011
78,32,Leckie Elementary School,public,PK-7,420.0,4.0,Washington,DC,"4201 Martin Luther King Junior Avenue Southwest, 
Washington, DC  20032",(202) 645-3330,(202) 645-4138,http://www.dcps.dc.gov,110003000041,38.828117,-77.013306,https://www.greatschools.org/washington-dc/washington/32-Leckie-Elementary-School/?utm_source=GSAPI&utm_medium=referral,https://www.greatschools.org/washington-dc/washington/32-Leckie-Elementary-School/?utm_source=GSAPI&utm_medium=referral,https://www.greatschools.org/washington-dc/washington/32-Leckie-Elementary-School/?utm_source=GSAPI&utm_medium=referral#Reviews,https://www.greatschools.org/washington-dc/washington/32-Leckie-Elementary-School/?utm_source=GSAPI&utm_medium=referral,4.0,1.0,District Of Columbia Public Schools,1100030.0,20032
79,217,Lowell School,private,PK-8,340.0,5.0,Washington,DC,"1640 Kalmia Rd NW, 
Washington, DC  20012",(202) 577-2000,(202) 577-2001,http://www.lowellschool.org,A9101627,38.986084,-77.03897,https://www.greatschools.org/washington-dc/washington/217-Lowell-School/?utm_source=GSAPI&utm_medium=referral,https://www.greatschools.org/washington-dc/washington/217-Lowell-School/?utm_source=GSAPI&utm_medium=referral,https://www.greatschools.org/washington-dc/washington/217-Lowell-School/?utm_source=GSAPI&utm_medium=referral#Reviews,https://www.greatschools.org/washington-dc/washington/217-Lowell-School/?utm_source=GSAPI&utm_medium=referral,,,,,20012
80,110,MacFarland Middle School,public,6,155.0,4.0,Washington,DC,"4400 Iowa Avenue Northwest, 
Washington, DC  20011",(202) 576-6130,(202) 576-6212,http://dcpsplanning.wordpress.com/category/macfarland/,110003000511,38.94353,-77.027885,https://www.greatschools.org/washington-dc/washington/110-MacFarland-Middle-School/?utm_source=GSAPI&utm_medium=referral,https://www.greatschools.org/washington-dc/washington/110-MacFarland-Middle-School/?utm_source=GSAPI&utm_medium=referral,https://www.greatschools.org/washington-dc/washington/110-MacFarland-Middle-School/?utm_source=GSAPI&utm_medium=referral#Reviews,https://www.greatschools.org/washington-dc/washington/110-MacFarland-Middle-School/?utm_source=GSAPI&utm_medium=referral,4.0,1.0,District Of Columbia Public Schools,1100030.0,20011
81,193,Maret School,private,K-12,635.0,4.0,Washington,DC,"3000 Cathedral Ave NW, 
Washington, DC  20008",(202) 939-8800,(202) 939-8845,http://www.maret.org,00253448,38.928223,-77.06042,https://www.greatschools.org/washington-dc/washington/193-Maret-School/?utm_source=GSAPI&utm_medium=referral,https://www.greatschools.org/washington-dc/washington/193-Maret-School/?utm_source=GSAPI&utm_medium=referral,https://www.greatschools.org/washington-dc/washington/193-Maret-School/?utm_source=GSAPI&utm_medium=referral#Reviews,https://www.greatschools.org/washington-dc/washington/193-Maret-School/?utm_source=GSAPI&utm_medium=referral,,,,,20008
82,565,Mary McLeod Bethune Day Academy PCS,charter,PK-8,366.0,3.0,Washington,DC,"1404 Jackson Street Northeast, 
Washington, DC  20017",(202) 459-4710,(202) 318-7588,http://www.mmbethune.org,110004400275,38.92957,-76.98633,https://www.greatschools.org/washington-dc/washington/565-Mary-McLeod-Bethune-Day-Academy-PCS/?utm_source=GSAPI&utm_medium=referral,https://www.greatschools.org/washington-dc/washington/565-Mary-McLeod-Bethune-Day-Academy-PCS/?utm_source=GSAPI&utm_medium=referral,https://www.greatschools.org/washington-dc/washington/565-Mary-McLeod-Bethune-Day-Academy-PCS/?utm_source=GSAPI&utm_medium=referral#Reviews,https://www.greatschools.org/washington-dc/washington/565-Mary-McLeod-Bethune-Day-Academy-PCS/?utm_source=GSAPI&utm_medium=referral,3.0,93.0,Mary Mcleod Bethune Pcs,1100044.0,20017
83,913,Maya Angelou PCS - Young Adult Learning Center,charter,n/a,,,Washington,DC,"5600 East Capitol Street,  NE, 
Washington, DC  20019",,,www.seeforever.org,,38.88983,-76.92069,https://www.greatschools.org/washington-dc/washington/913-Maya-Angelou-PCS---Young-Adult-Learning-Center/?utm_source=GSAPI&utm_medium=referral,https://www.greatschools.org/washington-dc/washington/913-Maya-Angelou-PCS---Young-Adult-Learning-Center/?utm_source=GSAPI&utm_medium=referral,https://www.greatschools.org/washington-dc/washington/913-Maya-Angelou-PCS---Young-Adult-Learning-Center/?utm_source=GSAPI&utm_medium=referral#Reviews,https://www.greatschools.org/washington-dc/washington/913-Maya-Angelou-PCS---Young-Adult-Learning-Center/?utm_source=GSAPI&utm_medium=referral,,94.0,Maya Angelou Pcs,1100014.0,20019
84,1215,Mckinley Middle School,public,6-8,,,Washington,DC,"151 T Street Northeast, 
Washington, DC  20002",(202) 281-3950,,http://www.dcps.dc.gov,110003000470,38.914562,-77.00489,https://www.greatschools.org/washington-dc/washington/1215-Mckinley-Middle-School/?utm_source=GSAPI&utm_medium=referral,https://www.greatschools.org/washington-dc/washington/1215-Mckinley-Middle-School/?utm_source=GSAPI&utm_medium=referral,https://www.greatschools.org/washington-dc/washington/1215-Mckinley-Middle-School/?utm_source=GSAPI&utm_medium=referral#Reviews,https://www.greatschools.org/washington-dc/washington/1215-Mckinley-Middle-School/?utm_source=GSAPI&utm_medium=referral,4.0,1.0,District Of Columbia Public Schools,1100030.0,20002
85,262,Meridian PCS,charter,PK-8,567.0,3.0,Washington,DC,"2120 13th Street Northwest, 
Washington, DC  20009",(202) 387-9830,(202) 238-0036,http://mpcs.learningstation.com/school,110001500229,38.918556,-77.02995,https://www.greatschools.org/washington-dc/washington/262-Meridian-PCS/?utm_source=GSAPI&utm_medium=referral,https://www.greatschools.org/washington-dc/washington/262-Meridian-PCS/?utm_source=GSAPI&utm_medium=referral,https://www.greatschools.org/washington-dc/washington/262-Meridian-PCS/?utm_source=GSAPI&utm_medium=referral#Reviews,https://www.greatschools.org/washington-dc/washington/262-Meridian-PCS/?utm_source=GSAPI&utm_medium=referral,5.0,96.0,Meridian Pcs,1100015.0,20009
86,1237,Monument Academy PCS,charter,5-6,,,Washington,DC,"500 19th Street Northeast, 
Washington, DC  20002",(202) 770-6361,,http://www.monumentacademy.org/,110010000500,38.896667,-76.97749,https://www.greatschools.org/washington-dc/washington/1237-Monument-Academy-PCS/?utm_source=GSAPI&utm_medium=referral,https://www.greatschools.org/washington-dc/washington/1237-Monument-Academy-PCS/?utm_source=GSAPI&utm_medium=referral,https://www.greatschools.org/washington-dc/washington/1237-Monument-Academy-PCS/?utm_source=GSAPI&utm_medium=referral#Reviews,https://www.greatschools.org/washington-dc/washington/1237-Monument-Academy-PCS/?utm_source=GSAPI&utm_medium=referral,1.0,134.0,Monument Academy PCS,,20002
87,579,Muhammad University of Islam,private,PK-12,53.0,,Washington,DC,"1615 Kenilworth Avenue, NE, 
Washington, DC  20019",(202) 399-2879,(202) 399-2879,,,38.91142,-76.93408,https://www.greatschools.org/washington-dc/washington/579-Muhammad-University-Of-Islam/?utm_source=GSAPI&utm_medium=referral,https://www.greatschools.org/washington-dc/washington/579-Muhammad-University-Of-Islam/?utm_source=GSAPI&utm_medium=referral,https://www.greatschools.org/washington-dc/washington/579-Muhammad-University-Of-Islam/?utm_source=GSAPI&utm_medium=referral#Reviews,https://www.greatschools.org/washington-dc/washington/579-Muhammad-University-Of-Islam/?utm_source=GSAPI&utm_medium=referral,,,,,20019
88,221,National Cathedral School,private,4-12,582.0,4.0,Washington,DC,"Mount Saint Alban, 
Washington, DC  20016",(202) 537-6374,(202) 537-2382,,A9300244,38.930668,-77.07053,https://www.greatschools.org/washington-dc/washington/221-National-Cathedral-School/?utm_source=GSAPI&utm_medium=referral,https://www.greatschools.org/washington-dc/washington/221-National-Cathedral-School/?utm_source=GSAPI&utm_medium=referral,https://www.greatschools.org/washington-dc/washington/221-National-Cathedral-School/?utm_source=GSAPI&utm_medium=referral#Reviews,https://www.greatschools.org/washington-dc/washington/221-National-Cathedral-School/?utm_source=GSAPI&utm_medium=referral,,,,,20016
89,311,National Children's Center,private,n/a,40.0,,Washington,DC,"6200 2nd Street Northwest, 
Washington, DC  20011",(202) 722-2319,,,A0101694,38.965435,-77.01451,https://www.greatschools.org/washington-dc/washington/311-National-Children's-Center/?utm_source=GSAPI&utm_medium=referral,https://www.greatschools.org/washington-dc/washington/311-National-Children's-Center/?utm_source=GSAPI&utm_medium=referral,https://www.greatschools.org/washington-dc/washington/311-National-Children's-Center/?utm_source=GSAPI&utm_medium=referral#Reviews,https://www.greatschools.org/washington-dc/washington/311-National-Children's-Center/?utm_source=GSAPI&utm_medium=referral,,,,,20011
90,581,National Children's Center - NW Campus Ages 6-22,private,1-12,25.0,5.0,Washington,DC,"201 Rittenhouse St., NW, 
Washington, DC  20001",(202) 722-2319,,www.nccinc.org,,38.964985,-77.013725,https://www.greatschools.org/washington-dc/washington/581-National-Children's-Center---NW-Campus-Ages-6-22/?utm_source=GSAPI&utm_medium=referral,https://www.greatschools.org/washington-dc/washington/581-National-Children's-Center---NW-Campus-Ages-6-22/?utm_source=GSAPI&utm_medium=referral,https://www.greatschools.org/washington-dc/washington/581-National-Children's-Center---NW-Campus-Ages-6-22/?utm_source=GSAPI&utm_medium=referral#Reviews,https://www.greatschools.org/washington-dc/washington/581-National-Children's-Center---NW-Campus-Ages-6-22/?utm_source=GSAPI&utm_medium=referral,,,,,20001
91,571,National Children's Center - SE Campus Ages 6-22,private,1-12,25.0,2.0,Washington,DC,"3400 Martin Luther King, 
Washington, DC  20032",(202) 561-7280,(202) 561-7284,www.nccinc.org/,A0770704,38.841328,-77.00283,https://www.greatschools.org/washington-dc/washington/571-National-Children's-Center---SE-Campus-Ages-6-22/?utm_source=GSAPI&utm_medium=referral,https://www.greatschools.org/washington-dc/washington/571-National-Children's-Center---SE-Campus-Ages-6-22/?utm_source=GSAPI&utm_medium=referral,https://www.greatschools.org/washington-dc/washington/571-National-Children's-Center---SE-Campus-Ages-6-22/?utm_source=GSAPI&utm_medium=referral#Reviews,https://www.greatschools.org/washington-dc/washington/571-National-Children's-Center---SE-Campus-Ages-6-22/?utm_source=GSAPI&utm_medium=referral,,,,,20032
92,195,Naylor Road School,private,K-8,108.0,4.0,Washington,DC,"2403 Naylor Road Southeast, 
Washington, DC  20020",(202) 584-5114,,,00253539,38.86913,-76.97263,https://www.greatschools.org/washington-dc/washington/195-Naylor-Road-School/?utm_source=GSAPI&utm_medium=referral,https://www.greatschools.org/washington-dc/washington/195-Naylor-Road-School/?utm_source=GSAPI&utm_medium=referral,https://www.greatschools.org/washington-dc/washington/195-Naylor-Road-School/?utm_source=GSAPI&utm_medium=referral#Reviews,https://www.greatschools.org/washington-dc/washington/195-Naylor-Road-School/?utm_source=GSAPI&utm_medium=referral,,,,,20020
93,170,Our Lady of Victory School,private,PK-8,226.0,4.0,Washington,DC,"4755 Whitehaven Parkway, 
Washington, DC  20007",(202) 337-1421,(202) 337-2068,www.olvschooldc.net,00252739,38.915936,-77.09451,https://www.greatschools.org/washington-dc/washington/170-Our-Lady-Of-Victory-School/?utm_source=GSAPI&utm_medium=referral,https://www.greatschools.org/washington-dc/washington/170-Our-Lady-Of-Victory-School/?utm_source=GSAPI&utm_medium=referral,https://www.greatschools.org/washington-dc/washington/170-Our-Lady-Of-Victory-School/?utm_source=GSAPI&utm_medium=referral#Reviews,https://www.greatschools.org/washington-dc/washington/170-Our-Lady-Of-Victory-School/?utm_source=GSAPI&utm_medium=referral,,,,,20007
94,189,Owl School,private,PK-8,,5.0,Washington,DC,"1920 G Street Northwest, 
Washington, DC  20006",(202) 828-1001,,http://www.theowlschool.com/services,00253404,38.898197,-77.0447,https://www.greatschools.org/washington-dc/washington/189-Owl-School/?utm_source=GSAPI&utm_medium=referral,https://www.greatschools.org/washington-dc/washington/189-Owl-School/?utm_source=GSAPI&utm_medium=referral,https://www.greatschools.org/washington-dc/washington/189-Owl-School/?utm_source=GSAPI&utm_medium=referral#Reviews,https://www.greatschools.org/washington-dc/washington/189-Owl-School/?utm_source=GSAPI&utm_medium=referral,,,,,20006
95,126,Oyster-Adams Bilingual School,public,PK-8,668.0,3.0,Washington,DC,"2801 Calvert Street Northwest, 
Washington, DC  20008",(202) 671-6130,,http://www.dcps.dc.gov,110003000160,38.923626,-77.05721,https://www.greatschools.org/washington-dc/washington/126-Oyster-Adams-Bilingual-School/?utm_source=GSAPI&utm_medium=referral,https://www.greatschools.org/washington-dc/washington/126-Oyster-Adams-Bilingual-School/?utm_source=GSAPI&utm_medium=referral,https://www.greatschools.org/washington-dc/washington/126-Oyster-Adams-Bilingual-School/?utm_source=GSAPI&utm_medium=referral#Reviews,https://www.greatschools.org/washington-dc/washington/126-Oyster-Adams-Bilingual-School/?utm_source=GSAPI&utm_medium=referral,9.0,1.0,District Of Columbia Public Schools,1100030.0,20008
96,224,Parkmont School,private,6-12,65.0,4.0,Washington,DC,"4842 16th Street NW, 
Washington, DC  20011",(202) 726-0740,(202) 726-0748,http://www.parkmont.org,A9302646,38.949852,-77.03681,https://www.greatschools.org/washington-dc/washington/224-Parkmont-School/?utm_source=GSAPI&utm_medium=referral,https://www.greatschools.org/washington-dc/washington/224-Parkmont-School/?utm_source=GSAPI&utm_medium=referral,https://www.greatschools.org/washington-dc/washington/224-Parkmont-School/?utm_source=GSAPI&utm_medium=referral#Reviews,https://www.greatschools.org/washington-dc/washington/224-Parkmont-School/?utm_source=GSAPI&utm_medium=referral,,,,,20011
97,286,Paul PCS,charter,6-8,232.0,4.0,Washington,DC,"5800 8th Street Northwest, 
Washington, DC  20011",(202) 291-7499,(202) 291-7495,http://www.paulcharter.org,110003900257,38.96142,-77.02487,https://www.greatschools.org/washington-dc/washington/286-Paul-PCS/?utm_source=GSAPI&utm_medium=referral,https://www.greatschools.org/washington-dc/washington/286-Paul-PCS/?utm_source=GSAPI&utm_medium=referral,https://www.greatschools.org/washington-dc/washington/286-Paul-PCS/?utm_source=GSAPI&utm_medium=referral#Reviews,https://www.greatschools.org/washington-dc/washington/286-Paul-PCS/?utm_source=GSAPI&utm_medium=referral,4.0,99.0,Paul Public Charter School,1100039.0,20011
98,258,Perry Street Prep PCS,charter,PK-8,350.0,4.0,Washington,DC,"1800 Perry Street Northeast, 
Washington, DC  20018",(202) 529-4400,(202) 526-2214,www.pspdc.org,110001100225,38.93617,-76.97983,https://www.greatschools.org/washington-dc/washington/258-Perry-Street-Prep-PCS/?utm_source=GSAPI&utm_medium=referral,https://www.greatschools.org/washington-dc/washington/258-Perry-Street-Prep-PCS/?utm_source=GSAPI&utm_medium=referral,https://www.greatschools.org/washington-dc/washington/258-Perry-Street-Prep-PCS/?utm_source=GSAPI&utm_medium=referral#Reviews,https://www.greatschools.org/washington-dc/washington/258-Perry-Street-Prep-PCS/?utm_source=GSAPI&utm_medium=referral,4.0,87.0,Perry Street Preparatory Pcs,1100011.0,20018
99,231,Preparatory School of the District of Columbia,private,PK-12,100.0,3.0,Washington,DC,"209 Upshur Street NW, 
Washington, DC  20010",(202) 722-5080,(202) 722-5060,http://thepreparatoryschoolofdc.webs.com/,A9501074,38.942528,-77.01409,https://www.greatschools.org/washington-dc/washington/231-Preparatory-School-Of-The-District-Of-Columbia/?utm_source=GSAPI&utm_medium=referral,https://www.greatschools.org/washington-dc/washington/231-Preparatory-School-Of-The-District-Of-Columbia/?utm_source=GSAPI&utm_medium=referral,https://www.greatschools.org/washington-dc/washington/231-Preparatory-School-Of-The-District-Of-Columbia/?utm_source=GSAPI&utm_medium=referral#Reviews,https://www.greatschools.org/washington-dc/washington/231-Preparatory-School-Of-The-District-Of-Columbia/?utm_source=GSAPI&utm_medium=referral,,,,,20010
100,1014,Psychiatric Inst Of Washington (Sped),private,PK-11,49.0,,Washington,DC,"4228 Wisconsin Avenue Northwest, 
Washington, DC  20016",(202) 885-5720,,,A0900748,38.943893,-77.07807,https://www.greatschools.org/washington-dc/washington/1014-Psychiatric-Inst-Of-Washington-(Sped)/?utm_source=GSAPI&utm_medium=referral,https://www.greatschools.org/washington-dc/washington/1014-Psychiatric-Inst-Of-Washington-(Sped)/?utm_source=GSAPI&utm_medium=referral,https://www.greatschools.org/washington-dc/washington/1014-Psychiatric-Inst-Of-Washington-(Sped)/?utm_source=GSAPI&utm_medium=referral#Reviews,https://www.greatschools.org/washington-dc/washington/1014-Psychiatric-Inst-Of-Washington-(Sped)/?utm_source=GSAPI&utm_medium=referral,,,,,20016
101,27,Raymond Education Campus,public,PK-8,451.0,5.0,Washington,DC,"915 Spring Road Northwest, 
Washington, DC  20010",(202) 576-6236,(202) 576-8877,http://www.dcps.dc.gov,110003000033,38.93593,-77.02617,https://www.greatschools.org/washington-dc/washington/27-Raymond-Education-Campus/?utm_source=GSAPI&utm_medium=referral,https://www.greatschools.org/washington-dc/washington/27-Raymond-Education-Campus/?utm_source=GSAPI&utm_medium=referral,https://www.greatschools.org/washington-dc/washington/27-Raymond-Education-Campus/?utm_source=GSAPI&utm_medium=referral#Reviews,https://www.greatschools.org/washington-dc/washington/27-Raymond-Education-Campus/?utm_source=GSAPI&utm_medium=referral,5.0,1.0,District Of Columbia Public Schools,1100030.0,20010
102,313,Rhema Christian Center School,private,K-12,30.0,5.0,Washington,DC,"1825 Michigan Avenue Northeast, 
Washington, DC  20018",(202) 529-3921,,,A9101632,38.94474,-76.97847,https://www.greatschools.org/washington-dc/washington/313-Rhema-Christian-Center-School/?utm_source=GSAPI&utm_medium=referral,https://www.greatschools.org/washington-dc/washington/313-Rhema-Christian-Center-School/?utm_source=GSAPI&utm_medium=referral,https://www.greatschools.org/washington-dc/washington/313-Rhema-Christian-Center-School/?utm_source=GSAPI&utm_medium=referral#Reviews,https://www.greatschools.org/washington-dc/washington/313-Rhema-Christian-Center-School/?utm_source=GSAPI&utm_medium=referral,,,,,20018
103,837,Richard Wright PCS,charter,8-12,284.0,4.0,Washington,DC,"770 M Street Southeast, 
Washington, DC  20003",(202) 388-1011,(202) 388-5197,http://www.richardwrightpcs.org,110008200441,38.87693,-76.99527,https://www.greatschools.org/washington-dc/washington/837-Richard-Wright-PCS/?utm_source=GSAPI&utm_medium=referral,https://www.greatschools.org/washington-dc/washington/837-Richard-Wright-PCS/?utm_source=GSAPI&utm_medium=referral,https://www.greatschools.org/washington-dc/washington/837-Richard-Wright-PCS/?utm_source=GSAPI&utm_medium=referral#Reviews,https://www.greatschools.org/washington-dc/washington/837-Richard-Wright-PCS/?utm_source=GSAPI&utm_medium=referral,6.0,123.0,Richard Wright Pcs For Journalism And Media Arts Pcs,1100082.0,20003
104,23,River Terrace Elementary School,public,PK-12,139.0,4.0,Washington,DC,"405 Anacostia Avenue Northeast, 
Washington, DC  20019",(202) 442-7111,(202) 724-4589,http://www.dcps.dc.gov,110003000506,38.896336,-76.959625,https://www.greatschools.org/washington-dc/washington/23-River-Terrace-Elementary-School/?utm_source=GSAPI&utm_medium=referral,https://www.greatschools.org/washington-dc/washington/23-River-Terrace-Elementary-School/?utm_source=GSAPI&utm_medium=referral,https://www.greatschools.org/washington-dc/washington/23-River-Terrace-Elementary-School/?utm_source=GSAPI&utm_medium=referral#Reviews,https://www.greatschools.org/washington-dc/washington/23-River-Terrace-Elementary-School/?utm_source=GSAPI&utm_medium=referral,,1.0,District Of Columbia Public Schools,1100030.0,20019
105,269,SEED PCS,charter,6-12,352.0,5.0,Washington,DC,"4300 C Street Southeast, 
Washington, DC  20019",(202) 248-7773,(202) 249-1919,http://www.seedschooldc.org,110002200236,38.8869,-76.946434,https://www.greatschools.org/washington-dc/washington/269-SEED-PCS/?utm_source=GSAPI&utm_medium=referral,https://www.greatschools.org/washington-dc/washington/269-SEED-PCS/?utm_source=GSAPI&utm_medium=referral,https://www.greatschools.org/washington-dc/washington/269-SEED-PCS/?utm_source=GSAPI&utm_medium=referral#Reviews,https://www.greatschools.org/washington-dc/washington/269-SEED-PCS/?utm_source=GSAPI&utm_medium=referral,5.0,23.0,Seed Pcs,1100022.0,20019
106,349,Sacred Heart School,private,PK-8,215.0,4.0,Washington,DC,"1625 Park Rd NW, 
Washington, DC  20010",(202) 265-4828,(202) 265-0595,www.sacredheartschooldc.org,A0304040,38.93217,-77.037796,https://www.greatschools.org/washington-dc/washington/349-Sacred-Heart-School/?utm_source=GSAPI&utm_medium=referral,https://www.greatschools.org/washington-dc/washington/349-Sacred-Heart-School/?utm_source=GSAPI&utm_medium=referral,https://www.greatschools.org/washington-dc/washington/349-Sacred-Heart-School/?utm_source=GSAPI&utm_medium=referral#Reviews,https://www.greatschools.org/washington-dc/washington/349-Sacred-Heart-School/?utm_source=GSAPI&utm_medium=referral,,,,,20010
107,391,San Miguel School,private,6-8,65.0,5.0,Washington,DC,"7705 Georgia Avenue, NW, 
Washington, DC  20012",(202) 232-8345,,http://www.sanmigueldc.org,A0500918,38.98314,-77.02616,https://www.greatschools.org/washington-dc/washington/391-San-Miguel-School/?utm_source=GSAPI&utm_medium=referral,https://www.greatschools.org/washington-dc/washington/391-San-Miguel-School/?utm_source=GSAPI&utm_medium=referral,https://www.greatschools.org/washington-dc/washington/391-San-Miguel-School/?utm_source=GSAPI&utm_medium=referral#Reviews,https://www.greatschools.org/washington-dc/washington/391-San-Miguel-School/?utm_source=GSAPI&utm_medium=referral,,,,,20012
108,909,School Without Walls @ Francis-Stevens,public,PK-8,409.0,4.0,Washington,DC,"2425 N Street Northwest, 
Washington, DC  20037",(202) 724-4841,(202) 724-3957,http://www.dcps.dc.gov,110003000149,38.90766,-77.05226,https://www.greatschools.org/washington-dc/washington/909-School-Without-Walls-@-Francis-Stevens/?utm_source=GSAPI&utm_medium=referral,https://www.greatschools.org/washington-dc/washington/909-School-Without-Walls-@-Francis-Stevens/?utm_source=GSAPI&utm_medium=referral,https://www.greatschools.org/washington-dc/washington/909-School-Without-Walls-@-Francis-Stevens/?utm_source=GSAPI&utm_medium=referral#Reviews,https://www.greatschools.org/washington-dc/washington/909-School-Without-Walls-@-Francis-Stevens/?utm_source=GSAPI&utm_medium=referral,8.0,1.0,District Of Columbia Public Schools,1100030.0,20037
109,192,Sheridan School,private,K-8,225.0,5.0,Washington,DC,"4400 36th Street NW, 
Washington, DC  20008",(202) 362-7900,(202) 244-9696,http://www.sheridanschool.org/,00253437,38.94674,-77.0705,https://www.greatschools.org/washington-dc/washington/192-Sheridan-School/?utm_source=GSAPI&utm_medium=referral,https://www.greatschools.org/washington-dc/washington/192-Sheridan-School/?utm_source=GSAPI&utm_medium=referral,https://www.greatschools.org/washington-dc/washington/192-Sheridan-School/?utm_source=GSAPI&utm_medium=referral#Reviews,https://www.greatschools.org/washington-dc/washington/192-Sheridan-School/?utm_source=GSAPI&utm_medium=referral,,,,,20008
110,211,Sidwell Friends School,private,PK-12,1109.0,4.0,Washington,DC,"3825 Wisconsin Ave NW, 
Washington, DC  20016",(202) 537-8100,,http://www.sidwell.edu,02032143,38.93877,-77.07462,https://www.greatschools.org/washington-dc/washington/211-Sidwell-Friends-School/?utm_source=GSAPI&utm_medium=referral,https://www.greatschools.org/washington-dc/washington/211-Sidwell-Friends-School/?utm_source=GSAPI&utm_medium=referral,https://www.greatschools.org/washington-dc/washington/211-Sidwell-Friends-School/?utm_source=GSAPI&utm_medium=referral#Reviews,https://www.greatschools.org/washington-dc/washington/211-Sidwell-Friends-School/?utm_source=GSAPI&utm_medium=referral,,,,,20016
111,878,Somerset Prep DC PCS,charter,6-11,240.0,5.0,Washington,DC,"3301 Wheeler Road Southeast, 
Washington, DC  20032",(202) 562-9170,,http://www.somersetdc.com/,110008900462,38.8416,-76.99428,https://www.greatschools.org/washington-dc/washington/878-Somerset-Prep-DC-PCS/?utm_source=GSAPI&utm_medium=referral,https://www.greatschools.org/washington-dc/washington/878-Somerset-Prep-DC-PCS/?utm_source=GSAPI&utm_medium=referral,https://www.greatschools.org/washington-dc/washington/878-Somerset-Prep-DC-PCS/?utm_source=GSAPI&utm_medium=referral#Reviews,https://www.greatschools.org/washington-dc/washington/878-Somerset-Prep-DC-PCS/?utm_source=GSAPI&utm_medium=referral,4.0,130.0,Somerset Pcs,1100089.0,20032
112,14,Sousa Middle School,public,6-8,255.0,4.0,Washington,DC,"3650 Ely Place Southeast, 
Washington, DC  20019",(202) 729-3260,(202) 645-0456,http://www.dcps.dc.gov,110003000019,38.88401,-76.95323,https://www.greatschools.org/washington-dc/washington/14-Sousa-Middle-School/?utm_source=GSAPI&utm_medium=referral,https://www.greatschools.org/washington-dc/washington/14-Sousa-Middle-School/?utm_source=GSAPI&utm_medium=referral,https://www.greatschools.org/washington-dc/washington/14-Sousa-Middle-School/?utm_source=GSAPI&utm_medium=referral#Reviews,https://www.greatschools.org/washington-dc/washington/14-Sousa-Middle-School/?utm_source=GSAPI&utm_medium=referral,3.0,1.0,District Of Columbia Public Schools,1100030.0,20019
113,1015,St Thomas More Catholic,private,PK-8,165.0,,Washington,DC,"4265 4th Street Southeast, 
Washington, DC  20032",(202) 561-1189,,http://adw.org/school/saint-thomas-more-catholic-academy/,A1100483,38.825726,-77.00036,https://www.greatschools.org/washington-dc/washington/1015-St-Thomas-More-Catholic/?utm_source=GSAPI&utm_medium=referral,https://www.greatschools.org/washington-dc/washington/1015-St-Thomas-More-Catholic/?utm_source=GSAPI&utm_medium=referral,https://www.greatschools.org/washington-dc/washington/1015-St-Thomas-More-Catholic/?utm_source=GSAPI&utm_medium=referral#Reviews,https://www.greatschools.org/washington-dc/washington/1015-St-Thomas-More-Catholic/?utm_source=GSAPI&utm_medium=referral,,,,,20032
114,206,St. Albans School,private,4-12,575.0,4.0,Washington,DC,"Mount St Alban, 
Washington, DC  20016",(202) 537-6435,,,02015988,38.8904,-77.032,https://www.greatschools.org/washington-dc/washington/206-St.-Albans-School/?utm_source=GSAPI&utm_medium=referral,https://www.greatschools.org/washington-dc/washington/206-St.-Albans-School/?utm_source=GSAPI&utm_medium=referral,https://www.greatschools.org/washington-dc/washington/206-St.-Albans-School/?utm_source=GSAPI&utm_medium=referral#Reviews,https://www.greatschools.org/washington-dc/washington/206-St.-Albans-School/?utm_source=GSAPI&utm_medium=referral,,,,,20016
115,172,St. Anselm's Abbey School,private,6-12,220.0,4.0,Washington,DC,"4501 S Dakota Ave NE, 
Washington, DC  20017",(202) 269-2350,(202) 269-2373,http://www.saintanselms.org,00252772,38.946823,-76.985306,https://www.greatschools.org/washington-dc/washington/172-St.-Anselm's-Abbey-School/?utm_source=GSAPI&utm_medium=referral,https://www.greatschools.org/washington-dc/washington/172-St.-Anselm's-Abbey-School/?utm_source=GSAPI&utm_medium=referral,https://www.greatschools.org/washington-dc/washington/172-St.-Anselm's-Abbey-School/?utm_source=GSAPI&utm_medium=referral#Reviews,https://www.greatschools.org/washington-dc/washington/172-St.-Anselm's-Abbey-School/?utm_source=GSAPI&utm_medium=referral,,,,,20017
116,572,St. Anthony Catholic School,private,PK-8,225.0,3.0,Washington,DC,"3400 12th Street NE, 
Washington, DC  20017",(202) 526-4657,(202) 832-5567,http://www.stanthonyschooldc.org,A0500919,38.93189,-76.99113,https://www.greatschools.org/washington-dc/washington/572-St.-Anthony-Catholic-School/?utm_source=GSAPI&utm_medium=referral,https://www.greatschools.org/washington-dc/washington/572-St.-Anthony-Catholic-School/?utm_source=GSAPI&utm_medium=referral,https://www.greatschools.org/washington-dc/washington/572-St.-Anthony-Catholic-School/?utm_source=GSAPI&utm_medium=referral#Reviews,https://www.greatschools.org/washington-dc/washington/572-St.-Anthony-Catholic-School/?utm_source=GSAPI&utm_medium=referral,,,,,20017
117,176,St. Augustine School,private,PK-8,197.0,4.0,Washington,DC,"1421 V Street NW, 
Washington, DC  20009",(202) 667-2608,(202) 667-2610,www.staug-dc.org,00252921,38.918163,-77.03338,https://www.greatschools.org/washington-dc/washington/176-St.-Augustine-School/?utm_source=GSAPI&utm_medium=referral,https://www.greatschools.org/washington-dc/washington/176-St.-Augustine-School/?utm_source=GSAPI&utm_medium=referral,https://www.greatschools.org/washington-dc/washington/176-St.-Augustine-School/?utm_source=GSAPI&utm_medium=referral#Reviews,https://www.greatschools.org/washington-dc/washington/176-St.-Augustine-School/?utm_source=GSAPI&utm_medium=referral,,,,,20009
118,558,St. Coletta Special Education PCS,charter,PK-12,250.0,4.0,Washington,DC,"1901 Independence Avenue Southeast, 
Washington, DC  20003",(202) 350-8680,(202) 350-8699,http://www.stcoletta.org,110006400367,38.88691,-76.97673,https://www.greatschools.org/washington-dc/washington/558-St.-Coletta-Special-Education-PCS/?utm_source=GSAPI&utm_medium=referral,https://www.greatschools.org/washington-dc/washington/558-St.-Coletta-Special-Education-PCS/?utm_source=GSAPI&utm_medium=referral,https://www.greatschools.org/washington-dc/washington/558-St.-Coletta-Special-Education-PCS/?utm_source=GSAPI&utm_medium=referral#Reviews,https://www.greatschools.org/washington-dc/washington/558-St.-Coletta-Special-Education-PCS/?utm_source=GSAPI&utm_medium=referral,,104.0,St. Coletta Special Education Pcs,1100064.0,20003
119,205,St. Francis Xavier Academy,private,PK-8,225.0,3.0,Washington,DC,"2700 O St SE, 
Washington, DC  20020",(202) 581-2010,(202) 581-1142,www.catholicacademies.org/schools/st-francis-xavier-academy,01605173,38.873154,-76.968605,https://www.greatschools.org/washington-dc/washington/205-St.-Francis-Xavier-Academy/?utm_source=GSAPI&utm_medium=referral,https://www.greatschools.org/washington-dc/washington/205-St.-Francis-Xavier-Academy/?utm_source=GSAPI&utm_medium=referral,https://www.greatschools.org/washington-dc/washington/205-St.-Francis-Xavier-Academy/?utm_source=GSAPI&utm_medium=referral#Reviews,https://www.greatschools.org/washington-dc/washington/205-St.-Francis-Xavier-Academy/?utm_source=GSAPI&utm_medium=referral,,,,,20020
120,201,St. Patrick's Episcopal Day School,private,PK-8,485.0,5.0,Washington,DC,"4700 Whitehaven Parkway Northwest, 
Washington, DC  20007",(202) 342-2805,,http://www.stpatsdc.org,00253834,38.915928,-77.09121,https://www.greatschools.org/washington-dc/washington/201-St.-Patrick's-Episcopal-Day-School/?utm_source=GSAPI&utm_medium=referral,https://www.greatschools.org/washington-dc/washington/201-St.-Patrick's-Episcopal-Day-School/?utm_source=GSAPI&utm_medium=referral,https://www.greatschools.org/washington-dc/washington/201-St.-Patrick's-Episcopal-Day-School/?utm_source=GSAPI&utm_medium=referral#Reviews,https://www.greatschools.org/washington-dc/washington/201-St.-Patrick's-Episcopal-Day-School/?utm_source=GSAPI&utm_medium=referral,,,,,20007
121,173,St. Peter School,private,PK-8,235.0,4.0,Washington,DC,"422 Third Street SE, 
Washington, DC  20003",(202) 544-1618,,http://www.stpeterschooldc.org,00252819,38.883556,-77.00147,https://www.greatschools.org/washington-dc/washington/173-St.-Peter-School/?utm_source=GSAPI&utm_medium=referral,https://www.greatschools.org/washington-dc/washington/173-St.-Peter-School/?utm_source=GSAPI&utm_medium=referral,https://www.greatschools.org/washington-dc/washington/173-St.-Peter-School/?utm_source=GSAPI&utm_medium=referral#Reviews,https://www.greatschools.org/washington-dc/washington/173-St.-Peter-School/?utm_source=GSAPI&utm_medium=referral,,,,,20003
122,174,St. Thomas More Catholic School,private,PK-8,146.0,4.0,Washington,DC,"4265 4th St SE, 
Washington, DC  20032",(202) 561-1189,(202) 562-2336,www.catholicacademies.org/schools/st-thomas-more-catholic-academy,00252852,38.825726,-77.00036,https://www.greatschools.org/washington-dc/washington/174-St.-Thomas-More-Catholic-School/?utm_source=GSAPI&utm_medium=referral,https://www.greatschools.org/washington-dc/washington/174-St.-Thomas-More-Catholic-School/?utm_source=GSAPI&utm_medium=referral,https://www.greatschools.org/washington-dc/washington/174-St.-Thomas-More-Catholic-School/?utm_source=GSAPI&utm_medium=referral#Reviews,https://www.greatschools.org/washington-dc/washington/174-St.-Thomas-More-Catholic-School/?utm_source=GSAPI&utm_medium=referral,,,,,20032
123,149,Stuart-Hobson Middle School,public,6-8,424.0,5.0,Washington,DC,"410 E Street Northeast, 
Washington, DC  20002",(202) 671-6010,(202) 698-4720,http://www.dcps.dc.gov,110003000191,38.896538,-77.00004,https://www.greatschools.org/washington-dc/washington/149-Stuart-Hobson-Middle-School/?utm_source=GSAPI&utm_medium=referral,https://www.greatschools.org/washington-dc/washington/149-Stuart-Hobson-Middle-School/?utm_source=GSAPI&utm_medium=referral,https://www.greatschools.org/washington-dc/washington/149-Stuart-Hobson-Middle-School/?utm_source=GSAPI&utm_medium=referral#Reviews,https://www.greatschools.org/washington-dc/washington/149-Stuart-Hobson-Middle-School/?utm_source=GSAPI&utm_medium=referral,6.0,1.0,District Of Columbia Public Schools,1100030.0,20002
124,10,Takoma Education Campus,public,PK-8,366.0,3.0,Washington,DC,"7010 Piney Branch Road Northwest, 
Washington, DC  20012",(202) 671-6050,(202) 671-5305,http://www.dcps.dc.gov,110003000011,38.975258,-77.02202,https://www.greatschools.org/washington-dc/washington/10-Takoma-Education-Campus/?utm_source=GSAPI&utm_medium=referral,https://www.greatschools.org/washington-dc/washington/10-Takoma-Education-Campus/?utm_source=GSAPI&utm_medium=referral,https://www.greatschools.org/washington-dc/washington/10-Takoma-Education-Campus/?utm_source=GSAPI&utm_medium=referral#Reviews,https://www.greatschools.org/washington-dc/washington/10-Takoma-Education-Campus/?utm_source=GSAPI&utm_medium=referral,5.0,1.0,District Of Columbia Public Schools,1100030.0,20012
125,1238,The Childrens Guild PCS,charter,K-8,,,Washington,DC,"2146 24th Pl NE, 
Washington, DC  20018",(202) 774-5442,,http://tcgdc.org/,110010100499,38.920708,-76.97216,https://www.greatschools.org/washington-dc/washington/1238-The-Childrens-Guild-PCS/?utm_source=GSAPI&utm_medium=referral,https://www.greatschools.org/washington-dc/washington/1238-The-Childrens-Guild-PCS/?utm_source=GSAPI&utm_medium=referral,https://www.greatschools.org/washington-dc/washington/1238-The-Childrens-Guild-PCS/?utm_source=GSAPI&utm_medium=referral#Reviews,https://www.greatschools.org/washington-dc/washington/1238-The-Childrens-Guild-PCS/?utm_source=GSAPI&utm_medium=referral,2.0,137.0,The Childrens Guild PCS,,20018
126,346,The Episcopal Center for Children,private,K-7,50.0,,Washington,DC,"5901 Utah Avenue Northwest, 
Washington, DC  20015",(202) 363-1333,,,A0304036,38.96851,-77.059906,https://www.greatschools.org/washington-dc/washington/346-The-Episcopal-Center-For-Children/?utm_source=GSAPI&utm_medium=referral,https://www.greatschools.org/washington-dc/washington/346-The-Episcopal-Center-For-Children/?utm_source=GSAPI&utm_medium=referral,https://www.greatschools.org/washington-dc/washington/346-The-Episcopal-Center-For-Children/?utm_source=GSAPI&utm_medium=referral#Reviews,https://www.greatschools.org/washington-dc/washington/346-The-Episcopal-Center-For-Children/?utm_source=GSAPI&utm_medium=referral,,,,,20015
127,59,Truesdell Education Campus,public,PK-8,468.0,5.0,Washington,DC,"800 Ingraham Street Northwest, 
Washington, DC  20011",(202) 576-6202,(202) 576-6205,http://www.dcps.dc.gov,110003000075,38.953945,-77.024376,https://www.greatschools.org/washington-dc/washington/59-Truesdell-Education-Campus/?utm_source=GSAPI&utm_medium=referral,https://www.greatschools.org/washington-dc/washington/59-Truesdell-Education-Campus/?utm_source=GSAPI&utm_medium=referral,https://www.greatschools.org/washington-dc/washington/59-Truesdell-Education-Campus/?utm_source=GSAPI&utm_medium=referral#Reviews,https://www.greatschools.org/washington-dc/washington/59-Truesdell-Education-Campus/?utm_source=GSAPI&utm_medium=referral,7.0,1.0,District Of Columbia Public Schools,1100030.0,20011
128,369,Two Rivers PCS,charter,PK-8,516.0,4.0,Washington,DC,"1227 4th Street Northeast, 
Washington, DC  20002",(202) 546-4477,(202) 546-0869,http://www.tworiverspcs.org,110004500279,38.906773,-77.000175,https://www.greatschools.org/washington-dc/washington/369-Two-Rivers-PCS/?utm_source=GSAPI&utm_medium=referral,https://www.greatschools.org/washington-dc/washington/369-Two-Rivers-PCS/?utm_source=GSAPI&utm_medium=referral,https://www.greatschools.org/washington-dc/washington/369-Two-Rivers-PCS/?utm_source=GSAPI&utm_medium=referral#Reviews,https://www.greatschools.org/washington-dc/washington/369-Two-Rivers-PCS/?utm_source=GSAPI&utm_medium=referral,7.0,108.0,Two Rivers Pcs,1100045.0,20002
129,54,Walker-Jones Education Campus,public,PK-8,426.0,3.0,Washington,DC,"1125 New Jersey Avenue Northwest, 
Washington, DC  20001",(202) 939-5934,(202) 535-1307,http://www.dcps.dc.gov,110003000070,38.904186,-77.01389,https://www.greatschools.org/washington-dc/washington/54-Walker-Jones-Education-Campus/?utm_source=GSAPI&utm_medium=referral,https://www.greatschools.org/washington-dc/washington/54-Walker-Jones-Education-Campus/?utm_source=GSAPI&utm_medium=referral,https://www.greatschools.org/washington-dc/washington/54-Walker-Jones-Education-Campus/?utm_source=GSAPI&utm_medium=referral#Reviews,https://www.greatschools.org/washington-dc/washington/54-Walker-Jones-Education-Campus/?utm_source=GSAPI&utm_medium=referral,4.0,1.0,District Of Columbia Public Schools,1100030.0,20001
130,1224,Washington Global Public Charter School,charter,6-8,110.0,,Washington,DC,"525 School Street Southwest, 
Washington, DC  20024",(202) 534-7901,(202) 479-1079,http://washingtonglobal.org/,110010200503,38.884113,-77.01955,https://www.greatschools.org/washington-dc/washington/1224-Washington-Global-Public-Charter-School/?utm_source=GSAPI&utm_medium=referral,https://www.greatschools.org/washington-dc/washington/1224-Washington-Global-Public-Charter-School/?utm_source=GSAPI&utm_medium=referral,https://www.greatschools.org/washington-dc/washington/1224-Washington-Global-Public-Charter-School/?utm_source=GSAPI&utm_medium=referral#Reviews,https://www.greatschools.org/washington-dc/washington/1224-Washington-Global-Public-Charter-School/?utm_source=GSAPI&utm_medium=referral,5.0,135.0,Washington Global PCS,,20024
131,240,Washington International School - Tregaron Campus,private,6-12,457.0,5.0,Washington,DC,"3100 Macomb St NW, 
Washington, DC  20008",(202) 243-1800,,http://www.wis.edu,X0253211,38.93351,-77.06097,https://www.greatschools.org/washington-dc/washington/240-Washington-International-School---Tregaron-Campus/?utm_source=GSAPI&utm_medium=referral,https://www.greatschools.org/washington-dc/washington/240-Washington-International-School---Tregaron-Campus/?utm_source=GSAPI&utm_medium=referral,https://www.greatschools.org/washington-dc/washington/240-Washington-International-School---Tregaron-Campus/?utm_source=GSAPI&utm_medium=referral#Reviews,https://www.greatschools.org/washington-dc/washington/240-Washington-International-School---Tregaron-Campus/?utm_source=GSAPI&utm_medium=referral,,,,,20008
132,343,Washington Jesuit Academy,private,6-8,75.0,5.0,Washington,DC,"900 Varnum Street, NE, 
Washington, DC  20017",(202) 832-7679,(202) 832-8098,,A0300740,38.9425,-76.9945,https://www.greatschools.org/washington-dc/washington/343-Washington-Jesuit-Academy/?utm_source=GSAPI&utm_medium=referral,https://www.greatschools.org/washington-dc/washington/343-Washington-Jesuit-Academy/?utm_source=GSAPI&utm_medium=referral,https://www.greatschools.org/washington-dc/washington/343-Washington-Jesuit-Academy/?utm_source=GSAPI&utm_medium=referral#Reviews,https://www.greatschools.org/washington-dc/washington/343-Washington-Jesuit-Academy/?utm_source=GSAPI&utm_medium=referral,,,,,20017
133,809,Washington Latin PCS - Middle School,charter,5-8,362.0,5.0,Washington,DC,"5200 2nd Street Northwest, 
Washington, DC  20011",(202) 223-1111,(202) 450-6047,http://www.latinpcs.org,110001900324,38.954052,-77.01394,https://www.greatschools.org/washington-dc/washington/809-Washington-Latin-PCS---Middle-School/?utm_source=GSAPI&utm_medium=referral,https://www.greatschools.org/washington-dc/washington/809-Washington-Latin-PCS---Middle-School/?utm_source=GSAPI&utm_medium=referral,https://www.greatschools.org/washington-dc/washington/809-Washington-Latin-PCS---Middle-School/?utm_source=GSAPI&utm_medium=referral#Reviews,https://www.greatschools.org/washington-dc/washington/809-Washington-Latin-PCS---Middle-School/?utm_source=GSAPI&utm_medium=referral,8.0,109.0,Washington Latin Pcs,1100019.0,20011
134,574,Washington Middle School For Girls,private,4-8,104.0,,Washington,DC,"1901 Mississippi Ave Se Ste 203 2nd Fl, 
Washington, DC  20020",(202) 678-1113,,,A0700416,38.84378,-76.97675,https://www.greatschools.org/washington-dc/washington/574-Washington-Middle-School-For-Girls/?utm_source=GSAPI&utm_medium=referral,https://www.greatschools.org/washington-dc/washington/574-Washington-Middle-School-For-Girls/?utm_source=GSAPI&utm_medium=referral,https://www.greatschools.org/washington-dc/washington/574-Washington-Middle-School-For-Girls/?utm_source=GSAPI&utm_medium=referral#Reviews,https://www.greatschools.org/washington-dc/washington/574-Washington-Middle-School-For-Girls/?utm_source=GSAPI&utm_medium=referral,,,,,20020
135,312,Washington School for Girls - THEARC Campus,private,6-8,66.0,4.0,Washington,DC,"1901 Mississippi Avenue, SE, 
Washington, DC  20020",(202) 678-1113,(202) 678-1114,http://www.washingtonschoolforgirls.org,A0101695,38.843735,-76.97673,https://www.greatschools.org/washington-dc/washington/312-Washington-School-For-Girls---THEARC-Campus/?utm_source=GSAPI&utm_medium=referral,https://www.greatschools.org/washington-dc/washington/312-Washington-School-For-Girls---THEARC-Campus/?utm_source=GSAPI&utm_medium=referral,https://www.greatschools.org/washington-dc/washington/312-Washington-School-For-Girls---THEARC-Campus/?utm_source=GSAPI&utm_medium=referral#Reviews,https://www.greatschools.org/washington-dc/washington/312-Washington-School-For-Girls---THEARC-Campus/?utm_source=GSAPI&utm_medium=referral,,,,,20020
136,1203,Waterfront Academy,private,PK-8,40.0,5.0,Washington,DC,"60 I Street SW, 
Washington, DC  20024",(202) 484-0044,(202) 484-0098,www..waterfrontacademy.org,,38.879025,-77.01142,https://www.greatschools.org/washington-dc/washington/1203-Waterfront-Academy/?utm_source=GSAPI&utm_medium=referral,https://www.greatschools.org/washington-dc/washington/1203-Waterfront-Academy/?utm_source=GSAPI&utm_medium=referral,https://www.greatschools.org/washington-dc/washington/1203-Waterfront-Academy/?utm_source=GSAPI&utm_medium=referral#Reviews,https://www.greatschools.org/washington-dc/washington/1203-Waterfront-Academy/?utm_source=GSAPI&utm_medium=referral,,,,,20024
137,51,West Education Campus,public,PK-8,330.0,4.0,Washington,DC,"1338 Farragut Street Northwest, 
Washington, DC  20011",(202) 576-6226,(202) 541-6087,www.dcps.dc.gov/DCPS/west,110003000067,38.951267,-77.03212,https://www.greatschools.org/washington-dc/washington/51-West-Education-Campus/?utm_source=GSAPI&utm_medium=referral,https://www.greatschools.org/washington-dc/washington/51-West-Education-Campus/?utm_source=GSAPI&utm_medium=referral,https://www.greatschools.org/washington-dc/washington/51-West-Education-Campus/?utm_source=GSAPI&utm_medium=referral#Reviews,https://www.greatschools.org/washington-dc/washington/51-West-Education-Campus/?utm_source=GSAPI&utm_medium=referral,8.0,1.0,District Of Columbia Public Schools,1100030.0,20011
138,52,Wheatley Education Campus,public,PK-8,465.0,4.0,Washington,DC,"1299 Neal Street Northeast, 
Washington, DC  20002",(202) 939-5970,(202) 724-2160,http://www.dcps.dc.gov,110003000068,38.903877,-76.98824,https://www.greatschools.org/washington-dc/washington/52-Wheatley-Education-Campus/?utm_source=GSAPI&utm_medium=referral,https://www.greatschools.org/washington-dc/washington/52-Wheatley-Education-Campus/?utm_source=GSAPI&utm_medium=referral,https://www.greatschools.org/washington-dc/washington/52-Wheatley-Education-Campus/?utm_source=GSAPI&utm_medium=referral#Reviews,https://www.greatschools.org/washington-dc/washington/52-Wheatley-Education-Campus/?utm_source=GSAPI&utm_medium=referral,3.0,1.0,District Of Columbia Public Schools,1100030.0,20002
139,49,Whittier Education Campus,public,PK-8,339.0,5.0,Washington,DC,"6201 5th Street Northwest, 
Washington, DC  20011",(202) 576-6156,(202) 576-6158,http://www.dcps.dc.gov,110003000065,38.9657,-77.01875,https://www.greatschools.org/washington-dc/washington/49-Whittier-Education-Campus/?utm_source=GSAPI&utm_medium=referral,https://www.greatschools.org/washington-dc/washington/49-Whittier-Education-Campus/?utm_source=GSAPI&utm_medium=referral,https://www.greatschools.org/washington-dc/washington/49-Whittier-Education-Campus/?utm_source=GSAPI&utm_medium=referral#Reviews,https://www.greatschools.org/washington-dc/washington/49-Whittier-Education-Campus/?utm_source=GSAPI&utm_medium=referral,7.0,1.0,District Of Columbia Public Schools,1100030.0,20011
140,866,William E Doar Jr WEDJ Edgewood Elementary and Middle School,charter,PK-8,422.0,3.0,Washington,DC,"705 Edgewood Street Northeast, 
Washington, DC  20017",(202) 269-4646,(202) 882-1932,http://www.wedjschool.us/,110005300455,38.92366,-76.9958,https://www.greatschools.org/washington-dc/washington/866-William-E-Doar-Jr-WEDJ-Edgewood-Elementary-And-Middle-School/?utm_source=GSAPI&utm_medium=referral,https://www.greatschools.org/washington-dc/washington/866-William-E-Doar-Jr-WEDJ-Edgewood-Elementary-And-Middle-School/?utm_source=GSAPI&utm_medium=referral,https://www.greatschools.org/washington-dc/washington/866-William-E-Doar-Jr-WEDJ-Edgewood-Elementary-And-Middle-School/?utm_source=GSAPI&utm_medium=referral#Reviews,https://www.greatschools.org/washington-dc/washington/866-William-E-Doar-Jr-WEDJ-Edgewood-Elementary-And-Middle-School/?utm_source=GSAPI&utm_medium=referral,5.0,111.0,City Arts & Prep PCS,1100053.0,20017
141,384,YouthBuild PCS,charter,n/a,115.0,,Washington,DC,"3014 14th Street, NW, 
Washington, DC  20009",(202) 319-0141,(202) 518-0618,www.youthbuildpcs.org,110005900309,38.927998,-77.03255,https://www.greatschools.org/washington-dc/washington/384-YouthBuild-PCS/?utm_source=GSAPI&utm_medium=referral,https://www.greatschools.org/washington-dc/washington/384-YouthBuild-PCS/?utm_source=GSAPI&utm_medium=referral,https://www.greatschools.org/washington-dc/washington/384-YouthBuild-PCS/?utm_source=GSAPI&utm_medium=referral#Reviews,https://www.greatschools.org/washington-dc/washington/384-YouthBuild-PCS/?utm_source=GSAPI&utm_medium=referral,,59.0,Youth Build Pcs Layc,1100059.0,20009
