,gsId,name,type,gradeRange,city,state,districtId,district,districtNCESId,address,phone,fax,website,ncesId,lat,lon,overviewLink,ratingsLink,reviewsLink,schoolStatsLink,parentRating,enrollment,gsRating,Zip Code
0,3290,Achievement Integrity And Maturity,public,n/a,Alexandria,VA,68.0,Fairfax County Public Schools,5101260.0,"2709 Popkins Lane, 
Alexandria, VA  22306",(703) 660-2064,,,510126002674,38.7638,-77.0794,https://www.greatschools.org/virginia/alexandria/3290-Achievement-Integrity-And-Maturity/?utm_source=GSAPI&utm_medium=referral,https://www.greatschools.org/virginia/alexandria/3290-Achievement-Integrity-And-Maturity/?utm_source=GSAPI&utm_medium=referral,https://www.greatschools.org/virginia/alexandria/3290-Achievement-Integrity-And-Maturity/?utm_source=GSAPI&utm_medium=referral#Reviews,https://www.greatschools.org/virginia/alexandria/3290-Achievement-Integrity-And-Maturity/?utm_source=GSAPI&utm_medium=referral,,,,22306
1,2895,Agape Christian Academy,private,PK-6,Alexandria,VA,,,,"1400 Duke St, 
Alexandria, VA  22314",(703) 739-7600,,,A0109669,38.80359,-77.05591,https://www.greatschools.org/virginia/alexandria/2895-Agape-Christian-Academy/?utm_source=GSAPI&utm_medium=referral,https://www.greatschools.org/virginia/alexandria/2895-Agape-Christian-Academy/?utm_source=GSAPI&utm_medium=referral,https://www.greatschools.org/virginia/alexandria/2895-Agape-Christian-Academy/?utm_source=GSAPI&utm_medium=referral#Reviews,https://www.greatschools.org/virginia/alexandria/2895-Agape-Christian-Academy/?utm_source=GSAPI&utm_medium=referral,5.0,,,22314
2,3062,Alc At Bryant,public,n/a,Alexandria,VA,68.0,Fairfax County Public Schools,5101260.0,"2709 Popkins Lane, 
Alexandria, VA  22306",(703) 660-2101,,,510126001103,38.764225,-77.080025,https://www.greatschools.org/virginia/alexandria/3062-Alc-At-Bryant/?utm_source=GSAPI&utm_medium=referral,https://www.greatschools.org/virginia/alexandria/3062-Alc-At-Bryant/?utm_source=GSAPI&utm_medium=referral,https://www.greatschools.org/virginia/alexandria/3062-Alc-At-Bryant/?utm_source=GSAPI&utm_medium=referral#Reviews,https://www.greatschools.org/virginia/alexandria/3062-Alc-At-Bryant/?utm_source=GSAPI&utm_medium=referral,,,,22306
3,4976,Alc At Montrose,public,n/a,Alexandria,VA,68.0,Fairfax County Public Schools,5101260.0,"6525 Montrose Street, 
Alexandria, VA  22312",(703) 658-5800,,,510126002790,38.815468,-77.162674,https://www.greatschools.org/virginia/alexandria/4976-Alc-At-Montrose/?utm_source=GSAPI&utm_medium=referral,https://www.greatschools.org/virginia/alexandria/4976-Alc-At-Montrose/?utm_source=GSAPI&utm_medium=referral,https://www.greatschools.org/virginia/alexandria/4976-Alc-At-Montrose/?utm_source=GSAPI&utm_medium=referral#Reviews,https://www.greatschools.org/virginia/alexandria/4976-Alc-At-Montrose/?utm_source=GSAPI&utm_medium=referral,5.0,,,22312
4,2269,Alexandria Country Day School,private,K-8,Alexandria,VA,,,,"2400 Russell Road, 
Alexandria, VA  22301",(703) 548-4804,,www.acdsnet.org,A9304116,38.82789,-77.066536,https://www.greatschools.org/virginia/alexandria/2269-Alexandria-Country-Day-School/?utm_source=GSAPI&utm_medium=referral,https://www.greatschools.org/virginia/alexandria/2269-Alexandria-Country-Day-School/?utm_source=GSAPI&utm_medium=referral,https://www.greatschools.org/virginia/alexandria/2269-Alexandria-Country-Day-School/?utm_source=GSAPI&utm_medium=referral#Reviews,https://www.greatschools.org/virginia/alexandria/2269-Alexandria-Country-Day-School/?utm_source=GSAPI&utm_medium=referral,5.0,187.0,,22301
5,455,Belle View Elementary School,public,PK-6,Alexandria,VA,68.0,Fairfax County Public Schools,5101260.0,"6701 Fort Hunt Road, 
Alexandria, VA  22307",(703) 660-8300,(703) 660-8397,http://www.fcps.edu/BelleViewES/,510126000429,38.77181,-77.06098,https://www.greatschools.org/virginia/alexandria/455-Belle-View-Elementary-School/?utm_source=GSAPI&utm_medium=referral,https://www.greatschools.org/virginia/alexandria/455-Belle-View-Elementary-School/?utm_source=GSAPI&utm_medium=referral,https://www.greatschools.org/virginia/alexandria/455-Belle-View-Elementary-School/?utm_source=GSAPI&utm_medium=referral#Reviews,https://www.greatschools.org/virginia/alexandria/455-Belle-View-Elementary-School/?utm_source=GSAPI&utm_medium=referral,4.0,531.0,4.0,22307
6,2101,Blessed Sacrament School & Early Childhood Center,private,PK-8,Alexandria,VA,,,,"1417 West Braddock Road, 
Alexandria, VA  22302",(703) 998-4170,,,01636066,38.82653,-77.082596,https://www.greatschools.org/virginia/alexandria/2101-Blessed-Sacrament-School-&-Early-Childhood-Center/?utm_source=GSAPI&utm_medium=referral,https://www.greatschools.org/virginia/alexandria/2101-Blessed-Sacrament-School-&-Early-Childhood-Center/?utm_source=GSAPI&utm_medium=referral,https://www.greatschools.org/virginia/alexandria/2101-Blessed-Sacrament-School-&-Early-Childhood-Center/?utm_source=GSAPI&utm_medium=referral#Reviews,https://www.greatschools.org/virginia/alexandria/2101-Blessed-Sacrament-School-&-Early-Childhood-Center/?utm_source=GSAPI&utm_medium=referral,3.0,343.0,,22302
7,446,Bren Mar Park Elementary School,public,PK-5,Alexandria,VA,68.0,Fairfax County Public Schools,5101260.0,"6344 Beryl Road, 
Alexandria, VA  22312",(703) 914-7200,,,510126000073,38.802177,-77.15742,https://www.greatschools.org/virginia/alexandria/446-Bren-Mar-Park-Elementary-School/?utm_source=GSAPI&utm_medium=referral,https://www.greatschools.org/virginia/alexandria/446-Bren-Mar-Park-Elementary-School/?utm_source=GSAPI&utm_medium=referral,https://www.greatschools.org/virginia/alexandria/446-Bren-Mar-Park-Elementary-School/?utm_source=GSAPI&utm_medium=referral#Reviews,https://www.greatschools.org/virginia/alexandria/446-Bren-Mar-Park-Elementary-School/?utm_source=GSAPI&utm_medium=referral,3.0,529.0,6.0,22312
8,5666,Brentwood Academy,private,PK-1,Alexandria,VA,,,,"3725 Nalls Road, 
Alexandria, VA  22309",(703) 780-5750,,http://www.brentwoodacademy.org/,A0971723,38.725407,-77.09724,https://www.greatschools.org/virginia/alexandria/5666-Brentwood-Academy/?utm_source=GSAPI&utm_medium=referral,https://www.greatschools.org/virginia/alexandria/5666-Brentwood-Academy/?utm_source=GSAPI&utm_medium=referral,https://www.greatschools.org/virginia/alexandria/5666-Brentwood-Academy/?utm_source=GSAPI&utm_medium=referral#Reviews,https://www.greatschools.org/virginia/alexandria/5666-Brentwood-Academy/?utm_source=GSAPI&utm_medium=referral,,75.0,,22309
9,5057,Brentwood Academy,private,PK-3,Alexandria,VA,,,,"3725 Nalls Rd, 
Alexandria, VA  22309",(703) 683-5130,,,BB081754,38.725166,-77.09845,https://www.greatschools.org/virginia/alexandria/5057-Brentwood-Academy/?utm_source=GSAPI&utm_medium=referral,https://www.greatschools.org/virginia/alexandria/5057-Brentwood-Academy/?utm_source=GSAPI&utm_medium=referral,https://www.greatschools.org/virginia/alexandria/5057-Brentwood-Academy/?utm_source=GSAPI&utm_medium=referral#Reviews,https://www.greatschools.org/virginia/alexandria/5057-Brentwood-Academy/?utm_source=GSAPI&utm_medium=referral,4.0,,,22309
10,2025,Browne Academy,private,PK-8,Alexandria,VA,,,,"5917 Telegraph Rd, 
Alexandria, VA  22310",(703) 960-3000,,http://www.browneacademy.org/,01433689,38.788956,-77.0838,https://www.greatschools.org/virginia/alexandria/2025-Browne-Academy/?utm_source=GSAPI&utm_medium=referral,https://www.greatschools.org/virginia/alexandria/2025-Browne-Academy/?utm_source=GSAPI&utm_medium=referral,https://www.greatschools.org/virginia/alexandria/2025-Browne-Academy/?utm_source=GSAPI&utm_medium=referral#Reviews,https://www.greatschools.org/virginia/alexandria/2025-Browne-Academy/?utm_source=GSAPI&utm_medium=referral,4.0,250.0,,22310
11,458,Bucknell Elementary School,public,PK-6,Alexandria,VA,68.0,Fairfax County Public Schools,5101260.0,"6925 University Drive, 
Alexandria, VA  22307",(703) 660-2900,,,510126000435,38.767128,-77.07366,https://www.greatschools.org/virginia/alexandria/458-Bucknell-Elementary-School/?utm_source=GSAPI&utm_medium=referral,https://www.greatschools.org/virginia/alexandria/458-Bucknell-Elementary-School/?utm_source=GSAPI&utm_medium=referral,https://www.greatschools.org/virginia/alexandria/458-Bucknell-Elementary-School/?utm_source=GSAPI&utm_medium=referral#Reviews,https://www.greatschools.org/virginia/alexandria/458-Bucknell-Elementary-School/?utm_source=GSAPI&utm_medium=referral,4.0,258.0,4.0,22307
12,2018,Burgundy Farm Country Day School,private,PK-8,Alexandria,VA,,,,"3700 Burgundy Road, 
Alexandria, VA  22303",(703) 329-6968,,http://www.burgundyfarm.org,01433601,38.797882,-77.09466,https://www.greatschools.org/virginia/alexandria/2018-Burgundy-Farm-Country-Day-School/?utm_source=GSAPI&utm_medium=referral,https://www.greatschools.org/virginia/alexandria/2018-Burgundy-Farm-Country-Day-School/?utm_source=GSAPI&utm_medium=referral,https://www.greatschools.org/virginia/alexandria/2018-Burgundy-Farm-Country-Day-School/?utm_source=GSAPI&utm_medium=referral#Reviews,https://www.greatschools.org/virginia/alexandria/2018-Burgundy-Farm-Country-Day-School/?utm_source=GSAPI&utm_medium=referral,5.0,265.0,,22303
13,460,Bush Hill Elementary School,public,PK-6,Alexandria,VA,68.0,Fairfax County Public Schools,5101260.0,"5927 Westchester Street, 
Alexandria, VA  22310",(703) 924-5600,,http://fcps.edu/BushHillES/,510126000438,38.790367,-77.12362,https://www.greatschools.org/virginia/alexandria/460-Bush-Hill-Elementary-School/?utm_source=GSAPI&utm_medium=referral,https://www.greatschools.org/virginia/alexandria/460-Bush-Hill-Elementary-School/?utm_source=GSAPI&utm_medium=referral,https://www.greatschools.org/virginia/alexandria/460-Bush-Hill-Elementary-School/?utm_source=GSAPI&utm_medium=referral#Reviews,https://www.greatschools.org/virginia/alexandria/460-Bush-Hill-Elementary-School/?utm_source=GSAPI&utm_medium=referral,5.0,467.0,6.0,22310
14,2164,Calvary Road Christian School,private,PK-8,Alexandria,VA,,,,"6811 Beulah Street, 
Alexandria, VA  22310",(703) 971-8004,,www.crcs.org,02065361,38.768677,-77.153534,https://www.greatschools.org/virginia/alexandria/2164-Calvary-Road-Christian-School/?utm_source=GSAPI&utm_medium=referral,https://www.greatschools.org/virginia/alexandria/2164-Calvary-Road-Christian-School/?utm_source=GSAPI&utm_medium=referral,https://www.greatschools.org/virginia/alexandria/2164-Calvary-Road-Christian-School/?utm_source=GSAPI&utm_medium=referral#Reviews,https://www.greatschools.org/virginia/alexandria/2164-Calvary-Road-Christian-School/?utm_source=GSAPI&utm_medium=referral,4.0,215.0,,22310
15,462,Cameron Elementary School,public,PK-6,Alexandria,VA,68.0,Fairfax County Public Schools,5101260.0,"3434 Campbell Drive, 
Alexandria, VA  22303",(703) 329-2100,,http://www2.fcps.edu/CameronES/,510126000440,38.80051,-77.09133,https://www.greatschools.org/virginia/alexandria/462-Cameron-Elementary-School/?utm_source=GSAPI&utm_medium=referral,https://www.greatschools.org/virginia/alexandria/462-Cameron-Elementary-School/?utm_source=GSAPI&utm_medium=referral,https://www.greatschools.org/virginia/alexandria/462-Cameron-Elementary-School/?utm_source=GSAPI&utm_medium=referral#Reviews,https://www.greatschools.org/virginia/alexandria/462-Cameron-Elementary-School/?utm_source=GSAPI&utm_medium=referral,4.0,521.0,3.0,22303
16,67,Charles Barrett Elementary School,public,PK-5,Alexandria,VA,30.0,Alexandria City Public Schools,5100120.0,"1115 Martha Custis Drive, 
Alexandria, VA  22302",(703) 824-6960,(703) 379-3782,http://www.acps.k12.va.us/barrett/,510012000038,38.842102,-77.076996,https://www.greatschools.org/virginia/alexandria/67-Charles-Barrett-Elementary-School/?utm_source=GSAPI&utm_medium=referral,https://www.greatschools.org/virginia/alexandria/67-Charles-Barrett-Elementary-School/?utm_source=GSAPI&utm_medium=referral,https://www.greatschools.org/virginia/alexandria/67-Charles-Barrett-Elementary-School/?utm_source=GSAPI&utm_medium=referral#Reviews,https://www.greatschools.org/virginia/alexandria/67-Charles-Barrett-Elementary-School/?utm_source=GSAPI&utm_medium=referral,5.0,477.0,6.0,22302
17,2165,Christian Center School,private,PK-8,Alexandria,VA,,,,"5411 Franconia Road, 
Alexandria, VA  22310",(703) 971-0558,(703) 971-4264,http://www.ccmfamily.org/school,02065372,38.784,-77.1276,https://www.greatschools.org/virginia/alexandria/2165-Christian-Center-School/?utm_source=GSAPI&utm_medium=referral,https://www.greatschools.org/virginia/alexandria/2165-Christian-Center-School/?utm_source=GSAPI&utm_medium=referral,https://www.greatschools.org/virginia/alexandria/2165-Christian-Center-School/?utm_source=GSAPI&utm_medium=referral#Reviews,https://www.greatschools.org/virginia/alexandria/2165-Christian-Center-School/?utm_source=GSAPI&utm_medium=referral,4.0,135.0,,22310
18,467,Clermont Elementary School,public,PK-6,Alexandria,VA,68.0,Fairfax County Public Schools,5101260.0,"5720 Clermont Drive, 
Alexandria, VA  22310",(703) 921-2400,(703) 921-2497,http://fcps.edu/ClermontES/,510126000450,38.79497,-77.111,https://www.greatschools.org/virginia/alexandria/467-Clermont-Elementary-School/?utm_source=GSAPI&utm_medium=referral,https://www.greatschools.org/virginia/alexandria/467-Clermont-Elementary-School/?utm_source=GSAPI&utm_medium=referral,https://www.greatschools.org/virginia/alexandria/467-Clermont-Elementary-School/?utm_source=GSAPI&utm_medium=referral#Reviews,https://www.greatschools.org/virginia/alexandria/467-Clermont-Elementary-School/?utm_source=GSAPI&utm_medium=referral,4.0,545.0,6.0,22310
19,7708,Clifford S. Hardison Governor's Health Sciences Academy,public,n/a,Alexandria,VA,68.0,Fairfax County Public Schools,5101260.0,"6500 Quander Road, 
Alexandria, VA  22307",(703) 329-7727,,,510126003012,38.77438,-77.07182,https://www.greatschools.org/virginia/alexandria/7708-Clifford-S.-Hardison-Governor's-Health-Sciences-Academy/?utm_source=GSAPI&utm_medium=referral,https://www.greatschools.org/virginia/alexandria/7708-Clifford-S.-Hardison-Governor's-Health-Sciences-Academy/?utm_source=GSAPI&utm_medium=referral,https://www.greatschools.org/virginia/alexandria/7708-Clifford-S.-Hardison-Governor's-Health-Sciences-Academy/?utm_source=GSAPI&utm_medium=referral#Reviews,https://www.greatschools.org/virginia/alexandria/7708-Clifford-S.-Hardison-Governor's-Health-Sciences-Academy/?utm_source=GSAPI&utm_medium=referral,,,,22307
20,2561,Commonwealth Academy,private,3-12,alexandria,VA,,,,"1321 Leslie Avenue, Alexandria VA 22301, 
alexandria, VA  22301",(703) 548-6912,(703) 548-6914,www.CA-Empowers.org,A0303208,38.818855,-77.05281,https://www.greatschools.org/virginia/alexandria/2561-Commonwealth-Academy/?utm_source=GSAPI&utm_medium=referral,https://www.greatschools.org/virginia/alexandria/2561-Commonwealth-Academy/?utm_source=GSAPI&utm_medium=referral,https://www.greatschools.org/virginia/alexandria/2561-Commonwealth-Academy/?utm_source=GSAPI&utm_medium=referral#Reviews,https://www.greatschools.org/virginia/alexandria/2561-Commonwealth-Academy/?utm_source=GSAPI&utm_medium=referral,5.0,170.0,,22301
21,83,Cora Kelly Magnet Elementary,public,PK-5,Alexandria,VA,30.0,Alexandria City Public Schools,5100120.0,"3600 Commonwealth Avenue, 
Alexandria, VA  22305",(703) 706-4420,(703) 706-4425,http://www.acps.k12.va.us/kelly/,510012001826,38.837418,-77.057556,https://www.greatschools.org/virginia/alexandria/83-Cora-Kelly-Magnet-Elementary/?utm_source=GSAPI&utm_medium=referral,https://www.greatschools.org/virginia/alexandria/83-Cora-Kelly-Magnet-Elementary/?utm_source=GSAPI&utm_medium=referral,https://www.greatschools.org/virginia/alexandria/83-Cora-Kelly-Magnet-Elementary/?utm_source=GSAPI&utm_medium=referral#Reviews,https://www.greatschools.org/virginia/alexandria/83-Cora-Kelly-Magnet-Elementary/?utm_source=GSAPI&utm_medium=referral,3.0,358.0,3.0,22305
22,68,Douglas Macarthur Elementary School,public,PK-5,Alexandria,VA,30.0,Alexandria City Public Schools,5100120.0,"1101 Janneys Lane, 
Alexandria, VA  22302",(703) 461-4190,(703) 370-2719,www.acps.k12.va.us/macarthur/,510012000039,38.81519,-77.082436,https://www.greatschools.org/virginia/alexandria/68-Douglas-Macarthur-Elementary-School/?utm_source=GSAPI&utm_medium=referral,https://www.greatschools.org/virginia/alexandria/68-Douglas-Macarthur-Elementary-School/?utm_source=GSAPI&utm_medium=referral,https://www.greatschools.org/virginia/alexandria/68-Douglas-Macarthur-Elementary-School/?utm_source=GSAPI&utm_medium=referral#Reviews,https://www.greatschools.org/virginia/alexandria/68-Douglas-Macarthur-Elementary-School/?utm_source=GSAPI&utm_medium=referral,5.0,713.0,3.0,22302
23,5255,Edison High School Academy,public,n/a,Alexandria,VA,68.0,Fairfax County Public Schools,5101260.0,"5801 Franconia Road, 
Alexandria, VA  22310",(703) 924-8000,,,510126002951,38.782112,-77.13396,https://www.greatschools.org/virginia/alexandria/5255-Edison-High-School-Academy/?utm_source=GSAPI&utm_medium=referral,https://www.greatschools.org/virginia/alexandria/5255-Edison-High-School-Academy/?utm_source=GSAPI&utm_medium=referral,https://www.greatschools.org/virginia/alexandria/5255-Edison-High-School-Academy/?utm_source=GSAPI&utm_medium=referral#Reviews,https://www.greatschools.org/virginia/alexandria/5255-Edison-High-School-Academy/?utm_source=GSAPI&utm_medium=referral,,,,22310
24,1982,Engleside Christian School,private,PK-6,Alexandria,VA,,,,"8428 Highland Ln, 
Alexandria, VA  22309",(703) 780-4332,(703) 780-3947,http://www.ebcecs.com,01432845,38.728214,-77.120834,https://www.greatschools.org/virginia/alexandria/1982-Engleside-Christian-School/?utm_source=GSAPI&utm_medium=referral,https://www.greatschools.org/virginia/alexandria/1982-Engleside-Christian-School/?utm_source=GSAPI&utm_medium=referral,https://www.greatschools.org/virginia/alexandria/1982-Engleside-Christian-School/?utm_source=GSAPI&utm_medium=referral#Reviews,https://www.greatschools.org/virginia/alexandria/1982-Engleside-Christian-School/?utm_source=GSAPI&utm_medium=referral,4.0,52.0,,22309
25,70,George Mason Elementary School,public,PK-5,Alexandria,VA,30.0,Alexandria City Public Schools,5100120.0,"2601 Cameron Mills Road, 
Alexandria, VA  22302",(703) 706-4470,(703) 683-9011,acps.k12.va.us/mason,510012000041,38.828445,-77.07308,https://www.greatschools.org/virginia/alexandria/70-George-Mason-Elementary-School/?utm_source=GSAPI&utm_medium=referral,https://www.greatschools.org/virginia/alexandria/70-George-Mason-Elementary-School/?utm_source=GSAPI&utm_medium=referral,https://www.greatschools.org/virginia/alexandria/70-George-Mason-Elementary-School/?utm_source=GSAPI&utm_medium=referral#Reviews,https://www.greatschools.org/virginia/alexandria/70-George-Mason-Elementary-School/?utm_source=GSAPI&utm_medium=referral,5.0,560.0,4.0,22302
26,1970,Grace Episcopal School,private,PK-5,Alexandria,VA,,,,"3601 Russell Rd, 
Alexandria, VA  22305",(703) 549-5067,(703) 549-9545,http://www.graceschoolalex.org,01432506,38.837425,-77.0648,https://www.greatschools.org/virginia/alexandria/1970-Grace-Episcopal-School/?utm_source=GSAPI&utm_medium=referral,https://www.greatschools.org/virginia/alexandria/1970-Grace-Episcopal-School/?utm_source=GSAPI&utm_medium=referral,https://www.greatschools.org/virginia/alexandria/1970-Grace-Episcopal-School/?utm_source=GSAPI&utm_medium=referral#Reviews,https://www.greatschools.org/virginia/alexandria/1970-Grace-Episcopal-School/?utm_source=GSAPI&utm_medium=referral,4.0,108.0,,22305
27,501,Groveton Elementary School,public,PK-6,Alexandria,VA,68.0,Fairfax County Public Schools,5101260.0,"6900 Harrison Lane, 
Alexandria, VA  22306",(703) 718-8000,,http://www.fcps.edu/GrovetonES/,510126000488,38.76886,-77.095,https://www.greatschools.org/virginia/alexandria/501-Groveton-Elementary-School/?utm_source=GSAPI&utm_medium=referral,https://www.greatschools.org/virginia/alexandria/501-Groveton-Elementary-School/?utm_source=GSAPI&utm_medium=referral,https://www.greatschools.org/virginia/alexandria/501-Groveton-Elementary-School/?utm_source=GSAPI&utm_medium=referral#Reviews,https://www.greatschools.org/virginia/alexandria/501-Groveton-Elementary-School/?utm_source=GSAPI&utm_medium=referral,4.0,801.0,3.0,22306
28,505,Hayfield Elementary School,public,PK-6,Alexandria,VA,68.0,Fairfax County Public Schools,5101260.0,"7633 Telegraph Road, 
Alexandria, VA  22315",(703) 924-4500,,http://www.fcps.edu/HayfieldES/,510126000492,38.748833,-77.14069,https://www.greatschools.org/virginia/alexandria/505-Hayfield-Elementary-School/?utm_source=GSAPI&utm_medium=referral,https://www.greatschools.org/virginia/alexandria/505-Hayfield-Elementary-School/?utm_source=GSAPI&utm_medium=referral,https://www.greatschools.org/virginia/alexandria/505-Hayfield-Elementary-School/?utm_source=GSAPI&utm_medium=referral#Reviews,https://www.greatschools.org/virginia/alexandria/505-Hayfield-Elementary-School/?utm_source=GSAPI&utm_medium=referral,4.0,726.0,5.0,22315
29,512,Hollin Meadows Elementary School,public,PK-6,Alexandria,VA,68.0,Fairfax County Public Schools,5101260.0,"2310 Nordok Place, 
Alexandria, VA  22306",(703) 718-8300,(703) 718-8397,http://www.fcps.edu/HollinMeadowsES/,510126000499,38.75018,-77.071785,https://www.greatschools.org/virginia/alexandria/512-Hollin-Meadows-Elementary-School/?utm_source=GSAPI&utm_medium=referral,https://www.greatschools.org/virginia/alexandria/512-Hollin-Meadows-Elementary-School/?utm_source=GSAPI&utm_medium=referral,https://www.greatschools.org/virginia/alexandria/512-Hollin-Meadows-Elementary-School/?utm_source=GSAPI&utm_medium=referral#Reviews,https://www.greatschools.org/virginia/alexandria/512-Hollin-Meadows-Elementary-School/?utm_source=GSAPI&utm_medium=referral,4.0,651.0,3.0,22306
30,516,Hybla Valley Elementary School,public,PK-6,Alexandria,VA,68.0,Fairfax County Public Schools,5101260.0,"3415 Lockheed Boulevard, 
Alexandria, VA  22306",(703) 718-7000,,,510126000503,38.758614,-77.089806,https://www.greatschools.org/virginia/alexandria/516-Hybla-Valley-Elementary-School/?utm_source=GSAPI&utm_medium=referral,https://www.greatschools.org/virginia/alexandria/516-Hybla-Valley-Elementary-School/?utm_source=GSAPI&utm_medium=referral,https://www.greatschools.org/virginia/alexandria/516-Hybla-Valley-Elementary-School/?utm_source=GSAPI&utm_medium=referral#Reviews,https://www.greatschools.org/virginia/alexandria/516-Hybla-Valley-Elementary-School/?utm_source=GSAPI&utm_medium=referral,3.0,977.0,3.0,22306
31,2260,Immanuel Lutheran School,private,PK-8,Alexandria,VA,,,,"1801 Russell Road Road, 
Alexandria, VA  22301",(703) 549-0155,,http://www.ilsalexandria.org,A9301005,38.818947,-77.059326,https://www.greatschools.org/virginia/alexandria/2260-Immanuel-Lutheran-School/?utm_source=GSAPI&utm_medium=referral,https://www.greatschools.org/virginia/alexandria/2260-Immanuel-Lutheran-School/?utm_source=GSAPI&utm_medium=referral,https://www.greatschools.org/virginia/alexandria/2260-Immanuel-Lutheran-School/?utm_source=GSAPI&utm_medium=referral#Reviews,https://www.greatschools.org/virginia/alexandria/2260-Immanuel-Lutheran-School/?utm_source=GSAPI&utm_medium=referral,4.0,190.0,,22301
32,2218,Islamic Saudi Academy,private,K-12,Alexandria,VA,,,,"8333 Richmond Highway, 
Alexandria, VA  22309",(703) 780-0606,,http://www.saudiacademy.net/,A9106646,38.730618,-77.10161,https://www.greatschools.org/virginia/alexandria/2218-Islamic-Saudi-Academy/?utm_source=GSAPI&utm_medium=referral,https://www.greatschools.org/virginia/alexandria/2218-Islamic-Saudi-Academy/?utm_source=GSAPI&utm_medium=referral,https://www.greatschools.org/virginia/alexandria/2218-Islamic-Saudi-Academy/?utm_source=GSAPI&utm_medium=referral#Reviews,https://www.greatschools.org/virginia/alexandria/2218-Islamic-Saudi-Academy/?utm_source=GSAPI&utm_medium=referral,4.0,614.0,,22309
33,3012,Island Creek Elementary School,public,PK-6,Alexandria,VA,68.0,Fairfax County Public Schools,5101260.0,"7855 Morning View Lane, 
Alexandria, VA  22315",(571) 642-6300,,,510126002334,38.745617,-77.1682,https://www.greatschools.org/virginia/alexandria/3012-Island-Creek-Elementary-School/?utm_source=GSAPI&utm_medium=referral,https://www.greatschools.org/virginia/alexandria/3012-Island-Creek-Elementary-School/?utm_source=GSAPI&utm_medium=referral,https://www.greatschools.org/virginia/alexandria/3012-Island-Creek-Elementary-School/?utm_source=GSAPI&utm_medium=referral#Reviews,https://www.greatschools.org/virginia/alexandria/3012-Island-Creek-Elementary-School/?utm_source=GSAPI&utm_medium=referral,4.0,804.0,6.0,22315
34,72,James K Polk Elementary School,public,PK-5,Alexandria,VA,30.0,Alexandria City Public Schools,5100120.0,"5000 Polk Avenue, 
Alexandria, VA  22304",(703) 461-4180,(703) 751-8614,http://www.acps.k12.va.us/profiles/polk.php,510012000043,38.82152,-77.116066,https://www.greatschools.org/virginia/alexandria/72-James-K-Polk-Elementary-School/?utm_source=GSAPI&utm_medium=referral,https://www.greatschools.org/virginia/alexandria/72-James-K-Polk-Elementary-School/?utm_source=GSAPI&utm_medium=referral,https://www.greatschools.org/virginia/alexandria/72-James-K-Polk-Elementary-School/?utm_source=GSAPI&utm_medium=referral#Reviews,https://www.greatschools.org/virginia/alexandria/72-James-K-Polk-Elementary-School/?utm_source=GSAPI&utm_medium=referral,4.0,743.0,4.0,22304
35,73,Jefferson-Houston PreK-8 School,public,PK-8,Alexandria,VA,30.0,Alexandria City Public Schools,5100120.0,"1501 Cameron Street, 
Alexandria, VA  22314",(703) 706-4400,(703) 836-7923,http://www.acps.k12.va.us/houston/,510012000044,38.808487,-77.05533,https://www.greatschools.org/virginia/alexandria/73-Jefferson-Houston-PreK-8-School/?utm_source=GSAPI&utm_medium=referral,https://www.greatschools.org/virginia/alexandria/73-Jefferson-Houston-PreK-8-School/?utm_source=GSAPI&utm_medium=referral,https://www.greatschools.org/virginia/alexandria/73-Jefferson-Houston-PreK-8-School/?utm_source=GSAPI&utm_medium=referral#Reviews,https://www.greatschools.org/virginia/alexandria/73-Jefferson-Houston-PreK-8-School/?utm_source=GSAPI&utm_medium=referral,3.0,591.0,3.0,22314
36,74,John Adams Elementary School,public,PK-5,Alexandria,VA,30.0,Alexandria City Public Schools,5100120.0,"5651 Rayburn Avenue, 
Alexandria, VA  22311",(703) 824-6970,(703) 379-4853,http://www.acps.k12.va.us/adams/,510012000045,38.833614,-77.1257,https://www.greatschools.org/virginia/alexandria/74-John-Adams-Elementary-School/?utm_source=GSAPI&utm_medium=referral,https://www.greatschools.org/virginia/alexandria/74-John-Adams-Elementary-School/?utm_source=GSAPI&utm_medium=referral,https://www.greatschools.org/virginia/alexandria/74-John-Adams-Elementary-School/?utm_source=GSAPI&utm_medium=referral#Reviews,https://www.greatschools.org/virginia/alexandria/74-John-Adams-Elementary-School/?utm_source=GSAPI&utm_medium=referral,3.0,1019.0,3.0,22311
37,603,Lane Elementary School,public,PK-6,Alexandria,VA,68.0,Fairfax County Public Schools,5101260.0,"7137 Beulah Street, 
Alexandria, VA  22315",(703) 924-7700,,http://www.fcps.edu/LaneES/,510126001091,38.760525,-77.15689,https://www.greatschools.org/virginia/alexandria/603-Lane-Elementary-School/?utm_source=GSAPI&utm_medium=referral,https://www.greatschools.org/virginia/alexandria/603-Lane-Elementary-School/?utm_source=GSAPI&utm_medium=referral,https://www.greatschools.org/virginia/alexandria/603-Lane-Elementary-School/?utm_source=GSAPI&utm_medium=referral#Reviews,https://www.greatschools.org/virginia/alexandria/603-Lane-Elementary-School/?utm_source=GSAPI&utm_medium=referral,5.0,840.0,6.0,22315
38,2001,Leary School of Virginia,private,"4, 6-12",Alexandria,VA,,,,"6349 Lincolnia Rd, 
Alexandria, VA  22312",(703) 941-8150,,,01433248,38.827858,-77.1485,https://www.greatschools.org/virginia/alexandria/2001-Leary-School-Of-Virginia/?utm_source=GSAPI&utm_medium=referral,https://www.greatschools.org/virginia/alexandria/2001-Leary-School-Of-Virginia/?utm_source=GSAPI&utm_medium=referral,https://www.greatschools.org/virginia/alexandria/2001-Leary-School-Of-Virginia/?utm_source=GSAPI&utm_medium=referral#Reviews,https://www.greatschools.org/virginia/alexandria/2001-Leary-School-Of-Virginia/?utm_source=GSAPI&utm_medium=referral,,,,22312
39,3390,Little Peoples Place,private,PK-5,Alexandria,VA,,,,"2720 Arlington Drive, 
Alexandria, VA  22306",(703) 765-1050,,,A0508288,38.75583,-77.07813,https://www.greatschools.org/virginia/alexandria/3390-Little-Peoples-Place/?utm_source=GSAPI&utm_medium=referral,https://www.greatschools.org/virginia/alexandria/3390-Little-Peoples-Place/?utm_source=GSAPI&utm_medium=referral,https://www.greatschools.org/virginia/alexandria/3390-Little-Peoples-Place/?utm_source=GSAPI&utm_medium=referral#Reviews,https://www.greatschools.org/virginia/alexandria/3390-Little-Peoples-Place/?utm_source=GSAPI&utm_medium=referral,5.0,,,22306
40,75,Lyles-Crouch Elementary,public,PK-5,Alexandria,VA,30.0,Alexandria City Public Schools,5100120.0,"530 South Saint Asaph Street, 
Alexandria, VA  22314",(703) 706-4430,(703) 684-0252,http://www.acps.k12.va.us/crouch/,510012000047,38.79944,-77.04664,https://www.greatschools.org/virginia/alexandria/75-Lyles-Crouch-Elementary/?utm_source=GSAPI&utm_medium=referral,https://www.greatschools.org/virginia/alexandria/75-Lyles-Crouch-Elementary/?utm_source=GSAPI&utm_medium=referral,https://www.greatschools.org/virginia/alexandria/75-Lyles-Crouch-Elementary/?utm_source=GSAPI&utm_medium=referral#Reviews,https://www.greatschools.org/virginia/alexandria/75-Lyles-Crouch-Elementary/?utm_source=GSAPI&utm_medium=referral,4.0,411.0,7.0,22314
41,76,Maury Elementary School,public,PK-5,Alexandria,VA,30.0,Alexandria City Public Schools,5100120.0,"600 Russell Road, 
Alexandria, VA  22301",(703) 706-4440,(703) 683-5146,acps.k12.va.us/maury,510012000048,38.81277,-77.06517,https://www.greatschools.org/virginia/alexandria/76-Maury-Elementary-School/?utm_source=GSAPI&utm_medium=referral,https://www.greatschools.org/virginia/alexandria/76-Maury-Elementary-School/?utm_source=GSAPI&utm_medium=referral,https://www.greatschools.org/virginia/alexandria/76-Maury-Elementary-School/?utm_source=GSAPI&utm_medium=referral#Reviews,https://www.greatschools.org/virginia/alexandria/76-Maury-Elementary-School/?utm_source=GSAPI&utm_medium=referral,5.0,442.0,5.0,22301
42,2045,Montessori School Of Alexandria,private,PK-5,Alexandria,VA,,,,"6300 Florence Lane, 
Alexandria, VA  22310",(703) 960-3498,(703) 960-4667,http://montessorischoolofalexandria.com/,01434059,38.78144,-77.08931,https://www.greatschools.org/virginia/alexandria/2045-Montessori-School-Of-Alexandria/?utm_source=GSAPI&utm_medium=referral,https://www.greatschools.org/virginia/alexandria/2045-Montessori-School-Of-Alexandria/?utm_source=GSAPI&utm_medium=referral,https://www.greatschools.org/virginia/alexandria/2045-Montessori-School-Of-Alexandria/?utm_source=GSAPI&utm_medium=referral#Reviews,https://www.greatschools.org/virginia/alexandria/2045-Montessori-School-Of-Alexandria/?utm_source=GSAPI&utm_medium=referral,4.0,99.0,,22310
43,547,Mount Eagle Elementary School,public,PK-6,Alexandria,VA,68.0,Fairfax County Public Schools,5101260.0,"6116 North Kings Highway, 
Alexandria, VA  22303",(703) 721-2100,,,510126000540,38.78484,-77.07848,https://www.greatschools.org/virginia/alexandria/547-Mount-Eagle-Elementary-School/?utm_source=GSAPI&utm_medium=referral,https://www.greatschools.org/virginia/alexandria/547-Mount-Eagle-Elementary-School/?utm_source=GSAPI&utm_medium=referral,https://www.greatschools.org/virginia/alexandria/547-Mount-Eagle-Elementary-School/?utm_source=GSAPI&utm_medium=referral#Reviews,https://www.greatschools.org/virginia/alexandria/547-Mount-Eagle-Elementary-School/?utm_source=GSAPI&utm_medium=referral,4.0,406.0,2.0,22303
44,78,Mount Vernon Community School,public,PK-5,Alexandria,VA,30.0,Alexandria City Public Schools,5100120.0,"2601 Commonwealth Avenue, 
Alexandria, VA  22301",(703) 706-4460,(703) 706-4466,http://www.acps.k12.va.us/mtvernon/index.php,510012000050,38.828323,-77.06009,https://www.greatschools.org/virginia/alexandria/78-Mount-Vernon-Community-School/?utm_source=GSAPI&utm_medium=referral,https://www.greatschools.org/virginia/alexandria/78-Mount-Vernon-Community-School/?utm_source=GSAPI&utm_medium=referral,https://www.greatschools.org/virginia/alexandria/78-Mount-Vernon-Community-School/?utm_source=GSAPI&utm_medium=referral#Reviews,https://www.greatschools.org/virginia/alexandria/78-Mount-Vernon-Community-School/?utm_source=GSAPI&utm_medium=referral,4.0,772.0,2.0,22301
45,549,Mount Vernon Woods Elementary School,public,PK-6,Alexandria,VA,68.0,Fairfax County Public Schools,5101260.0,"4015 Fielding Street, 
Alexandria, VA  22309",(703) 619-2800,,,510126000543,38.742565,-77.100426,https://www.greatschools.org/virginia/alexandria/549-Mount-Vernon-Woods-Elementary-School/?utm_source=GSAPI&utm_medium=referral,https://www.greatschools.org/virginia/alexandria/549-Mount-Vernon-Woods-Elementary-School/?utm_source=GSAPI&utm_medium=referral,https://www.greatschools.org/virginia/alexandria/549-Mount-Vernon-Woods-Elementary-School/?utm_source=GSAPI&utm_medium=referral#Reviews,https://www.greatschools.org/virginia/alexandria/549-Mount-Vernon-Woods-Elementary-School/?utm_source=GSAPI&utm_medium=referral,1.0,689.0,2.0,22309
46,558,Parklawn Elementary School,public,PK-5,Alexandria,VA,68.0,Fairfax County Public Schools,5101260.0,"4116 Braddock Road, 
Alexandria, VA  22312",(703) 914-6900,(703) 914-6997,http://www.fcps.edu/ParklawnES/,510126000553,38.833706,-77.15335,https://www.greatschools.org/virginia/alexandria/558-Parklawn-Elementary-School/?utm_source=GSAPI&utm_medium=referral,https://www.greatschools.org/virginia/alexandria/558-Parklawn-Elementary-School/?utm_source=GSAPI&utm_medium=referral,https://www.greatschools.org/virginia/alexandria/558-Parklawn-Elementary-School/?utm_source=GSAPI&utm_medium=referral#Reviews,https://www.greatschools.org/virginia/alexandria/558-Parklawn-Elementary-School/?utm_source=GSAPI&utm_medium=referral,4.0,707.0,3.0,22312
47,79,Patrick Henry Elementary School,public,PK-5,Alexandria,VA,30.0,Alexandria City Public Schools,5100120.0,"4643 Taney Avenue, 
Alexandria, VA  22304",(703) 461-4170,(703) 823-3350,httP://www.acps.k12.va.us/henry,510012000052,38.817543,-77.111374,https://www.greatschools.org/virginia/alexandria/79-Patrick-Henry-Elementary-School/?utm_source=GSAPI&utm_medium=referral,https://www.greatschools.org/virginia/alexandria/79-Patrick-Henry-Elementary-School/?utm_source=GSAPI&utm_medium=referral,https://www.greatschools.org/virginia/alexandria/79-Patrick-Henry-Elementary-School/?utm_source=GSAPI&utm_medium=referral#Reviews,https://www.greatschools.org/virginia/alexandria/79-Patrick-Henry-Elementary-School/?utm_source=GSAPI&utm_medium=referral,4.0,643.0,5.0,22304
48,3572,Potomac Crescent Waldorf School,private,PK-5,Alexandria,VA,,,,"3846 King St., 
Alexandria, VA  22302",(703) 486-1309,,https://potomacwaldorf.org/,A0702374,38.83146,-77.09462,https://www.greatschools.org/virginia/alexandria/3572-Potomac-Crescent-Waldorf-School/?utm_source=GSAPI&utm_medium=referral,https://www.greatschools.org/virginia/alexandria/3572-Potomac-Crescent-Waldorf-School/?utm_source=GSAPI&utm_medium=referral,https://www.greatschools.org/virginia/alexandria/3572-Potomac-Crescent-Waldorf-School/?utm_source=GSAPI&utm_medium=referral#Reviews,https://www.greatschools.org/virginia/alexandria/3572-Potomac-Crescent-Waldorf-School/?utm_source=GSAPI&utm_medium=referral,4.0,70.0,,22302
49,3070,Pulley Vocational Center,public,n/a,Alexandria,VA,68.0,Fairfax County Public Schools,5101260.0,"6500 Quander Road, 
Alexandria, VA  22307",(703) 718-2700,,,510126002033,38.77438,-77.07182,https://www.greatschools.org/virginia/alexandria/3070-Pulley-Vocational-Center/?utm_source=GSAPI&utm_medium=referral,https://www.greatschools.org/virginia/alexandria/3070-Pulley-Vocational-Center/?utm_source=GSAPI&utm_medium=referral,https://www.greatschools.org/virginia/alexandria/3070-Pulley-Vocational-Center/?utm_source=GSAPI&utm_medium=referral#Reviews,https://www.greatschools.org/virginia/alexandria/3070-Pulley-Vocational-Center/?utm_source=GSAPI&utm_medium=referral,,,,22307
50,3058,Quander Road School,public,n/a,Alexandria,VA,68.0,Fairfax County Public Schools,5101260.0,"6400 Quander Road, 
Alexandria, VA  22307",(703) 718-2400,,,510126000558,38.778667,-77.07166,https://www.greatschools.org/virginia/alexandria/3058-Quander-Road-School/?utm_source=GSAPI&utm_medium=referral,https://www.greatschools.org/virginia/alexandria/3058-Quander-Road-School/?utm_source=GSAPI&utm_medium=referral,https://www.greatschools.org/virginia/alexandria/3058-Quander-Road-School/?utm_source=GSAPI&utm_medium=referral#Reviews,https://www.greatschools.org/virginia/alexandria/3058-Quander-Road-School/?utm_source=GSAPI&utm_medium=referral,,,,22307
51,1966,Queen Of Apostles Catholic School,private,K-8,Alexandria,VA,,,,"4409 Sano Street, 
Alexandria, VA  22312",(703) 354-0714,(703) 354-4820,,01432357,38.82861,-77.144196,https://www.greatschools.org/virginia/alexandria/1966-Queen-Of-Apostles-Catholic-School/?utm_source=GSAPI&utm_medium=referral,https://www.greatschools.org/virginia/alexandria/1966-Queen-Of-Apostles-Catholic-School/?utm_source=GSAPI&utm_medium=referral,https://www.greatschools.org/virginia/alexandria/1966-Queen-Of-Apostles-Catholic-School/?utm_source=GSAPI&utm_medium=referral#Reviews,https://www.greatschools.org/virginia/alexandria/1966-Queen-Of-Apostles-Catholic-School/?utm_source=GSAPI&utm_medium=referral,4.0,185.0,,22312
52,563,Riverside Elementary School,public,PK-6,Alexandria,VA,68.0,Fairfax County Public Schools,5101260.0,"8410 Old Mount Vernon Road, 
Alexandria, VA  22309",(703) 799-6000,,,510126000560,38.72982,-77.09454,https://www.greatschools.org/virginia/alexandria/563-Riverside-Elementary-School/?utm_source=GSAPI&utm_medium=referral,https://www.greatschools.org/virginia/alexandria/563-Riverside-Elementary-School/?utm_source=GSAPI&utm_medium=referral,https://www.greatschools.org/virginia/alexandria/563-Riverside-Elementary-School/?utm_source=GSAPI&utm_medium=referral#Reviews,https://www.greatschools.org/virginia/alexandria/563-Riverside-Elementary-School/?utm_source=GSAPI&utm_medium=referral,4.0,778.0,4.0,22309
53,566,Rose Hill Elementary School,public,PK-6,Alexandria,VA,68.0,Fairfax County Public Schools,5101260.0,"6301 Rose Hill Drive, 
Alexandria, VA  22310",(703) 313-4200,,http://www2.fcps.edu/RoseHillES/,510126000563,38.781944,-77.117325,https://www.greatschools.org/virginia/alexandria/566-Rose-Hill-Elementary-School/?utm_source=GSAPI&utm_medium=referral,https://www.greatschools.org/virginia/alexandria/566-Rose-Hill-Elementary-School/?utm_source=GSAPI&utm_medium=referral,https://www.greatschools.org/virginia/alexandria/566-Rose-Hill-Elementary-School/?utm_source=GSAPI&utm_medium=referral#Reviews,https://www.greatschools.org/virginia/alexandria/566-Rose-Hill-Elementary-School/?utm_source=GSAPI&utm_medium=referral,4.0,741.0,3.0,22310
54,2528,Samuel W. Tucker Elementary School,public,PK-5,Alexandria,VA,30.0,Alexandria City Public Schools,5100120.0,"435 Ferdinand Day Drive, 
Alexandria, VA  22304",(703) 933-6300,(703) 212-8465,http://www.acps.k12.va.us/tucker/index.php,510012002549,38.805485,-77.126495,https://www.greatschools.org/virginia/alexandria/2528-Samuel-W.-Tucker-Elementary-School/?utm_source=GSAPI&utm_medium=referral,https://www.greatschools.org/virginia/alexandria/2528-Samuel-W.-Tucker-Elementary-School/?utm_source=GSAPI&utm_medium=referral,https://www.greatschools.org/virginia/alexandria/2528-Samuel-W.-Tucker-Elementary-School/?utm_source=GSAPI&utm_medium=referral#Reviews,https://www.greatschools.org/virginia/alexandria/2528-Samuel-W.-Tucker-Elementary-School/?utm_source=GSAPI&utm_medium=referral,4.0,750.0,5.0,22304
55,1953,St Louis Catholic School,private,K-8,Alexandria,VA,,,,"2901 Popkins Lane, 
Alexandria, VA  22306",(703) 768-7732,,www.stlouisschool.org,01432197,38.76423,-77.08245,https://www.greatschools.org/virginia/alexandria/1953-St-Louis-Catholic-School/?utm_source=GSAPI&utm_medium=referral,https://www.greatschools.org/virginia/alexandria/1953-St-Louis-Catholic-School/?utm_source=GSAPI&utm_medium=referral,https://www.greatschools.org/virginia/alexandria/1953-St-Louis-Catholic-School/?utm_source=GSAPI&utm_medium=referral#Reviews,https://www.greatschools.org/virginia/alexandria/1953-St-Louis-Catholic-School/?utm_source=GSAPI&utm_medium=referral,4.0,511.0,,22306
56,1960,St Rita School,private,PK-8,Alexandria,VA,,,,"3801 Russell Road, 
Alexandria, VA  22305",(703) 548-1888,,,01432288,38.838863,-77.0636,https://www.greatschools.org/virginia/alexandria/1960-St-Rita-School/?utm_source=GSAPI&utm_medium=referral,https://www.greatschools.org/virginia/alexandria/1960-St-Rita-School/?utm_source=GSAPI&utm_medium=referral,https://www.greatschools.org/virginia/alexandria/1960-St-Rita-School/?utm_source=GSAPI&utm_medium=referral#Reviews,https://www.greatschools.org/virginia/alexandria/1960-St-Rita-School/?utm_source=GSAPI&utm_medium=referral,5.0,233.0,,22305
57,2997,St. Coletta of Greater Washington,private,n/a,Alexandria,VA,,,,"207 S Peyton Street, 
Alexandria, VA  22314",(703) 683-3686,,,01432073,38.804585,-77.05719,https://www.greatschools.org/virginia/alexandria/2997-St.-Coletta-Of-Greater-Washington/?utm_source=GSAPI&utm_medium=referral,https://www.greatschools.org/virginia/alexandria/2997-St.-Coletta-Of-Greater-Washington/?utm_source=GSAPI&utm_medium=referral,https://www.greatschools.org/virginia/alexandria/2997-St.-Coletta-Of-Greater-Washington/?utm_source=GSAPI&utm_medium=referral#Reviews,https://www.greatschools.org/virginia/alexandria/2997-St.-Coletta-Of-Greater-Washington/?utm_source=GSAPI&utm_medium=referral,,,,22314
58,1965,St. Mary's Elementary School,private,PK-8,Alexandria,VA,,,,"400 Green Street, 
Alexandria, VA  22314",(703) 549-1646,(703) 519-0840,http://www.stmarys-alexva.org,01432335,38.79501,-77.04709,https://www.greatschools.org/virginia/alexandria/1965-St.-Mary's-Elementary-School/?utm_source=GSAPI&utm_medium=referral,https://www.greatschools.org/virginia/alexandria/1965-St.-Mary's-Elementary-School/?utm_source=GSAPI&utm_medium=referral,https://www.greatschools.org/virginia/alexandria/1965-St.-Mary's-Elementary-School/?utm_source=GSAPI&utm_medium=referral#Reviews,https://www.greatschools.org/virginia/alexandria/1965-St.-Mary's-Elementary-School/?utm_source=GSAPI&utm_medium=referral,3.0,696.0,,22314
59,2089,St. Stephen's & St. Agnes School,private,PK-12,Alexandria,VA,,,,"1000 Saint Stephens Road, 
Alexandria, VA  22304",(703) 212-2730,(703) 751-7142,,01435336,38.817944,-77.10117,https://www.greatschools.org/virginia/alexandria/2089-St.-Stephen's-&-St.-Agnes-School/?utm_source=GSAPI&utm_medium=referral,https://www.greatschools.org/virginia/alexandria/2089-St.-Stephen's-&-St.-Agnes-School/?utm_source=GSAPI&utm_medium=referral,https://www.greatschools.org/virginia/alexandria/2089-St.-Stephen's-&-St.-Agnes-School/?utm_source=GSAPI&utm_medium=referral#Reviews,https://www.greatschools.org/virginia/alexandria/2089-St.-Stephen's-&-St.-Agnes-School/?utm_source=GSAPI&utm_medium=referral,4.0,1141.0,,22304
60,573,Stratford Landing Elementary School,public,PK-6,Alexandria,VA,68.0,Fairfax County Public Schools,5101260.0,"8484 Riverside Road, 
Alexandria, VA  22308",(703) 619-3600,,,510126000570,38.72837,-77.069084,https://www.greatschools.org/virginia/alexandria/573-Stratford-Landing-Elementary-School/?utm_source=GSAPI&utm_medium=referral,https://www.greatschools.org/virginia/alexandria/573-Stratford-Landing-Elementary-School/?utm_source=GSAPI&utm_medium=referral,https://www.greatschools.org/virginia/alexandria/573-Stratford-Landing-Elementary-School/?utm_source=GSAPI&utm_medium=referral#Reviews,https://www.greatschools.org/virginia/alexandria/573-Stratford-Landing-Elementary-School/?utm_source=GSAPI&utm_medium=referral,4.0,890.0,5.0,22308
61,2067,The Aquinas Montessori School,private,PK-6,Alexandria,VA,,,,"8334 Mount Vernon Highway, 
Alexandria, VA  22309",(703) 780-8484,,http://www.aquinasmontessorischool.com,01434671,38.728954,-77.09114,https://www.greatschools.org/virginia/alexandria/2067-The-Aquinas-Montessori-School/?utm_source=GSAPI&utm_medium=referral,https://www.greatschools.org/virginia/alexandria/2067-The-Aquinas-Montessori-School/?utm_source=GSAPI&utm_medium=referral,https://www.greatschools.org/virginia/alexandria/2067-The-Aquinas-Montessori-School/?utm_source=GSAPI&utm_medium=referral#Reviews,https://www.greatschools.org/virginia/alexandria/2067-The-Aquinas-Montessori-School/?utm_source=GSAPI&utm_medium=referral,4.0,142.0,,22309
62,5104,Washington Islamic Academy,private,PK-8,Alexandria,VA,,,,"6408 Edsall Road, 
Alexandria, VA  22312",(703) 941-6977,,http://wiacademy.org/,A0702386,38.804844,-77.15736,https://www.greatschools.org/virginia/alexandria/5104-Washington-Islamic-Academy/?utm_source=GSAPI&utm_medium=referral,https://www.greatschools.org/virginia/alexandria/5104-Washington-Islamic-Academy/?utm_source=GSAPI&utm_medium=referral,https://www.greatschools.org/virginia/alexandria/5104-Washington-Islamic-Academy/?utm_source=GSAPI&utm_medium=referral#Reviews,https://www.greatschools.org/virginia/alexandria/5104-Washington-Islamic-Academy/?utm_source=GSAPI&utm_medium=referral,5.0,214.0,,22312
63,583,Washington Mill Elementary School,public,PK-6,Alexandria,VA,68.0,Fairfax County Public Schools,5101260.0,"9100 Cherrytree Drive, 
Alexandria, VA  22309",(703) 619-2500,(703) 619-2597,http://www.fcps.edu/WashingtonMillES/,510126000582,38.709927,-77.10473,https://www.greatschools.org/virginia/alexandria/583-Washington-Mill-Elementary-School/?utm_source=GSAPI&utm_medium=referral,https://www.greatschools.org/virginia/alexandria/583-Washington-Mill-Elementary-School/?utm_source=GSAPI&utm_medium=referral,https://www.greatschools.org/virginia/alexandria/583-Washington-Mill-Elementary-School/?utm_source=GSAPI&utm_medium=referral#Reviews,https://www.greatschools.org/virginia/alexandria/583-Washington-Mill-Elementary-School/?utm_source=GSAPI&utm_medium=referral,4.0,612.0,4.0,22309
64,584,Waynewood Elementary School,public,PK-6,Alexandria,VA,68.0,Fairfax County Public Schools,5101260.0,"1205 Waynewood Boulevard, 
Alexandria, VA  22308",(703) 704-7100,,http://fcps.edu/WaynewoodES/,510126000583,38.725117,-77.05588,https://www.greatschools.org/virginia/alexandria/584-Waynewood-Elementary-School/?utm_source=GSAPI&utm_medium=referral,https://www.greatschools.org/virginia/alexandria/584-Waynewood-Elementary-School/?utm_source=GSAPI&utm_medium=referral,https://www.greatschools.org/virginia/alexandria/584-Waynewood-Elementary-School/?utm_source=GSAPI&utm_medium=referral#Reviews,https://www.greatschools.org/virginia/alexandria/584-Waynewood-Elementary-School/?utm_source=GSAPI&utm_medium=referral,4.0,763.0,8.0,22308
65,5417,West Potomac High School Academy,public,n/a,Alexandria,VA,68.0,Fairfax County Public Schools,5101260.0,"6500 Quander Road, 
Alexandria, VA  22307",(703) 718-2500,,,510126002945,38.77438,-77.07182,https://www.greatschools.org/virginia/alexandria/5417-West-Potomac-High-School-Academy/?utm_source=GSAPI&utm_medium=referral,https://www.greatschools.org/virginia/alexandria/5417-West-Potomac-High-School-Academy/?utm_source=GSAPI&utm_medium=referral,https://www.greatschools.org/virginia/alexandria/5417-West-Potomac-High-School-Academy/?utm_source=GSAPI&utm_medium=referral#Reviews,https://www.greatschools.org/virginia/alexandria/5417-West-Potomac-High-School-Academy/?utm_source=GSAPI&utm_medium=referral,,2498.0,,22307
66,591,Weyanoke Elementary School,public,PK-5,Alexandria,VA,68.0,Fairfax County Public Schools,5101260.0,"6520 Braddock Road, 
Alexandria, VA  22312",(703) 813-5400,,https://weyanokees.fcps.edu,510126000590,38.81966,-77.16568,https://www.greatschools.org/virginia/alexandria/591-Weyanoke-Elementary-School/?utm_source=GSAPI&utm_medium=referral,https://www.greatschools.org/virginia/alexandria/591-Weyanoke-Elementary-School/?utm_source=GSAPI&utm_medium=referral,https://www.greatschools.org/virginia/alexandria/591-Weyanoke-Elementary-School/?utm_source=GSAPI&utm_medium=referral#Reviews,https://www.greatschools.org/virginia/alexandria/591-Weyanoke-Elementary-School/?utm_source=GSAPI&utm_medium=referral,3.0,531.0,3.0,22312
67,81,William Ramsay Elementary School,public,PK-5,Alexandria,VA,30.0,Alexandria City Public Schools,5100120.0,"5700 Sanger Avenue, 
Alexandria, VA  22311",(703) 824-6950,,http://www.acps.k12.va.us/ramsay,510012000055,38.82699,-77.13183,https://www.greatschools.org/virginia/alexandria/81-William-Ramsay-Elementary-School/?utm_source=GSAPI&utm_medium=referral,https://www.greatschools.org/virginia/alexandria/81-William-Ramsay-Elementary-School/?utm_source=GSAPI&utm_medium=referral,https://www.greatschools.org/virginia/alexandria/81-William-Ramsay-Elementary-School/?utm_source=GSAPI&utm_medium=referral#Reviews,https://www.greatschools.org/virginia/alexandria/81-William-Ramsay-Elementary-School/?utm_source=GSAPI&utm_medium=referral,4.0,701.0,1.0,22311
68,595,Woodlawn Elementary School,public,PK-6,Alexandria,VA,68.0,Fairfax County Public Schools,5101260.0,"8505 Highland Lane, 
Alexandria, VA  22309",(703) 619-4800,,,510126000598,38.726364,-77.118225,https://www.greatschools.org/virginia/alexandria/595-Woodlawn-Elementary-School/?utm_source=GSAPI&utm_medium=referral,https://www.greatschools.org/virginia/alexandria/595-Woodlawn-Elementary-School/?utm_source=GSAPI&utm_medium=referral,https://www.greatschools.org/virginia/alexandria/595-Woodlawn-Elementary-School/?utm_source=GSAPI&utm_medium=referral#Reviews,https://www.greatschools.org/virginia/alexandria/595-Woodlawn-Elementary-School/?utm_source=GSAPI&utm_medium=referral,3.0,742.0,3.0,22309
69,596,Woodley Hills Elementary School,public,PK-6,Alexandria,VA,68.0,Fairfax County Public Schools,5101260.0,"8718 Old Mount Vernon Road, 
Alexandria, VA  22309",(703) 799-2000,(703) 799-2097,http://www.fcps.edu/WoodleyHillsES/,510126000599,38.72044,-77.09742,https://www.greatschools.org/virginia/alexandria/596-Woodley-Hills-Elementary-School/?utm_source=GSAPI&utm_medium=referral,https://www.greatschools.org/virginia/alexandria/596-Woodley-Hills-Elementary-School/?utm_source=GSAPI&utm_medium=referral,https://www.greatschools.org/virginia/alexandria/596-Woodley-Hills-Elementary-School/?utm_source=GSAPI&utm_medium=referral#Reviews,https://www.greatschools.org/virginia/alexandria/596-Woodley-Hills-Elementary-School/?utm_source=GSAPI&utm_medium=referral,4.0,778.0,2.0,22309
